{
"type": "FeatureCollection",
"name": "astoria",
"crs": { "type": "name", "properties": { "name": "urn:ogc:def:crs:OGC:1.3:CRS84" } },
"features": [
{ "type": "Feature", "properties": { "OBJECTID": 157, "BoroCode": 4, "BoroName": "Queens", "CountyFIPS": "081", "NTA2020": "QN0101", "NTAName": "Astoria (North)-Ditmars-Steinway", "NTAAbbrev": "Astr_N", "NTAType": 0, "CDTA2020": "QN01", "CDTAName": "QN01 Astoria-Queensbridge (CD 1 Equivalent)", "Shape__Area": 58301781.054101467, "Shape__Length": 45685.63974609779 }, "geometry": { "type": "Polygon", "coordinates": [ [ [ -73.902180936000207, 40.767324112218297 ], [ -73.902574642707094, 40.766927695905999 ], [ -73.902799022475904, 40.766692669019299 ], [ -73.903015410106406, 40.766453349653098 ], [ -73.903223664328493, 40.766209894211798 ], [ -73.903423647892097, 40.765962463075802 ], [ -73.903454708280293, 40.765926338704404 ], [ -73.903513696421498, 40.765857730497203 ], [ -73.903504330603695, 40.765835306856999 ], [ -73.9032508601356, 40.765228490022899 ], [ -73.902937243823104, 40.764480095213301 ], [ -73.902925071521494, 40.7644510488688 ], [ -73.902695747170299, 40.763903794418802 ], [ -73.902639369944097, 40.763759287027 ], [ -73.902370898657395, 40.763124098937297 ], [ -73.902335454327897, 40.763040237752499 ], [ -73.9021756430339, 40.762666797107698 ], [ -73.902074376943901, 40.762389239880903 ], [ -73.901997373340606, 40.762130233574503 ], [ -73.901902137861001, 40.761748203071299 ], [ -73.901665113572307, 40.760797383109697 ], [ -73.901755152853895, 40.7607837444084 ], [ -73.901820159298197, 40.760767636584298 ], [ -73.901685360222203, 40.760242115237503 ], [ -73.901578329936896, 40.759824844409998 ], [ -73.901529933516997, 40.759636163912802 ], [ -73.901471948647, 40.759641319369102 ], [ -73.901401890731606, 40.759648009891599 ], [ -73.901275899659197, 40.7596597477567 ], [ -73.899019464826907, 40.7598994822892 ], [ -73.898868597866198, 40.759912475948497 ], [ -73.898773924908397, 40.759923846554898 ], [ -73.898662795647795, 40.759929287265997 ], [ -73.898556346659504, 40.7599323725549 ], [ -73.898753972650297, 40.7596597465473 ], [ -73.8990020489111, 40.759317521016698 ], [ -73.8990446134205, 40.7592522481374 ], [ -73.899339249146607, 40.758800419379597 ], [ -73.899454629005106, 40.758556714655597 ], [ -73.899553825273202, 40.758308924781502 ], [ -73.8996559977451, 40.757989661427999 ], [ -73.899702715993399, 40.757803580832203 ], [ -73.899710204385499, 40.757760998207097 ], [ -73.899730554719596, 40.757645264460898 ], [ -73.899734868550397, 40.757625265603799 ], [ -73.899741324226099, 40.757576148560297 ], [ -73.899744688266395, 40.757501419618798 ], [ -73.899739836819904, 40.757429103943302 ], [ -73.899735187485007, 40.757394206562502 ], [ -73.899692234793505, 40.757030587337503 ], [ -73.899593088954106, 40.756563876832601 ], [ -73.899481524525001, 40.756254848862099 ], [ -73.899226424852003, 40.7555503177649 ], [ -73.899122331289604, 40.755314559796197 ], [ -73.898992297019504, 40.755034737871398 ], [ -73.898971240500899, 40.754989426707802 ], [ -73.898877865542701, 40.754754658930501 ], [ -73.898864122946804, 40.754720103647301 ], [ -73.898605490942202, 40.754285583033997 ], [ -73.898543647713396, 40.754178380702498 ], [ -73.898630891048398, 40.754169790710201 ], [ -73.898739580939903, 40.754161938696001 ], [ -73.899216884512299, 40.7541144871808 ], [ -73.899574902294404, 40.754071800580903 ], [ -73.900304180105906, 40.753999583459297 ], [ -73.901214896947806, 40.753910479210603 ], [ -73.902122620498503, 40.753809280050397 ], [ -73.902473547921701, 40.753771306005802 ], [ -73.902990542098294, 40.753716650567704 ], [ -73.903924224332499, 40.753619592610498 ], [ -73.904918332343897, 40.7535135463133 ], [ -73.905865822194798, 40.753412116609603 ], [ -73.906118499307297, 40.753387144137903 ], [ -73.906686878648699, 40.753316210668999 ], [ -73.906910316896997, 40.753293116538998 ], [ -73.907595679309097, 40.753230552875301 ], [ -73.908238030257394, 40.753170692277699 ], [ -73.910232666953505, 40.752984791100097 ], [ -73.910676169382199, 40.7530033439403 ], [ -73.912570962827303, 40.753312483349902 ], [ -73.913543256518807, 40.7534769820317 ], [ -73.914465929453797, 40.7536846791849 ], [ -73.914685719075706, 40.753688336768199 ], [ -73.915474684645702, 40.753800085703602 ], [ -73.916506767871795, 40.753899858380898 ], [ -73.917633351049005, 40.753866116320197 ], [ -73.9189249042943, 40.753644391863901 ], [ -73.920278270083898, 40.753346385560299 ], [ -73.920480683064994, 40.7532935046193 ], [ -73.921620518752803, 40.753035921663397 ], [ -73.922041628220398, 40.752945895258698 ], [ -73.922967857368306, 40.752737069995398 ], [ -73.924418909436497, 40.752412569301299 ], [ -73.925628863065398, 40.752145511679601 ], [ -73.925962150136399, 40.7521047347389 ], [ -73.926470094727094, 40.752076835286999 ], [ -73.927909499388306, 40.752059062081798 ], [ -73.928743582424204, 40.752049891509799 ], [ -73.929143667189607, 40.752039801604198 ], [ -73.930155750193194, 40.752020391283899 ], [ -73.931266495329496, 40.752000788908497 ], [ -73.931960065301197, 40.751982524849097 ], [ -73.932277659744301, 40.751962152692499 ], [ -73.933834121812595, 40.751612968472799 ], [ -73.934744018877296, 40.75098731045 ], [ -73.936096418789006, 40.7497397969655 ], [ -73.935388280666302, 40.749420199201701 ], [ -73.936749178897699, 40.748501477731899 ], [ -73.9368649852142, 40.748429529450497 ], [ -73.937397966546499, 40.748924706347204 ], [ -73.937493649318696, 40.748978076706599 ], [ -73.937560183937094, 40.749039534264298 ], [ -73.937633819081398, 40.7491075474097 ], [ -73.937697906316501, 40.749166733078901 ], [ -73.937912122224304, 40.749374474679797 ], [ -73.938047294079396, 40.749461530744398 ], [ -73.938020696209193, 40.749532943572703 ], [ -73.937984507463995, 40.749632126570198 ], [ -73.937990707761898, 40.749696788482602 ], [ -73.938118576408101, 40.749840974159298 ], [ -73.938769021961903, 40.750118373865199 ], [ -73.939583459562897, 40.750454622852502 ], [ -73.940176739856199, 40.750697220223103 ], [ -73.940405488967897, 40.750791181754799 ], [ -73.9406098028537, 40.750883815489601 ], [ -73.940812354446393, 40.750969133763199 ], [ -73.940863728807599, 40.750992560201702 ], [ -73.940930675747097, 40.7510230893363 ], [ -73.9415256113449, 40.751290034696197 ], [ -73.941775965460494, 40.751400806160603 ], [ -73.942030180363901, 40.751513070506803 ], [ -73.942534408886999, 40.751717205808198 ], [ -73.9426778160813, 40.751776656561503 ], [ -73.942875403254803, 40.7518712185108 ], [ -73.9435429989326, 40.752155712484601 ], [ -73.943669247223397, 40.752209340264201 ], [ -73.944019664873096, 40.752358187500803 ], [ -73.944054083469695, 40.752321527227203 ], [ -73.944086888095498, 40.752289143604003 ], [ -73.944608314753395, 40.752502868846797 ], [ -73.9448808814481, 40.752614586216801 ], [ -73.945077345329693, 40.7527028709899 ], [ -73.945552453953297, 40.752916974928397 ], [ -73.9457604565563, 40.7530122208411 ], [ -73.946385492059207, 40.753290607425001 ], [ -73.946587852491106, 40.753380734639897 ], [ -73.947351676526296, 40.753713779827002 ], [ -73.947482312138405, 40.753770739689202 ], [ -73.948305640532894, 40.754125245960999 ], [ -73.949145923329397, 40.754493720794201 ], [ -73.950824860401596, 40.7552195443294 ], [ -73.950840604834397, 40.755226350260799 ], [ -73.950809071589802, 40.755271946768701 ], [ -73.950772659992197, 40.755316235820302 ], [ -73.950736248345294, 40.755360526032703 ], [ -73.950664850972601, 40.7554445895261 ], [ -73.949151651094596, 40.757337213014303 ], [ -73.947833327847803, 40.758997460792401 ], [ -73.945965674418602, 40.761300874614797 ], [ -73.945806980227104, 40.761457835664402 ], [ -73.945706688556299, 40.761496425108497 ], [ -73.944731921640596, 40.762864815363102 ], [ -73.944716040607602, 40.762887108785698 ], [ -73.9446777133615, 40.7629383539701 ], [ -73.9435042519532, 40.764507309462303 ], [ -73.941586663857393, 40.766624356857697 ], [ -73.941313180484997, 40.766926274038397 ], [ -73.940463999691104, 40.767538739221301 ], [ -73.940352468651099, 40.767661645433797 ], [ -73.939837023492601, 40.767996275468903 ], [ -73.939534647206997, 40.768067013908698 ], [ -73.939367302760701, 40.768167971459597 ], [ -73.938956454911505, 40.7679664562746 ], [ -73.9381987377282, 40.768708014083401 ], [ -73.938070862316593, 40.768723670058399 ], [ -73.937889114336798, 40.768565823141799 ], [ -73.937779596826203, 40.768627321548202 ], [ -73.937963439495704, 40.768730593235297 ], [ -73.937959659060496, 40.768793203769597 ], [ -73.937472521131895, 40.7689598283905 ], [ -73.936816036297202, 40.768912217293497 ], [ -73.936686820916606, 40.769141324555399 ], [ -73.936708809628698, 40.769260878961198 ], [ -73.936405247014093, 40.769483154960703 ], [ -73.936170568775907, 40.769524384612097 ], [ -73.935741643759997, 40.769375499810003 ], [ -73.935241597604403, 40.769687595485003 ], [ -73.9348967681495, 40.770050132994598 ], [ -73.934696419833301, 40.7704336082097 ], [ -73.935148583341004, 40.770550226252602 ], [ -73.935009568030296, 40.771170665187 ], [ -73.934941701291393, 40.771172291255901 ], [ -73.934940358852899, 40.771172323500501 ], [ -73.934906242769102, 40.771278911532299 ], [ -73.934528730249198, 40.771185045443502 ], [ -73.934436686574401, 40.771470632732701 ], [ -73.934827656891898, 40.7715852284813 ], [ -73.934810018247802, 40.771707857331201 ], [ -73.934808242719797, 40.771742409329299 ], [ -73.935151607469606, 40.771841967569102 ], [ -73.935549876225195, 40.771961957281398 ], [ -73.935569400030701, 40.771927048484997 ], [ -73.935609964044801, 40.771939548134398 ], [ -73.935590657736, 40.7719742441341 ], [ -73.936054779987003, 40.772114072095 ], [ -73.937467816210599, 40.772539765627897 ], [ -73.937814790047497, 40.773571165340002 ], [ -73.937859549287396, 40.774095839766503 ], [ -73.937656261302095, 40.775093956379301 ], [ -73.937048451783497, 40.775874758211103 ], [ -73.937031558642104, 40.775901476173601 ], [ -73.936381658272296, 40.776929727962198 ], [ -73.9360906270106, 40.777192593538203 ], [ -73.935855956361095, 40.777219956099003 ], [ -73.935083754664504, 40.777952505373001 ], [ -73.934744960416396, 40.7780846070603 ], [ -73.9343746574243, 40.778094193834697 ], [ -73.933812757939904, 40.778108725453798 ], [ -73.932893883745507, 40.777950877712101 ], [ -73.932776207678899, 40.777930660499699 ], [ -73.932742658649303, 40.778002222054603 ], [ -73.932723533531899, 40.778043038863601 ], [ -73.932650740702002, 40.778030245978599 ], [ -73.931847889477297, 40.777889096776804 ], [ -73.9317897717346, 40.777878878851098 ], [ -73.931051071409797, 40.777450169000304 ], [ -73.931075199884603, 40.777268866050001 ], [ -73.9308844709699, 40.776981978282201 ], [ -73.930629993775497, 40.776599174285998 ], [ -73.929882013633701, 40.776229903392597 ], [ -73.929037149150702, 40.776475688627002 ], [ -73.928606577818996, 40.776600946708697 ], [ -73.9283970389437, 40.776798801221403 ], [ -73.928278735826197, 40.7769072470035 ], [ -73.926319760991703, 40.778250047195499 ], [ -73.925823439262103, 40.778394178319203 ], [ -73.925746643244807, 40.778413643403603 ], [ -73.925652189194295, 40.778439083904303 ], [ -73.925574469355695, 40.778467123907902 ], [ -73.924874871991605, 40.778633876645699 ], [ -73.924235056411902, 40.779109466017204 ], [ -73.923188370050994, 40.780256665638298 ], [ -73.922957952910707, 40.780449280178303 ], [ -73.922631564219998, 40.780573058322403 ], [ -73.922101080753393, 40.780860147306001 ], [ -73.920977046451199, 40.7817759643942 ], [ -73.9199660131125, 40.782643342131898 ], [ -73.919091771692607, 40.783375919270803 ], [ -73.918475267027901, 40.783762431062001 ], [ -73.918190054084306, 40.783941239522697 ], [ -73.917739498959705, 40.784084225365802 ], [ -73.917246588677997, 40.784150274681402 ], [ -73.917172610845896, 40.784201758369697 ], [ -73.917183431203597, 40.784560337247399 ], [ -73.916834194498406, 40.785199666190103 ], [ -73.915753152988898, 40.786115852498 ], [ -73.915418611507604, 40.786072203334101 ], [ -73.915344936622006, 40.786124622022797 ], [ -73.915261563912395, 40.786200491098299 ], [ -73.915588526068902, 40.786437905154997 ], [ -73.914240902649098, 40.787864483878003 ], [ -73.912601283007504, 40.789384604304303 ], [ -73.912409533166198, 40.789282578102203 ], [ -73.912668906176407, 40.789012249638503 ], [ -73.912230947364307, 40.7891875546105 ], [ -73.912069958845393, 40.7893469289967 ], [ -73.911952532080704, 40.789410071918702 ], [ -73.912081173317603, 40.789530089706197 ], [ -73.911839199705298, 40.789689159213999 ], [ -73.911694846672901, 40.789580913349901 ], [ -73.911251013212294, 40.789752211091802 ], [ -73.910944397726794, 40.789763318055897 ], [ -73.910906293054495, 40.790048959821597 ], [ -73.910223580375799, 40.790473482748602 ], [ -73.909860051705706, 40.790953768854799 ], [ -73.906781335634307, 40.7903833837223 ], [ -73.906474567417504, 40.790189450249997 ], [ -73.902513157013203, 40.789480359567598 ], [ -73.902400780813295, 40.789559895747303 ], [ -73.902064698729006, 40.789502681059801 ], [ -73.902035705185, 40.789422961976598 ], [ -73.901698280633099, 40.789328598864699 ], [ -73.900775178344304, 40.789152093290099 ], [ -73.900327716713406, 40.7890159378532 ], [ -73.900109012909098, 40.7888587646015 ], [ -73.899617798428807, 40.788408771169998 ], [ -73.899248903804093, 40.788156934523002 ], [ -73.897833220060903, 40.787190445151701 ], [ -73.897256784664506, 40.786759231637397 ], [ -73.897025521807805, 40.786666431643397 ], [ -73.896941353671096, 40.786632943649401 ], [ -73.896513467010806, 40.786076933611902 ], [ -73.896380470639102, 40.786139356186297 ], [ -73.8964022783357, 40.786166186380797 ], [ -73.896353931053596, 40.786187584816403 ], [ -73.896305078776194, 40.786127476165703 ], [ -73.896351680292099, 40.786105594209999 ], [ -73.896370301275098, 40.786128504802001 ], [ -73.896503966210702, 40.7860657424281 ], [ -73.8963799776445, 40.7859172556538 ], [ -73.896269273994506, 40.785968846519701 ], [ -73.896287944795503, 40.785991993213699 ], [ -73.896219453006395, 40.786024297457203 ], [ -73.896045184389607, 40.785808262030201 ], [ -73.896115236373404, 40.785775616706303 ], [ -73.896134645536804, 40.785799678109797 ], [ -73.896244015701001, 40.785748707523098 ], [ -73.896141568625694, 40.785615441796899 ], [ -73.896006585408102, 40.785674924763498 ], [ -73.896028862419698, 40.785697560954297 ], [ -73.895981430910396, 40.785719950303601 ], [ -73.895931047417804, 40.785657218837898 ], [ -73.895978149886005, 40.785635362278001 ], [ -73.896001171460398, 40.785664026541397 ], [ -73.896127744048101, 40.785601443315201 ], [ -73.895830561375107, 40.785229801827498 ], [ -73.896833156121701, 40.784435937956999 ], [ -73.896778425371593, 40.784396695211399 ], [ -73.896759990378797, 40.784411550263101 ], [ -73.896724110654404, 40.784385823573402 ], [ -73.8967358373407, 40.784376374089703 ], [ -73.896726554301594, 40.784369716353503 ], [ -73.896731472051002, 40.784365752921197 ], [ -73.896721939575698, 40.784358918221798 ], [ -73.896757065986293, 40.784330613611402 ], [ -73.8967732449279, 40.784342215333098 ], [ -73.8967898677123, 40.784328822660797 ], [ -73.896829497327602, 40.784357238789497 ], [ -73.896808018808898, 40.784374544868697 ], [ -73.896860806689006, 40.784412394730701 ], [ -73.8971567625576, 40.784203237053603 ], [ -73.897078495754101, 40.7841421055155 ], [ -73.897068455404494, 40.784148291470402 ], [ -73.897036519045898, 40.784124436977102 ], [ -73.897045309970096, 40.784115390417803 ], [ -73.897032158103897, 40.784107278479702 ], [ -73.897062289306305, 40.784081573494703 ], [ -73.8970729385602, 40.784086824373396 ], [ -73.897084850718599, 40.7840863590718 ], [ -73.897120550603503, 40.7841087869147 ], [ -73.897112388713197, 40.784116403877 ], [ -73.897194153483198, 40.78417681162 ], [ -73.897298410210794, 40.784103131078801 ], [ -73.897423407686503, 40.7840045888696 ], [ -73.897332711706795, 40.783936477047 ], [ -73.897323297048302, 40.783943139521199 ], [ -73.897288847937901, 40.783923572346502 ], [ -73.897301400769095, 40.783914529120104 ], [ -73.897288877340003, 40.7839045118344 ], [ -73.897317125936496, 40.7838802339285 ], [ -73.897343456758904, 40.783879304501298 ], [ -73.897373514660202, 40.783901727743398 ], [ -73.897363468791298, 40.783911249652697 ], [ -73.897455678571205, 40.783979148030703 ], [ -73.897615384036897, 40.7838532418969 ], [ -73.897723683403598, 40.783751738924103 ], [ -73.897641529574003, 40.783690393064902 ], [ -73.897632743184104, 40.783696579512899 ], [ -73.897597663638393, 40.783679393745999 ], [ -73.897615231142893, 40.7836698784985 ], [ -73.897600203338598, 40.783658429024499 ], [ -73.897632840619394, 40.783633202558001 ], [ -73.897659795878994, 40.783634180052402 ], [ -73.897687342661698, 40.783658982859897 ], [ -73.897681686370007, 40.783668031581598 ], [ -73.897754842194999, 40.783722534560503 ], [ -73.897811856892204, 40.783692735618899 ], [ -73.897676598793296, 40.783592546814297 ], [ -73.898763045009602, 40.782757219739402 ], [ -73.898857622406993, 40.782812578468999 ], [ -73.901147194677506, 40.782719379857198 ], [ -73.901725150951606, 40.782137528270397 ], [ -73.901750769867505, 40.782125511233403 ], [ -73.901792350464206, 40.782110193135402 ], [ -73.901853735564004, 40.782089272919599 ], [ -73.901870675234306, 40.782082307397197 ], [ -73.901887533435499, 40.782074091393199 ], [ -73.901920912220206, 40.782053894961003 ], [ -73.901952377242097, 40.782029562698 ], [ -73.901984870860701, 40.781998757112703 ], [ -73.902053983743102, 40.781926352573301 ], [ -73.902118498994696, 40.781855979688601 ], [ -73.902172747548207, 40.781797970142101 ], [ -73.902179572590896, 40.781788835411902 ], [ -73.902185014028007, 40.7817780433503 ], [ -73.902189238521601, 40.781765412333797 ], [ -73.902305849823705, 40.781528166711396 ], [ -73.902513899915306, 40.7811165247657 ], [ -73.902581913490593, 40.780823171468903 ], [ -73.902678655340097, 40.780602405041101 ], [ -73.902678190315001, 40.780360845298098 ], [ -73.902580716192602, 40.780297394077998 ], [ -73.902344458214003, 40.780195518035399 ], [ -73.902256228592904, 40.780282441567699 ], [ -73.902184456412996, 40.780367639919497 ], [ -73.902151093480299, 40.780788767307897 ], [ -73.902037077251407, 40.781211375403302 ], [ -73.901292695340601, 40.781866692865002 ], [ -73.901218960072299, 40.7818273860115 ], [ -73.900729889202907, 40.7819877689221 ], [ -73.900347145541105, 40.782074328179696 ], [ -73.900351026671501, 40.782172683714897 ], [ -73.899480896116501, 40.782178159656297 ], [ -73.898655796754895, 40.7820036940346 ], [ -73.897187465553102, 40.782815483887603 ], [ -73.897115260371095, 40.782731348148701 ], [ -73.897055408297803, 40.782764627906602 ], [ -73.897044648472004, 40.782782297666301 ], [ -73.897026804729904, 40.782796267204901 ], [ -73.897003886160903, 40.782804963640402 ], [ -73.896978473251494, 40.7828074078082 ], [ -73.896938227009898, 40.7828297870619 ], [ -73.896930310252202, 40.782845940842201 ], [ -73.896914934538501, 40.782858612192001 ], [ -73.896894390648797, 40.782865913243398 ], [ -73.896871739358502, 40.782866756233297 ], [ -73.8968208260126, 40.782895067021798 ], [ -73.896795665940104, 40.782920176335502 ], [ -73.896756564372197, 40.782930799268897 ], [ -73.896713497582397, 40.782954745797802 ], [ -73.896686791078906, 40.782979723101697 ], [ -73.896647386879906, 40.7829915066079 ], [ -73.896596096144194, 40.783020025695002 ], [ -73.896589339019002, 40.783035132233898 ], [ -73.896575256125402, 40.7830469643648 ], [ -73.896556155762696, 40.783053582703801 ], [ -73.896535168638394, 40.78305390245 ], [ -73.896485728079199, 40.7830813938726 ], [ -73.896460978156796, 40.783107818180497 ], [ -73.896420351459, 40.783117744606599 ], [ -73.896365207766195, 40.7831484069659 ], [ -73.896346178929505, 40.783171966696301 ], [ -73.896310876445298, 40.783178616035798 ], [ -73.896256844407006, 40.783208661341902 ], [ -73.896226752979402, 40.783236695433203 ], [ -73.896182490087398, 40.7832500036548 ], [ -73.896004394828097, 40.783345000874498 ], [ -73.896004392159, 40.783346709798899 ], [ -73.896003265242101, 40.783349270078197 ], [ -73.896002138774804, 40.783350977988597 ], [ -73.8960010103131, 40.783353539439098 ], [ -73.895999885390296, 40.783355246178203 ], [ -73.895998758261698, 40.7833569540878 ], [ -73.895996506664503, 40.783359513352103 ], [ -73.895995381079203, 40.783361220760597 ], [ -73.8959942539514, 40.783362928000201 ], [ -73.895992003905604, 40.783364634896401 ], [ -73.89598975298, 40.783366340619096 ], [ -73.895988628053999, 40.783368049033299 ], [ -73.895986377789399, 40.7833697547565 ], [ -73.895984127743205, 40.7833714616526 ], [ -73.895981876155901, 40.783373167374599 ], [ -73.895980751231505, 40.783374874616001 ], [ -73.895978500964603, 40.783376581511703 ], [ -73.895975127134093, 40.783377431505897 ], [ -73.895972877750296, 40.783379137229701 ], [ -73.895970628144298, 40.783380844125901 ], [ -73.895968378770704, 40.783381696810103 ], [ -73.895966130722101, 40.783382547820203 ], [ -73.895963880454502, 40.783384254715699 ], [ -73.895960508605398, 40.783385105716398 ], [ -73.895958259233197, 40.783385957395303 ], [ -73.895954886721697, 40.783386809065298 ], [ -73.895952638669996, 40.783387661750503 ], [ -73.895949264617499, 40.783388512246198 ], [ -73.8959470165657, 40.783389364931303 ], [ -73.895943645389593, 40.783389361887401 ], [ -73.895941397340394, 40.783390212897103 ], [ -73.895938025943906, 40.783390209852897 ], [ -73.895935776569601, 40.783391062536502 ], [ -73.895932406054598, 40.783391059492899 ], [ -73.895929033544107, 40.7833919101571 ], [ -73.895926785946301, 40.783391908127399 ], [ -73.895923414770095, 40.783391905083 ], [ -73.8959211673927, 40.783391903053399 ], [ -73.895744591937003, 40.783489970978501 ], [ -73.895743464801399, 40.783491677713002 ], [ -73.895742336987794, 40.783494239664201 ], [ -73.895741209852005, 40.783495946398602 ], [ -73.895740083582595, 40.783498507346003 ], [ -73.895737833305304, 40.783500214237002 ], [ -73.895736707050901, 40.783501920972299 ], [ -73.895735578575696, 40.783504482922702 ], [ -73.895733329180501, 40.7835061893119 ], [ -73.895731079564996, 40.783507895533297 ], [ -73.895729952428695, 40.783509602267699 ], [ -73.895727701710797, 40.783511308655498 ], [ -73.895725452315403, 40.783513014877002 ], [ -73.8957232013761, 40.783514721767098 ], [ -73.895720951981303, 40.783516427485999 ], [ -73.895718702585597, 40.783518133707297 ], [ -73.895716453644894, 40.783518986387001 ], [ -73.895714203587502, 40.783520692775198 ], [ -73.895711953531105, 40.783522398493297 ], [ -73.895709703930905, 40.783523249999597 ], [ -73.895706331409301, 40.783524101662302 ], [ -73.895704082011903, 40.783525808553399 ], [ -73.8957018324122, 40.783526659556998 ], [ -73.895698461212703, 40.783527511220697 ], [ -73.895696211831506, 40.783528363396996 ], [ -73.895692839309405, 40.783529215059303 ], [ -73.895690589709503, 40.783530066062703 ], [ -73.895687217187302, 40.783530917724903 ], [ -73.895684969129206, 40.783531769232098 ], [ -73.895681598607098, 40.783531766181198 ], [ -73.895678225203099, 40.783532617842297 ], [ -73.895675977159797, 40.783532615807303 ], [ -73.895672605961195, 40.783533466465101 ], [ -73.895669234116696, 40.783533463412702 ], [ -73.8956669873957, 40.783533461378703 ], [ -73.895663615330704, 40.783533458325898 ], [ -73.895485911295296, 40.7836340873003 ], [ -73.895484783692396, 40.7836366475739 ], [ -73.895482532724301, 40.783639208671403 ], [ -73.8954814057997, 40.783640915403403 ], [ -73.895480277975096, 40.783643476346803 ], [ -73.895478028568903, 40.783645182563397 ], [ -73.895476850993106, 40.783647706103501 ], [ -73.895474649793002, 40.7836494508946 ], [ -73.895472398384399, 40.783652011321401 ], [ -73.895471272560599, 40.783653718556899 ], [ -73.895469020491205, 40.7836562784805 ], [ -73.895466771083306, 40.783657985367 ], [ -73.895464521676999, 40.7836596910808 ], [ -73.8954622707261, 40.783661397965801 ], [ -73.895458896855004, 40.783663102659503 ], [ -73.895456646566004, 40.783664808874903 ], [ -73.895454395836893, 40.783666514587303 ], [ -73.895452146428994, 40.783668220970902 ], [ -73.895448773676307, 40.783669072625898 ], [ -73.895446522946102, 40.783670778840701 ], [ -73.895443149733495, 40.783672484707203 ], [ -73.895440901667499, 40.783673336209603 ], [ -73.895437529135606, 40.783674187361903 ], [ -73.895434155262507, 40.783675892557397 ], [ -73.895430782730301, 40.7836767437094 ], [ -73.895428533120295, 40.783677595880299 ], [ -73.895425160587195, 40.783678447534797 ], [ -73.895421788717897, 40.783679297514503 ], [ -73.895418416184697, 40.783680149168802 ], [ -73.895415044993896, 40.783680146109603 ], [ -73.895411672462401, 40.783680996591002 ], [ -73.895408300590205, 40.7836818482455 ], [ -73.895406052982594, 40.783681846205702 ], [ -73.895402681791793, 40.783681843145999 ], [ -73.895399308597803, 40.783682694296601 ], [ -73.895395937406803, 40.783682691236798 ], [ -73.894971925034497, 40.783918049373199 ], [ -73.894970800075001, 40.783919756604703 ], [ -73.894969671564795, 40.783922317542299 ], [ -73.894968544376098, 40.783924878983797 ], [ -73.894967416746496, 40.783927440424797 ], [ -73.894966289582499, 40.783929147821603 ], [ -73.894965162393603, 40.783931709263101 ], [ -73.8949629123032, 40.783933415468901 ], [ -73.894961783792496, 40.783935976406497 ], [ -73.894959533480503, 40.783937683282304 ], [ -73.894958407198004, 40.783939390512302 ], [ -73.8949561564216, 40.7839419504269 ], [ -73.894953906110302, 40.783943656632403 ], [ -73.894951656019003, 40.7839453630056 ], [ -73.894949406589106, 40.783947069211898 ], [ -73.894947156276402, 40.7839487760873 ], [ -73.894944905524696, 40.783950481789702 ], [ -73.8949426560944, 40.783952187995801 ], [ -73.894940405120906, 40.783953894367897 ], [ -73.894938155691193, 40.783955600071401 ], [ -73.894934781790994, 40.783957305252201 ], [ -73.894932532164304, 40.783958157915997 ], [ -73.894930282732403, 40.783959864791903 ], [ -73.894926909299002, 40.783960715258303 ], [ -73.894924658545193, 40.783962421630299 ], [ -73.894921286654395, 40.783963272097999 ], [ -73.894917914100304, 40.783964123737498 ], [ -73.8949156660168, 40.783964975899799 ], [ -73.894912294123799, 40.783965827539802 ], [ -73.894908920911007, 40.783966677503301 ], [ -73.894906671283707, 40.7839675301665 ], [ -73.894903300078298, 40.783967527092301 ], [ -73.894899928186902, 40.783968377559297 ], [ -73.8948965556324, 40.783969229198298 ], [ -73.894893184427005, 40.783969226123702 ], [ -73.8948909376914, 40.783969224074603 ], [ -73.894887566265496, 40.783969220999701 ], [ -73.894884194593999, 40.783970071634002 ], [ -73.894880822506906, 40.783970068558297 ], [ -73.894715492923297, 40.784060456579098 ], [ -73.894714364399306, 40.784063018519397 ], [ -73.894713238080797, 40.784065579456502 ], [ -73.894712110907093, 40.784067287353501 ], [ -73.894710983044902, 40.784069848791702 ], [ -73.894709854521395, 40.7840724102293 ], [ -73.894707605079901, 40.7840741171009 ], [ -73.894706477880405, 40.784076677366997 ], [ -73.894705350707198, 40.784078384761301 ], [ -73.8947030992544, 40.784080945172903 ], [ -73.894700849813503, 40.784082651374199 ], [ -73.894699722639203, 40.784084359271098 ], [ -73.894697472317304, 40.784086064969003 ], [ -73.894695220203602, 40.784088624877199 ], [ -73.894692970760403, 40.784090332250997 ], [ -73.894690719776904, 40.784092037948199 ], [ -73.894688470335396, 40.784093744149303 ], [ -73.894686220893405, 40.784095450517903 ], [ -73.894683971921907, 40.784096302004698 ], [ -73.894680598668202, 40.784098007848698 ], [ -73.894678347904602, 40.784099713545899 ], [ -73.894676097608595, 40.784100566204003 ], [ -73.894672725016704, 40.784102271378302 ], [ -73.894670476264906, 40.784103123032502 ], [ -73.894667102350397, 40.7841048282055 ], [ -73.894664853377193, 40.784105680362003 ], [ -73.894661481696204, 40.7841065308222 ], [ -73.894658107588796, 40.784107382452802 ], [ -73.894655859497107, 40.784108234610002 ], [ -73.894652486932401, 40.784109086241799 ], [ -73.894649115031399, 40.784109936198803 ], [ -73.8946457429372, 40.784109933116298 ], [ -73.894642371253894, 40.784110784748499 ], [ -73.894640122970699, 40.784110782693197 ], [ -73.894636750406406, 40.784111633822 ], [ -73.894633380516197, 40.784111630741002 ], [ -73.894630008642395, 40.784111627658199 ], [ -73.894626637429795, 40.7841116245758 ], [ -73.894623266217195, 40.784111621493402 ], [ -73.894621019476702, 40.784111619439102 ], [ -73.8946176467214, 40.784111616354998 ], [ -73.894614276831106, 40.784111613273502 ], [ -73.894610905648193, 40.784110755978702 ], [ -73.894607535096796, 40.784110752896403 ], [ -73.894604165237197, 40.784109895100002 ], [ -73.894601919847105, 40.784109040007102 ], [ -73.894598549295793, 40.784109036924598 ], [ -73.894595178554795, 40.784108179127102 ], [ -73.894591809576198, 40.784107321833702 ], [ -73.894589561985001, 40.784106465063402 ], [ -73.894586194137503, 40.784104754228899 ], [ -73.894583948748604, 40.784103898633198 ], [ -73.894580578008103, 40.784103040835298 ], [ -73.894578332650497, 40.784101330357203 ], [ -73.894574963451007, 40.784100473733297 ], [ -73.894572719414995, 40.784098763926401 ], [ -73.894569349556406, 40.784097906128999 ], [ -73.894567103979597, 40.784096195148003 ], [ -73.894564859944694, 40.784094484838398 ], [ -73.894562615028605, 40.784092774360502 ], [ -73.8945603696707, 40.7840910645522 ], [ -73.894558125636195, 40.784089354242496 ], [ -73.894555881602003, 40.784087643765297 ], [ -73.894553636024895, 40.784085933454101 ], [ -73.894443421122801, 40.7841430602437 ], [ -73.894445664684497, 40.784145624264703 ], [ -73.894446785093194, 40.7841481889321 ], [ -73.894447904654896, 40.784149897711501 ], [ -73.894449025066507, 40.784152460703702 ], [ -73.894450144595694, 40.784155024197702 ], [ -73.894451263683493, 40.7841575881938 ], [ -73.894452384787101, 40.784159297644699 ], [ -73.8944535051982, 40.784161861139403 ], [ -73.894454623405394, 40.784164424632102 ], [ -73.894454619344302, 40.784166986594499 ], [ -73.8944557397556, 40.784169550089203 ], [ -73.894455735693896, 40.784172112554103 ], [ -73.894455731631993, 40.784174675019003 ], [ -73.894456851162701, 40.784177238010301 ], [ -73.894456847100898, 40.784179800475201 ], [ -73.894456843038398, 40.784182363442703 ], [ -73.894455715385504, 40.784184924376 ], [ -73.894455711323701, 40.784187486840899 ], [ -73.894455707262694, 40.784190048803303 ], [ -73.894454578725501, 40.784192611411001 ], [ -73.894454576018404, 40.784194319162502 ], [ -73.894453449687703, 40.784196880096999 ], [ -73.894452321152102, 40.784199441532103 ], [ -73.894452317089403, 40.784202004499598 ], [ -73.894451189215701, 40.784204565432603 ], [ -73.894450062001496, 40.784207127371502 ], [ -73.894447811227195, 40.784208833734098 ], [ -73.894447684261607, 40.784209121761499 ], [ -73.894446682691196, 40.784211395169201 ], [ -73.894445554155894, 40.784213956101603 ], [ -73.894444429177895, 40.784215663327799 ], [ -73.894442177488102, 40.784218224906702 ], [ -73.894439927375601, 40.784219930599697 ], [ -73.8944387988399, 40.784222491531999 ], [ -73.894436549388203, 40.784224197225598 ], [ -73.894434299054097, 40.784225903420896 ], [ -73.894432046922802, 40.784228464999202 ], [ -73.894429797470806, 40.784230170692702 ], [ -73.894427546475896, 40.784231876384602 ], [ -73.894425297021797, 40.784233583250597 ], [ -73.894423047569404, 40.784235288943897 ], [ -73.894420796573399, 40.7842369951384 ], [ -73.894417423999101, 40.784237846763297 ], [ -73.894415173663802, 40.784239553125701 ], [ -73.894411800617306, 40.7842412582919 ], [ -73.894409550975197, 40.784242110442896 ], [ -73.894406177047699, 40.784243815105597 ], [ -73.894403928947298, 40.784244667760397 ], [ -73.894400557036306, 40.784245517710197 ], [ -73.894397182445402, 40.784247223544703 ], [ -73.894394932802001, 40.784248076197898 ], [ -73.894391560229494, 40.784248926146802 ], [ -73.894388188315403, 40.7842497777715 ], [ -73.894384817095798, 40.784249774682003 ], [ -73.894381444520405, 40.784250626305898 ], [ -73.894379196421397, 40.7842514777875 ], [ -73.894375824981296, 40.784251474697598 ], [ -73.894372453287303, 40.784252326322097 ], [ -73.894369081185999, 40.784252323231399 ], [ -73.894365709305106, 40.784252320140801 ], [ -73.894362338085401, 40.784252317050701 ], [ -73.894358966865596, 40.784252313960501 ], [ -73.894355596307093, 40.784252310870897 ], [ -73.894352225087403, 40.784252307780498 ], [ -73.894348853867697, 40.78425230469 ], [ -73.894345484004205, 40.784251446886103 ], [ -73.894342113445703, 40.784251443796002 ], [ -73.894339868054203, 40.7842505886981 ], [ -73.894336496648194, 40.784249730892498 ], [ -73.8943331247674, 40.784249727800898 ], [ -73.894329755565394, 40.7842488699971 ], [ -73.894326386361698, 40.784248013365897 ], [ -73.894324140311994, 40.784247156591803 ], [ -73.894320772466003, 40.784245444577003 ], [ -73.894317401718993, 40.784244588446597 ], [ -73.894315155668806, 40.7842437321749 ], [ -73.894311787161001, 40.784242020829303 ], [ -73.894309540890504, 40.784241164557301 ], [ -73.894306173263701, 40.784239453714903 ], [ -73.894303927688995, 40.784237742728799 ], [ -73.894300557826796, 40.784236884923502 ], [ -73.8942983137932, 40.784235175111398 ], [ -73.894296068878901, 40.784233464795797 ], [ -73.894293824186207, 40.784231753810303 ], [ -73.894291579271396, 40.784230043997198 ], [ -73.894289333915793, 40.784228334183702 ], [ -73.894287091241694, 40.7842257684853 ], [ -73.894284846327196, 40.784224058672102 ], [ -73.894282601634004, 40.784222348356501 ], [ -73.894281481226898, 40.784219785865197 ], [ -73.894279237195207, 40.7842180755501 ], [ -73.894278118114102, 40.784215510882298 ], [ -73.894275872759394, 40.784213801068503 ], [ -73.894274752353397, 40.784211238074597 ], [ -73.8942737593229, 40.784208962336201 ], [ -73.894273634814397, 40.784208674078201 ], [ -73.894271390783501, 40.784206963595501 ], [ -73.894270270379494, 40.784204399596398 ], [ -73.894269149973894, 40.784201836602499 ], [ -73.894269154042902, 40.784199274137599 ], [ -73.894268034960604, 40.784196710642298 ], [ -73.894266913200696, 40.784195000686502 ], [ -73.894266917267899, 40.784192439394303 ], [ -73.894265798408099, 40.784189874726401 ], [ -73.894265802476497, 40.784187312764097 ], [ -73.894265806545604, 40.784184750299197 ], [ -73.894264685479399, 40.784182187304701 ], [ -73.894264689548507, 40.784179624839801 ], [ -73.894264693618496, 40.784177061872299 ], [ -73.894265822821296, 40.7841745009422 ], [ -73.894265826890404, 40.7841719384773 ], [ -73.894265830958801, 40.784169376515003 ], [ -73.894266957959005, 40.784166814577802 ], [ -73.894266962027302, 40.784164252615497 ], [ -73.894268089214094, 40.784162544722903 ], [ -73.894269216433699, 40.784159983288397 ], [ -73.894270344974899, 40.784157422357701 ], [ -73.894271473516696, 40.784154860924403 ], [ -73.894272599855398, 40.784152298986498 ], [ -73.894273727039902, 40.784150592266599 ], [ -73.894274854919502, 40.784148031335199 ], [ -73.894275983242494, 40.784145468729001 ], [ -73.894278232915994, 40.784143763038699 ], [ -73.894279359252593, 40.7841412021059 ], [ -73.8942816100286, 40.784139495913998 ], [ -73.894283861058796, 40.784136935510297 ], [ -73.894284988244607, 40.784135227617597 ], [ -73.894287238358302, 40.784133521927501 ], [ -73.894289490712296, 40.784130960352201 ], [ -73.894291740164604, 40.784129254661501 ], [ -73.894293989616699, 40.784127548970702 ], [ -73.8942962406134, 40.784125842108701 ], [ -73.894299613656102, 40.784124137448302 ], [ -73.894301865312698, 40.784122431256897 ], [ -73.894304114291003, 40.784121579107399 ], [ -73.894307487553704, 40.7841198744471 ], [ -73.894309737007006, 40.784118167583301 ], [ -73.894313109576601, 40.784117315961502 ], [ -73.894315360350205, 40.784115610271598 ], [ -73.894318732256494, 40.784114759821698 ], [ -73.894320981234301, 40.784113907671902 ], [ -73.894324355158204, 40.7841122025091 ], [ -73.894327727066099, 40.784111350886299 ], [ -73.8943310996343, 40.784110499766598 ], [ -73.894333347697099, 40.784110501827797 ], [ -73.894336721147596, 40.784109650206098 ], [ -73.894340093052506, 40.784108800258203 ], [ -73.894343464265006, 40.7841088033489 ], [ -73.894346836172502, 40.784107951725503 ], [ -73.894350208046106, 40.784107954816697 ], [ -73.894353579952593, 40.784107103695703 ], [ -73.894356950503806, 40.784107106785399 ], [ -73.894360322377395, 40.784107109876203 ], [ -73.894363692928593, 40.7841071129657 ], [ -73.8943670654633, 40.784107116057001 ], [ -73.894369312424004, 40.784107118116502 ], [ -73.894372682281301, 40.7841079754172 ], [ -73.894376053493701, 40.784107978507002 ], [ -73.894379422689099, 40.7841088363094 ], [ -73.894382793901599, 40.784108839399003 ], [ -73.894386163760998, 40.784109695526602 ], [ -73.894389533617797, 40.784110553329398 ], [ -73.894392904136694, 40.784111410630103 ], [ -73.894395150403099, 40.784112267403103 ], [ -73.894398519380402, 40.784113124032103 ], [ -73.894401889457995, 40.7841139818347 ], [ -73.894404134843796, 40.784114838104202 ], [ -73.894407502686406, 40.784116549446502 ], [ -73.894410873207704, 40.784117405574001 ], [ -73.894413118781102, 40.784119116558003 ], [ -73.894415362813803, 40.784120826368003 ], [ -73.894418732671497, 40.784121684169897 ], [ -73.894420978245293, 40.784123395153799 ], [ -73.894423222938698, 40.7841251054667 ], [ -73.894426590783098, 40.784126816305999 ], [ -73.894428834815201, 40.7841285267857 ], [ -73.894431080390603, 40.784130237099298 ], [ -73.894433324424099, 40.7841319469089 ], [ -73.894542418840601, 40.784073966064199 ], [ -73.894541297075705, 40.784072256111003 ], [ -73.894539053072805, 40.784069691588897 ], [ -73.894537933512098, 40.784067981637698 ], [ -73.894536813099293, 40.784065418143697 ], [ -73.894534567522598, 40.784063708334699 ], [ -73.8945334493133, 40.784061145345397 ], [ -73.894532327547694, 40.784059436062201 ], [ -73.894531207137206, 40.784056871395499 ], [ -73.8945312111953, 40.784054309433103 ], [ -73.894530091633101, 40.784052600654498 ], [ -73.894528971220893, 40.784050037160497 ], [ -73.894528975279897, 40.784047474695498 ], [ -73.894527856190194, 40.784044911202699 ], [ -73.894527860249198, 40.7840423487377 ], [ -73.894526738485197, 40.784040638784397 ], [ -73.894526742543505, 40.784038076822 ], [ -73.894526746602594, 40.7840355143571 ], [ -73.894526750661598, 40.784032951892101 ], [ -73.894526754720701, 40.784030389427102 ], [ -73.894527881896707, 40.784028682704701 ], [ -73.894527885954901, 40.784026120742297 ], [ -73.894527890015794, 40.784023557104597 ], [ -73.894529017223107, 40.784020995667603 ], [ -73.894529021282096, 40.784018433202597 ], [ -73.894530148457804, 40.784016726480097 ], [ -73.894531274783304, 40.784014165042201 ], [ -73.894532403311899, 40.784011604108898 ], [ -73.894533530488204, 40.784009896883802 ], [ -73.894534656814599, 40.784007334775701 ], [ -73.894535785341802, 40.784004774512503 ], [ -73.894536911857799, 40.784003066616599 ], [ -73.894538040386806, 40.7840005051807 ], [ -73.894540289830104, 40.783998798312403 ], [ -73.894541416123602, 40.783997091589001 ], [ -73.894543667800207, 40.783994531180703 ], [ -73.894545917242098, 40.783992824982398 ], [ -73.8945470444188, 40.783991117087098 ], [ -73.894549295873801, 40.783988557181097 ], [ -73.894551546196197, 40.783986851486098 ], [ -73.8945537956387, 40.783985144617503 ], [ -73.894556046622, 40.783983438923002 ], [ -73.894558296062499, 40.783981733227002 ], [ -73.894560544152, 40.783980880569203 ], [ -73.894562794915402, 40.783979174371801 ], [ -73.894566169708895, 40.783977468532498 ], [ -73.894568417798197, 40.783976615874501 ], [ -73.894570668780801, 40.783974910179801 ], [ -73.8945740404574, 40.783974059052099 ], [ -73.894576290117499, 40.783972353355999 ], [ -73.894579662676307, 40.783971501726398 ], [ -73.894581912084902, 40.7839706507446 ], [ -73.894585283321206, 40.783969799113599 ], [ -73.894588657421707, 40.783968947987702 ], [ -73.894590905510398, 40.7839680953293 ], [ -73.894594278066094, 40.783967245374498 ], [ -73.894597650624405, 40.7839663937444 ], [ -73.894601022490903, 40.783966396828198 ], [ -73.894603271459005, 40.783965545343001 ], [ -73.894606641782701, 40.783965548425201 ], [ -73.894610014561096, 40.783964696794897 ], [ -73.894613384884707, 40.783964699876996 ], [ -73.894616756971502, 40.783964702960503 ], [ -73.894619003706893, 40.783964705014903 ], [ -73.894622375573306, 40.783964708098097 ], [ -73.894785455173107, 40.783876026412102 ], [ -73.894785459221296, 40.783873464449698 ], [ -73.8947865841848, 40.783871757219998 ], [ -73.894787712703902, 40.783869194608897 ], [ -73.894788840339402, 40.783866633169701 ], [ -73.894789967505801, 40.7838649264446 ], [ -73.894791094699599, 40.783862365507403 ], [ -73.894793344130704, 40.783860659304302 ], [ -73.894794472649295, 40.783858096693102 ], [ -73.894795599154307, 40.783856389967397 ], [ -73.894797850595097, 40.783853830056401 ], [ -73.894800101568507, 40.783852123854601 ], [ -73.894801227881999, 40.7838495617438 ], [ -73.894803478634003, 40.783847856044297 ], [ -73.894805728945897, 40.7838461498417 ], [ -73.894807979038305, 40.7838444429687 ], [ -73.894810229349204, 40.7838427372686 ], [ -73.894812478780295, 40.783841030395003 ], [ -73.894814728209298, 40.783839324694 ], [ -73.894816979181002, 40.783837618994298 ], [ -73.8948192286107, 40.7838359127907 ], [ -73.894822602481796, 40.783835061155202 ], [ -73.894824852793903, 40.783833354282102 ], [ -73.894828225339793, 40.7838325043205 ], [ -73.894830475431206, 40.783830797447102 ], [ -73.894833846657207, 40.783829945808797 ], [ -73.894836096278198, 40.783829094822202 ], [ -73.894839468826405, 40.783828243184999 ], [ -73.894841716906299, 40.783827391024197 ], [ -73.8948450887913, 40.783826540558898 ], [ -73.894848462000496, 40.783825688922001 ], [ -73.894851836090297, 40.783824837788401 ], [ -73.894854084170802, 40.783823985124897 ], [ -73.894857454707704, 40.783823988199899 ], [ -73.8948608272527, 40.783823138237302 ], [ -73.894864198450705, 40.783823141312801 ], [ -73.894867569648696, 40.783823144388201 ], [ -73.894870941535004, 40.783822292749498 ], [ -73.894873189588097, 40.783822294800103 ], [ -73.894876560786102, 40.783822297875297 ], [ -73.894879931322805, 40.783822300949701 ], [ -73.895310689809804, 40.783584387980703 ], [ -73.895311818303, 40.783581825866897 ], [ -73.895312945472696, 40.783579264422002 ], [ -73.895314072621602, 40.783577557189098 ], [ -73.895315198908804, 40.783574996245903 ], [ -73.895316326058605, 40.783573288343 ], [ -73.895317454550394, 40.7835707268992 ], [ -73.8953185801563, 40.783569019664903 ], [ -73.895320830444803, 40.783567313954798 ], [ -73.895321958935497, 40.783564753013501 ], [ -73.895323083881095, 40.783563045108501 ], [ -73.895325334612707, 40.783561337723398 ], [ -73.895327584239496, 40.783559632012498 ], [ -73.895328711387805, 40.783557924779501 ], [ -73.895330960795107, 40.783556218398303 ], [ -73.895333211523607, 40.783554512688298 ], [ -73.895335461812095, 40.783552806475299 ], [ -73.895337711219796, 40.7835510995913 ], [ -73.895339962168407, 40.783549393881401 ], [ -73.895342210232499, 40.7835485417108 ], [ -73.895344459638096, 40.783546835999402 ], [ -73.895347835049805, 40.783545130807802 ], [ -73.8953500837749, 40.783544278637699 ], [ -73.895352332499897, 40.783543426467503 ], [ -73.895355705045304, 40.783541721775698 ], [ -73.895357954653207, 40.783540868601101 ], [ -73.895360202717598, 40.783540015927599 ], [ -73.895363575241902, 40.783539165950302 ], [ -73.895365824628499, 40.783538313277901 ], [ -73.895369196493206, 40.7835374621271 ], [ -73.895372569901397, 40.783536610474997 ], [ -73.895374816622507, 40.783536612514702 ], [ -73.8953781891463, 40.7835357625369 ], [ -73.895381559668607, 40.783535765596703 ], [ -73.895383809054906, 40.783534912923898 ], [ -73.89538718112, 40.783534915984902 ], [ -73.895390551642194, 40.783534919044399 ], [ -73.895392799705206, 40.783534066872903 ], [ -73.895396170888603, 40.783534069932799 ], [ -73.895572743615006, 40.783438566180699 ], [ -73.895572746293297, 40.7834368584289 ], [ -73.895573874772793, 40.783434296982598 ], [ -73.895574999930105, 40.783432589075197 ], [ -73.895576127069106, 40.783430882342401 ], [ -73.895576129749202, 40.783429173418 ], [ -73.895577257549306, 40.783427466685701 ], [ -73.895578382484899, 40.7834257594482 ], [ -73.895579508963493, 40.783424052044602 ], [ -73.895581759681207, 40.7834223463298 ], [ -73.8955828854983, 40.783420639093102 ], [ -73.895584012638693, 40.783418931187398 ], [ -73.895585137573207, 40.783417224452499 ], [ -73.895587388512794, 40.783415517564997 ], [ -73.895588515651198, 40.783413810832002 ], [ -73.895590763708299, 40.783412958154003 ], [ -73.895591889965004, 40.783411251420198 ], [ -73.895594140241897, 40.783409545202097 ], [ -73.895596388298003, 40.783408693026502 ], [ -73.895598638356205, 40.783406985635501 ], [ -73.895599764153999, 40.783406133615898 ], [ -73.895602013092301, 40.783405280938403 ], [ -73.895604262488305, 40.783403574049203 ], [ -73.895606511864599, 40.783402723047303 ], [ -73.895608760141599, 40.783401870369197 ], [ -73.895611008196198, 40.783401018863401 ], [ -73.895613257574198, 40.7834001666888 ], [ -73.895615506511405, 40.783399314513602 ], [ -73.895617754567695, 40.783398461835098 ], [ -73.895620004164101, 40.783397610833099 ], [ -73.895623376680405, 40.783396759172902 ], [ -73.895625623396697, 40.783396761207698 ], [ -73.8956278729937, 40.783395909703103 ], [ -73.895630120371194, 40.783395911738403 ], [ -73.895633492226096, 40.783395060077297 ], [ -73.895635741146407, 40.783395062113897 ], [ -73.8956379878626, 40.783395064148401 ], [ -73.895640237240102, 40.783394211973203 ], [ -73.895643606432898, 40.783394215024103 ], [ -73.895645854471496, 40.783394217059701 ], [ -73.895648101408099, 40.783394219094298 ], [ -73.895830296178303, 40.783296156897599 ], [ -73.895831423308394, 40.783294450162202 ], [ -73.895832548234495, 40.783292743424802 ], [ -73.895833676702395, 40.783290181473298 ], [ -73.895834803173003, 40.783288473564603 ], [ -73.895834805844601, 40.783286765812797 ], [ -73.895837055891704, 40.783285058919603 ], [ -73.895838183021496, 40.783283352184199 ], [ -73.895839311487507, 40.783280791237701 ], [ -73.895840437074298, 40.783279084500897 ], [ -73.895841564204702, 40.783277377262799 ], [ -73.895843814472499, 40.783275669867102 ], [ -73.895844939399794, 40.783273961956901 ], [ -73.895847188989094, 40.783273110950503 ], [ -73.895848314577506, 40.783271403040899 ], [ -73.895850565503494, 40.783269697320897 ], [ -73.895852814886695, 40.783267991599502 ], [ -73.895855064257901, 40.783267138917502 ], [ -73.895856189405094, 40.783265431007401 ], [ -73.895858439449995, 40.7832637247839 ], [ -73.895860689038798, 40.783262873777197 ], [ -73.895862937087301, 40.783262021093798 ], [ -73.895865186471795, 40.783260314199502 ], [ -73.895867436721502, 40.783259463193303 ], [ -73.895869686312594, 40.783258610511197 ], [ -73.895871935021304, 40.783257758330898 ], [ -73.895875306864298, 40.783256907835401 ], [ -73.895877554911706, 40.783256055654299 ], [ -73.895879803621, 40.783255202971198 ], [ -73.895882052548004, 40.783254351963599 ], [ -73.895885425053706, 40.7832535002957 ], [ -73.8958876730876, 40.783253502326502 ], [ -73.895889921355902, 40.783252649642897 ], [ -73.895893293859601, 40.783251799147401 ], [ -73.895895541893395, 40.783251801178103 ], [ -73.895898911740204, 40.783251804222203 ], [ -73.895901161330599, 40.7832509515395 ], [ -73.895903408042003, 40.783250953568903 ], [ -73.895906779211103, 40.783250956613898 ], [ -73.895909027244898, 40.783250958644302 ], [ -73.896065194938998, 40.783165475837002 ], [ -73.896045842713406, 40.7831582455565 ], [ -73.896031186521, 40.783146222673501 ], [ -73.896023174489301, 40.783131005293598 ], [ -73.896022871588201, 40.783114616139997 ], [ -73.896005950660197, 40.783110830582302 ], [ -73.895998870063593, 40.783098550907297 ], [ -73.895966910666999, 40.783098536348 ], [ -73.895938986403905, 40.7830867205844 ], [ -73.895922132336807, 40.783066080406698 ], [ -73.895920594561005, 40.783041815769998 ], [ -73.895903434309204, 40.7830401425175 ], [ -73.895896364769101, 40.783028139892401 ], [ -73.895865078706905, 40.7830277522202 ], [ -73.895837800540804, 40.783016100400602 ], [ -73.895821096192705, 40.782995989056701 ], [ -73.895818986429205, 40.782972259037898 ], [ -73.895794988211307, 40.782954145096703 ], [ -73.8957637398142, 40.782952514396101 ], [ -73.895736576784103, 40.7829406596585 ], [ -73.895718970405198, 40.782920968713199 ], [ -73.895714467013804, 40.782897407787303 ], [ -73.895692707402404, 40.7828840750159 ], [ -73.895685306303704, 40.782878606820198 ], [ -73.895654585574405, 40.782880648307298 ], [ -73.895627107086696, 40.782870009150201 ], [ -73.895611216250899, 40.782849920537103 ], [ -73.895611739213294, 40.782826483519699 ], [ -73.895594214932302, 40.782820465068802 ], [ -73.895584477642302, 40.7828078604838 ], [ -73.895583993594698, 40.782799186080602 ], [ -73.895548511593205, 40.7827993948002 ], [ -73.895516655667294, 40.782787515369698 ], [ -73.895426785803593, 40.782728244772898 ], [ -73.894775707622003, 40.7822618663943 ], [ -73.895423396978401, 40.781726044788797 ], [ -73.895358922912607, 40.781665930896501 ], [ -73.8953522475379, 40.781672219604502 ], [ -73.8952801418814, 40.781730960738102 ], [ -73.8952893789548, 40.781737512006003 ], [ -73.894625810423605, 40.7822780830992 ], [ -73.894602334776906, 40.782261432887402 ], [ -73.895238815875103, 40.781742928555701 ], [ -73.895214059238995, 40.781725370487301 ], [ -73.895244848273506, 40.781700289091198 ], [ -73.8952675397246, 40.781716383951597 ], [ -73.8953123988627, 40.7816798396614 ], [ -73.895318095558693, 40.781683879519598 ], [ -73.895342338933403, 40.7816641285076 ], [ -73.895349921907894, 40.781657539246098 ], [ -73.895326997326194, 40.781634547668901 ], [ -73.895357317618405, 40.781603925246898 ], [ -73.8953458956519, 40.781593840060602 ], [ -73.895286096320106, 40.781549522997601 ], [ -73.895267211464102, 40.781571960270099 ], [ -73.895239641263899, 40.781588401132602 ], [ -73.8952191366797, 40.781613711087097 ], [ -73.895187959983403, 40.781631652941201 ], [ -73.895182369783399, 40.781674513287797 ], [ -73.895157856223193, 40.781713344446302 ], [ -73.895117367932997, 40.781743475538697 ], [ -73.895065775111604, 40.781761282185101 ], [ -73.8950466312629, 40.781787188059901 ], [ -73.895011991405497, 40.781800956168397 ], [ -73.894997976508193, 40.781835830425997 ], [ -73.894970958033298, 40.781865962037301 ], [ -73.894933378204797, 40.781888627362498 ], [ -73.894888633912998, 40.781901777647299 ], [ -73.894869464726696, 40.781933282052698 ], [ -73.894829448129897, 40.781950003483203 ], [ -73.894812943775904, 40.781984449438397 ], [ -73.8947852398219, 40.782014456943301 ], [ -73.894748236346501, 40.782037967915699 ], [ -73.894704471249497, 40.782053369839801 ], [ -73.894688068578901, 40.782082700131902 ], [ -73.894651017055807, 40.782097617231997 ], [ -73.894636652373805, 40.782131490874299 ], [ -73.894610098935402, 40.7821608039525 ], [ -73.894573592249898, 40.782183088610203 ], [ -73.894530205795604, 40.782196468709003 ], [ -73.894506008190703, 40.782227738647997 ], [ -73.894465901430706, 40.782247403751803 ], [ -73.894451322139005, 40.782282128113998 ], [ -73.894422983196094, 40.782311531776202 ], [ -73.894383821755895, 40.782332567216699 ], [ -73.8943378966746, 40.782343054229997 ], [ -73.8943336608897, 40.782360341945797 ], [ -73.894321510420795, 40.782375306269003 ], [ -73.894303079511999, 40.782385934485099 ], [ -73.894280847135505, 40.7823907970891 ], [ -73.894267087017298, 40.782422184292997 ], [ -73.894241722757201, 40.7824490699739 ], [ -73.894207026837293, 40.7824690453266 ], [ -73.894166107812396, 40.782480320670601 ], [ -73.894122631800201, 40.782481885796997 ], [ -73.894080494013593, 40.7824736004792 ], [ -73.894043469766004, 40.782456207035999 ], [ -73.894014876219998, 40.782431263823703 ], [ -73.893968328688004, 40.782428864579202 ], [ -73.893932076014295, 40.782406542641603 ], [ -73.893873022630004, 40.782407700952596 ], [ -73.8938181464747, 40.782391078237097 ], [ -73.893776326984707, 40.782359364195997 ], [ -73.893754330890701, 40.782317690433302 ], [ -73.893720678342206, 40.782304277834903 ], [ -73.893699686184505, 40.782280202458303 ], [ -73.893654638077095, 40.782267018481903 ], [ -73.893615425313598, 40.7822456196605 ], [ -73.893584586408394, 40.782217391291802 ], [ -73.893564117769301, 40.782184160796803 ], [ -73.893532787590502, 40.7821723309847 ], [ -73.893517029222394, 40.782148590508001 ], [ -73.893472599506396, 40.782137112797798 ], [ -73.893434702283102, 40.782116077764996 ], [ -73.893406792745097, 40.782087403234897 ], [ -73.893391415469594, 40.782053703545103 ], [ -73.893366975845595, 40.782051611676003 ], [ -73.893346124072707, 40.782041698745303 ], [ -73.893332953489093, 40.782025910726603 ], [ -73.893330049560007, 40.782007346910497 ], [ -73.893283367168706, 40.782005099770501 ], [ -73.893241412644898, 40.781989377784598 ], [ -73.893210640345103, 40.781962599652097 ], [ -73.8931957843172, 40.781928884966803 ], [ -73.893135566265798, 40.781884706954799 ], [ -73.893096893779401, 40.781873719466603 ], [ -73.893062323433597, 40.781856563587802 ], [ -73.892308918345293, 40.782474315601704 ], [ -73.892298437254098, 40.782542624530301 ], [ -73.892816360719493, 40.782921489080401 ], [ -73.892750595244806, 40.782973980795099 ], [ -73.8921473520994, 40.782549116739702 ], [ -73.891656007320407, 40.782203055528399 ], [ -73.891718317154798, 40.782150560012496 ], [ -73.891890972381105, 40.782266339807101 ], [ -73.892143043399599, 40.782440000530201 ], [ -73.8922433272582, 40.7824190735831 ], [ -73.893011278295504, 40.781806297434798 ], [ -73.893002106384003, 40.781787993127701 ], [ -73.892971141706596, 40.781774689130003 ], [ -73.892952344637607, 40.781751736117002 ], [ -73.892905778257301, 40.781740677337801 ], [ -73.8928654249397, 40.781719836804399 ], [ -73.892834746824306, 40.781691002547902 ], [ -73.892816375948897, 40.781656648424601 ], [ -73.892780170134699, 40.781642108622101 ], [ -73.892752048940494, 40.781619483527798 ], [ -73.892711761387304, 40.781607305448198 ], [ -73.892677162281998, 40.781587444907899 ], [ -73.892650727337099, 40.781561323016099 ], [ -73.892634348077195, 40.781530808907597 ], [ -73.892595509181405, 40.781514031510902 ], [ -73.892569786794994, 40.781486268715803 ], [ -73.892527055434599, 40.781475361721697 ], [ -73.8924896770054, 40.781456211368599 ], [ -73.892460342130803, 40.781430196165203 ], [ -73.892441162424205, 40.781399188774103 ], [ -73.892409452446302, 40.781386290562402 ], [ -73.892388721010505, 40.781363951759403 ], [ -73.892328319522505, 40.781343160697901 ], [ -73.892280062205003, 40.781308595983603 ], [ -73.892179740206601, 40.781379024866901 ], [ -73.892163258214097, 40.781366465471898 ], [ -73.892112904727995, 40.781403453034301 ], [ -73.892086220676106, 40.781381924144 ], [ -73.892247686478299, 40.781263026090897 ], [ -73.892227824618004, 40.781240197267898 ], [ -73.892219343990305, 40.781213597660901 ], [ -73.892169625315105, 40.781208426518603 ], [ -73.892126568482794, 40.781188834262899 ], [ -73.892097086383203, 40.781157966486603 ], [ -73.892085912426197, 40.7811207790946 ], [ -73.892065096084806, 40.781120784772199 ], [ -73.892047040376596, 40.781112910424099 ], [ -73.892036540795701, 40.781099247433097 ], [ -73.892036385966094, 40.781083424612099 ], [ -73.8919866234978, 40.7810778263432 ], [ -73.8919439026335, 40.781057636576897 ], [ -73.8919152811971, 40.781026190825997 ], [ -73.891905487654498, 40.780988684177601 ], [ -73.891908246718799, 40.780961940446602 ], [ -73.891921762330696, 40.780937159888097 ], [ -73.891870210625001, 40.780900957851799 ], [ -73.891831325146399, 40.780915121519101 ], [ -73.891788552210201, 40.780919267281398 ], [ -73.891746235201893, 40.7809129741566 ], [ -73.8917086712095, 40.780896881181199 ], [ -73.891679674669007, 40.780872622518402 ], [ -73.891662190024903, 40.7808426615154 ], [ -73.891657992738004, 40.7808100405598 ], [ -73.891667509001707, 40.780778072139903 ], [ -73.891650901320602, 40.7807684463938 ], [ -73.891641154967701, 40.780754405834401 ], [ -73.891640075651594, 40.780738551765197 ], [ -73.891647863331599, 40.780723821477402 ], [ -73.8916383896089, 40.7807168706479 ], [ -73.891611325522604, 40.780696679406297 ], [ -73.891592345927805, 40.780671724013601 ], [ -73.891582831886794, 40.7806438203773 ], [ -73.891583475686801, 40.7806149989351 ], [ -73.891594230468101, 40.780587356906999 ], [ -73.891614313638001, 40.7805629056896 ], [ -73.891642263819406, 40.780543424495001 ], [ -73.891676047191197, 40.780530330886599 ], [ -73.891688830747, 40.780504710829497 ], [ -73.891728476689394, 40.780470470188 ], [ -73.891737204789905, 40.7804316943975 ], [ -73.891763707073594, 40.780397904809199 ], [ -73.891804431662706, 40.780373629927197 ], [ -73.891853920614494, 40.780362123084103 ], [ -73.891849475989204, 40.780343335389098 ], [ -73.891859757840095, 40.780325919678802 ], [ -73.891881177201398, 40.780315955036698 ], [ -73.891906257486696, 40.780316919693597 ], [ -73.891917313346895, 40.780281051709601 ], [ -73.891942968556805, 40.780249797527397 ], [ -73.8919804925346, 40.780226483626798 ], [ -73.892025891481595, 40.780213591375897 ], [ -73.892030235087702, 40.780195203187297 ], [ -73.892042878476303, 40.780179182604698 ], [ -73.892062176690899, 40.780167613964601 ], [ -73.892085618961701, 40.780162002388899 ], [ -73.892100025457594, 40.780127777315997 ], [ -73.892126104566003, 40.780097805809802 ], [ -73.892161900839398, 40.780074335158901 ], [ -73.892204730237907, 40.7800591252104 ], [ -73.892238552872101, 40.780029912248501 ], [ -73.892268189701795, 40.780020860912899 ], [ -73.892270954433002, 40.780001925910199 ], [ -73.892282749283297, 40.779975807213397 ], [ -73.8923030017108, 40.779952881887802 ], [ -73.892330343173796, 40.779934699085402 ], [ -73.892362926101697, 40.7799224874868 ], [ -73.892388349635794, 40.779915701988003 ], [ -73.892390263097894, 40.779898877511499 ], [ -73.892414495816794, 40.779877946212501 ], [ -73.892444182718407, 40.779873176663102 ], [ -73.892446463348804, 40.779850334341297 ], [ -73.892453810896299, 40.7798290227 ], [ -73.892469367409703, 40.7798104339075 ], [ -73.892491647290299, 40.779796343128503 ], [ -73.892518522885297, 40.779788095982397 ], [ -73.892536261867505, 40.779778793080901 ], [ -73.892514233453895, 40.779750060337101 ], [ -73.892497608470194, 40.779710386176703 ], [ -73.892498523266596, 40.779682685511602 ], [ -73.892545364241002, 40.779583869201097 ], [ -73.8925415976625, 40.779560107720897 ], [ -73.892478903917507, 40.779522926087999 ], [ -73.892438429665802, 40.7795472853741 ], [ -73.892389803327603, 40.779560463454303 ], [ -73.892338185109395, 40.779561061875398 ], [ -73.892289052719605, 40.779549017133299 ], [ -73.892212133591499, 40.779538391661703 ], [ -73.892134060536804, 40.7795353006453 ], [ -73.892056105493793, 40.779539794442002 ], [ -73.891979538478097, 40.779551799840398 ], [ -73.891819334387193, 40.779596847110497 ], [ -73.891670012953298, 40.779500812375602 ], [ -73.891508604333595, 40.779106140064997 ], [ -73.891298001023699, 40.778924037837399 ], [ -73.891197312760298, 40.778571561190098 ], [ -73.892184723445396, 40.777730086591099 ], [ -73.892524014680305, 40.777412902018803 ], [ -73.892504135295496, 40.777372967322599 ], [ -73.892255073007604, 40.777212796028898 ], [ -73.892133706297599, 40.777099209361999 ], [ -73.892042191414404, 40.776971171130903 ], [ -73.891846108633203, 40.776693783321399 ], [ -73.8917737129686, 40.776601794051203 ], [ -73.891653576051695, 40.776570596445701 ], [ -73.891531999935793, 40.776485042168197 ], [ -73.891435566741805, 40.776388796513402 ], [ -73.891417474675393, 40.776347229596702 ], [ -73.891402697414904, 40.776053137683697 ], [ -73.891481582115105, 40.775905115159901 ], [ -73.891531287219706, 40.775613903910298 ], [ -73.891669272158197, 40.775492834781502 ], [ -73.891767193491006, 40.7753654605607 ], [ -73.891810250212103, 40.775227913694003 ], [ -73.891793925981304, 40.775097000697002 ], [ -73.891833864081406, 40.774888472447898 ], [ -73.891726893479202, 40.775060305233801 ], [ -73.891718929035903, 40.775171905512202 ], [ -73.891690766884395, 40.775263010984197 ], [ -73.891529007129705, 40.775486408558102 ], [ -73.891445035031595, 40.775630967429002 ], [ -73.891359429662202, 40.776057681237901 ], [ -73.891369078370303, 40.776351271440902 ], [ -73.891453273459405, 40.776521042666701 ], [ -73.8912655621439, 40.7768641283416 ], [ -73.891105642248903, 40.777031479979399 ], [ -73.891121858999796, 40.77713297276 ], [ -73.891068230414902, 40.777221198348599 ], [ -73.890950022577002, 40.777292118737002 ], [ -73.890732736635201, 40.777340322945903 ], [ -73.890563921396705, 40.777412194062499 ], [ -73.890499761848304, 40.777470908963899 ], [ -73.890460573185194, 40.7775587708865 ], [ -73.890466789381406, 40.777711492447203 ], [ -73.890353346224899, 40.7778085939606 ], [ -73.890175111092404, 40.777859085977703 ], [ -73.890088709482697, 40.777792466293498 ], [ -73.890025106874205, 40.777255399493299 ], [ -73.889517859490198, 40.775944987293798 ], [ -73.889472927085706, 40.775746329334297 ], [ -73.889472469638093, 40.775543824241097 ], [ -73.889556539795095, 40.7752869823303 ], [ -73.889562911839406, 40.775100511283199 ], [ -73.889583262303304, 40.775043322785798 ], [ -73.889590771661702, 40.774966982845498 ], [ -73.889615902723904, 40.774853959772699 ], [ -73.889790422564204, 40.774245133675102 ], [ -73.889843881256695, 40.774108651034098 ], [ -73.889888131316596, 40.774025622035701 ], [ -73.890069016602794, 40.773970756195197 ], [ -73.890193130963894, 40.773655149103902 ], [ -73.890090632397602, 40.773634707900797 ], [ -73.889978143081905, 40.7737318830495 ], [ -73.889853113930002, 40.7737615697717 ], [ -73.889751766739906, 40.773725668255203 ], [ -73.889608611518398, 40.773628610552997 ], [ -73.889524947247807, 40.773583452390703 ], [ -73.889456283229293, 40.773541224008298 ], [ -73.889435736484899, 40.773273663417498 ], [ -73.889414222706506, 40.772993514505302 ], [ -73.889403677302397, 40.772934990336097 ], [ -73.889041417107904, 40.770924510362903 ], [ -73.888710346449898, 40.769099795284603 ], [ -73.888689827361503, 40.768985868638097 ], [ -73.888745854837794, 40.768926450754201 ], [ -73.888701685908103, 40.768918067992402 ], [ -73.888635791515597, 40.768905078198202 ], [ -73.888603255124295, 40.768897687504897 ], [ -73.888504336614304, 40.768861079073602 ], [ -73.888412250573097, 40.768810908253798 ], [ -73.888331656638798, 40.768748547593503 ], [ -73.888266459315901, 40.7686765320502 ], [ -73.888219191942198, 40.768598259353404 ], [ -73.888190721217995, 40.768517461166098 ], [ -73.888186833401804, 40.768487675825803 ], [ -73.888179006399099, 40.7684365281252 ], [ -73.888132040948804, 40.768272464367897 ], [ -73.887819559594305, 40.767210349449002 ], [ -73.887731296149298, 40.766922706015798 ], [ -73.887808409721401, 40.766903274754398 ], [ -73.888366878113303, 40.7667778642287 ], [ -73.888356125862799, 40.766705984880097 ], [ -73.888343432412597, 40.766605071416002 ], [ -73.888774519733801, 40.7665195976994 ], [ -73.889186619621995, 40.766305962901299 ], [ -73.889950282612801, 40.766112680461802 ], [ -73.890425446463695, 40.765970331438197 ], [ -73.890721442046697, 40.765895150866299 ], [ -73.890891851789803, 40.765866469439402 ], [ -73.891003849729998, 40.766125515668499 ], [ -73.891038019272102, 40.766204566423802 ], [ -73.891072202789204, 40.766283609475003 ], [ -73.891091692733895, 40.766344906516302 ], [ -73.891836651041899, 40.766288688858403 ], [ -73.892074300234299, 40.766288362231201 ], [ -73.892464953849895, 40.766292869414499 ], [ -73.892782768433904, 40.766308233047901 ], [ -73.892855099459297, 40.766311729086702 ], [ -73.893243362304503, 40.766344859566502 ], [ -73.893861292669698, 40.7664297165839 ], [ -73.894011576541104, 40.766387756686797 ], [ -73.894083951315196, 40.766337927005701 ], [ -73.894325136181905, 40.766154742498202 ], [ -73.894544965131004, 40.766192983341497 ], [ -73.895961001797801, 40.766439304921803 ], [ -73.896103417669195, 40.766462958084198 ], [ -73.900660169363206, 40.767219704781802 ], [ -73.902026584167899, 40.767425054589303 ], [ -73.902180936000207, 40.767324112218297 ] ] ] } }
]
}
