{
"type": "FeatureCollection",
"name": "combined_dissolved",
"crs": { "type": "name", "properties": { "name": "urn:ogc:def:crs:OGC:1.3:CRS84" } },
"features": [
{ "type": "Feature", "properties": { "OBJECTID": 2, "BoroCode": 3, "BoroName": "Brooklyn", "CountyFIPS": "047", "NTA2020": "BK0102", "NTAName": "Williamsburg", "NTAAbbrev": "Wllmsbrg", "NTAType": 0, "CDTA2020": "BK01", "CDTAName": "BK01 Williamsburg-Greenpoint (CD 1 Equivalent)", "Shape__Area": 28852852.702244401, "Shape__Length": 28134.08231567949 }, "geometry": { "type": "Polygon", "coordinates": [ [ [ -73.944389313996993, 40.700432779916703 ], [ -73.944619089219799, 40.700413556542102 ], [ -73.946317003953993, 40.700223208787399 ], [ -73.947129050358797, 40.7001310668632 ], [ -73.947249516648299, 40.700113165218099 ], [ -73.948133683114193, 40.700014529240001 ], [ -73.949795222552595, 40.699831570752899 ], [ -73.950092376974496, 40.699798849048001 ], [ -73.951012551133701, 40.6996862416526 ], [ -73.951374216702703, 40.699641980335898 ], [ -73.951538819577195, 40.699621834570301 ], [ -73.951774009357095, 40.699593050637702 ], [ -73.951953053512298, 40.6995711367178 ], [ -73.952549432368002, 40.699503032807399 ], [ -73.953371437552306, 40.699412796272398 ], [ -73.954291964977102, 40.699303609842801 ], [ -73.9551851402843, 40.699201157927803 ], [ -73.956075994199793, 40.699098257430997 ], [ -73.957021363883896, 40.6989821697574 ], [ -73.957960814490804, 40.698828258560297 ], [ -73.958860179494707, 40.698685581701497 ], [ -73.9601983222109, 40.698470982635001 ], [ -73.961052439580797, 40.6983343339583 ], [ -73.961899811746207, 40.6981965881169 ], [ -73.9623321624466, 40.698127849378899 ], [ -73.962360466837694, 40.698123346792102 ], [ -73.962399124563603, 40.698117200787401 ], [ -73.962484392112302, 40.698103639798603 ], [ -73.962841070959897, 40.698046923360302 ], [ -73.962367233589603, 40.699613841195998 ], [ -73.962181214608506, 40.700228966075599 ], [ -73.962520737117302, 40.700480937476101 ], [ -73.962551359140605, 40.700505289156503 ], [ -73.963183954382302, 40.701008350963498 ], [ -73.963870328246301, 40.701550144882397 ], [ -73.964519882669805, 40.702083234020797 ], [ -73.965205824511997, 40.702631000650499 ], [ -73.965837197102701, 40.703135263938002 ], [ -73.9658756215116, 40.703165951914499 ], [ -73.965917353759195, 40.703199859390303 ], [ -73.966075570892599, 40.703328408883799 ], [ -73.966538907159801, 40.703704868915601 ], [ -73.966671137810707, 40.703814859904902 ], [ -73.967211055997794, 40.704263965239598 ], [ -73.967616913652094, 40.704969891597401 ], [ -73.967952827160303, 40.705739473913503 ], [ -73.968384750152197, 40.706837629943003 ], [ -73.969131566764702, 40.7070539900337 ], [ -73.969294399895304, 40.7071015876652 ], [ -73.9696239577369, 40.707635845217801 ], [ -73.969850084218194, 40.708011298415997 ], [ -73.969890431379994, 40.708583128906298 ], [ -73.969943403078005, 40.709310310333599 ], [ -73.969616293712505, 40.710156006338799 ], [ -73.969606850006102, 40.710279101056202 ], [ -73.969687286241495, 40.710329988672299 ], [ -73.969994128528697, 40.710390307932897 ], [ -73.970029880089299, 40.710402024458404 ], [ -73.970056572937906, 40.710423584243202 ], [ -73.970069813831699, 40.710451438878202 ], [ -73.970067423503593, 40.710481003913898 ], [ -73.970049795346299, 40.710507413388797 ], [ -73.970019830678098, 40.710526320694598 ], [ -73.969982461236597, 40.710534613965599 ], [ -73.969943837486497, 40.710530928250101 ], [ -73.969663300862393, 40.710507981361197 ], [ -73.9696324973483, 40.710665203243998 ], [ -73.969776045350599, 40.710694511178197 ], [ -73.969787243144495, 40.710740754113502 ], [ -73.969775750991303, 40.710786955214502 ], [ -73.969743118337803, 40.710826885173603 ], [ -73.969693745029701, 40.710855160213001 ], [ -73.969419529154706, 40.710946384580801 ], [ -73.969375736220002, 40.711028923399397 ], [ -73.969909167135498, 40.711276379205003 ], [ -73.9693118210987, 40.7111161102371 ], [ -73.969236365955396, 40.711248799325297 ], [ -73.969292452184106, 40.711278457203299 ], [ -73.969234964053499, 40.711441390211299 ], [ -73.969146268882099, 40.711465252480103 ], [ -73.969097236231804, 40.711571371055697 ], [ -73.969081223192504, 40.711631699941698 ], [ -73.968886168795606, 40.7121851168137 ], [ -73.968867352158199, 40.712240156246999 ], [ -73.968817557368396, 40.712260205303998 ], [ -73.968866812360801, 40.712280617226398 ], [ -73.968839612570093, 40.7123978995524 ], [ -73.968942229638301, 40.712427030576301 ], [ -73.968926100049302, 40.712471684570097 ], [ -73.9689074085844, 40.712515034174302 ], [ -73.968897387339993, 40.712536572425698 ], [ -73.968873921842999, 40.7125870015985 ], [ -73.968841641974905, 40.7126415066585 ], [ -73.968825934475504, 40.712668875314499 ], [ -73.968808369925597, 40.712716878604397 ], [ -73.968785300010694, 40.712764784405799 ], [ -73.9687333841336, 40.712748827610604 ], [ -73.968723872723402, 40.712745903523597 ], [ -73.968718423740697, 40.712755202472501 ], [ -73.968667493897996, 40.712865451212799 ], [ -73.968545318943001, 40.712828959163403 ], [ -73.968499911384399, 40.712815161453797 ], [ -73.968471169963905, 40.712832967068003 ], [ -73.968474416552596, 40.712861685938798 ], [ -73.968443755835906, 40.712946692635199 ], [ -73.968561154392106, 40.7129955684238 ], [ -73.968508162717498, 40.713113729664997 ], [ -73.968850685019603, 40.713220803744903 ], [ -73.968392688694195, 40.714270176680301 ], [ -73.968009743357896, 40.715128981993999 ], [ -73.967655918908306, 40.7158773670673 ], [ -73.967365352694898, 40.716491937532702 ], [ -73.967241780949195, 40.716596144561102 ], [ -73.967261270342604, 40.716679234076203 ], [ -73.967106476366197, 40.716916651824398 ], [ -73.9672525737586, 40.716994925189297 ], [ -73.966748714532997, 40.717746025198402 ], [ -73.9665983395316, 40.717976240185699 ], [ -73.966563855171799, 40.718024125612303 ], [ -73.9665533881535, 40.718046710892999 ], [ -73.966538098264706, 40.718042618961697 ], [ -73.966528901921393, 40.718040156994 ], [ -73.966514067077298, 40.718059872103197 ], [ -73.966314738045298, 40.718324800283597 ], [ -73.966217737129895, 40.718272631298603 ], [ -73.966199774837307, 40.718262971117397 ], [ -73.966143378002201, 40.718311877088901 ], [ -73.965761401315305, 40.7186972937454 ], [ -73.965744107404205, 40.718715136747299 ], [ -73.965525732849301, 40.718927601020397 ], [ -73.965120939970205, 40.719235153091297 ], [ -73.9652001001228, 40.7192915653171 ], [ -73.965268179784402, 40.719355805487503 ], [ -73.965323855773903, 40.719426625076501 ], [ -73.965366045968395, 40.719502647680997 ], [ -73.9653939303372, 40.7195823957708 ], [ -73.965406966882298, 40.719664319403797 ], [ -73.965404902176601, 40.719746826349898 ], [ -73.965387776293298, 40.719828313035698 ], [ -73.965365735771201, 40.719929908258202 ], [ -73.965329649571402, 40.720029150265802 ], [ -73.965279925160999, 40.720124918298303 ], [ -73.965217124033003, 40.720216130823303 ], [ -73.965205907161703, 40.720230232691897 ], [ -73.965176501353795, 40.720264833675003 ], [ -73.965157939300695, 40.720285126616901 ], [ -73.965118804110105, 40.720324598666402 ], [ -73.9650342191308, 40.7203853287972 ], [ -73.964480898543499, 40.720044447530697 ], [ -73.964383343859197, 40.7201476839588 ], [ -73.964335032983399, 40.720216578994197 ], [ -73.964448984852893, 40.720285233229298 ], [ -73.964336190268, 40.720394798259903 ], [ -73.964398791385705, 40.7204500942861 ], [ -73.964362515204002, 40.720485499242699 ], [ -73.9642760605918, 40.720584026981797 ], [ -73.964242132675594, 40.720620489890202 ], [ -73.964203366586304, 40.720662153662701 ], [ -73.964067348669005, 40.720808170401703 ], [ -73.964027610803797, 40.720889152525103 ], [ -73.963999372797005, 40.720946697541301 ], [ -73.9635610196909, 40.721547747070197 ], [ -73.963539989588895, 40.721581638123503 ], [ -73.963439030939796, 40.721567354772198 ], [ -73.963416663614098, 40.721589887060297 ], [ -73.9629670986577, 40.722042736842198 ], [ -73.962758089469901, 40.7224072749244 ], [ -73.962254897692006, 40.723540557584002 ], [ -73.962236484790395, 40.723578519311303 ], [ -73.962074153891805, 40.723888561017802 ], [ -73.962008883090206, 40.724000161241896 ], [ -73.961903996212101, 40.724106550642098 ], [ -73.961895702192294, 40.724114962264203 ], [ -73.961661277393901, 40.724868714781799 ], [ -73.962116050872396, 40.725156323758299 ], [ -73.9619038315778, 40.725328761211799 ], [ -73.961762138603405, 40.7252370524984 ], [ -73.961538228603501, 40.7251171792241 ], [ -73.961414070098797, 40.7251854798822 ], [ -73.961165097929793, 40.725272866748902 ], [ -73.960433737069295, 40.725122369072302 ], [ -73.960367945662298, 40.725055569787102 ], [ -73.958760716452204, 40.724549614727898 ], [ -73.958332216216704, 40.724419961113902 ], [ -73.9581443574898, 40.724412544754998 ], [ -73.957721325796001, 40.724293217703803 ], [ -73.958144356755795, 40.724412544754699 ], [ -73.958040601271804, 40.724435701239599 ], [ -73.957943268732393, 40.724657463107803 ], [ -73.957952395996202, 40.725044699651797 ], [ -73.958277316213099, 40.725175717538797 ], [ -73.958353204790498, 40.725206317802801 ], [ -73.958427552477204, 40.725408796370303 ], [ -73.960126405909605, 40.725327897099703 ], [ -73.960286884108797, 40.725956382993303 ], [ -73.961064870026604, 40.725853159718298 ], [ -73.961616624107506, 40.725873823591797 ], [ -73.961654242740394, 40.726212186813399 ], [ -73.961618604773903, 40.726669682664401 ], [ -73.961500636157098, 40.726759351820299 ], [ -73.9614197033236, 40.7273644405212 ], [ -73.961143028196005, 40.728111986377201 ], [ -73.961018316434405, 40.7287127011965 ], [ -73.961152367697494, 40.729544466023597 ], [ -73.961284055317094, 40.730069286361498 ], [ -73.961285943125304, 40.730167323574499 ], [ -73.961302871983506, 40.730261204312797 ], [ -73.961429872314596, 40.730954654129697 ], [ -73.961675903171198, 40.731489515168398 ], [ -73.9616999179147, 40.731540603019702 ], [ -73.9617143296108, 40.731574375475802 ], [ -73.961756392567295, 40.731672939814104 ], [ -73.962036020602497, 40.7323886318216 ], [ -73.962264839954997, 40.732923813499497 ], [ -73.962305354452496, 40.733121922895599 ], [ -73.962342058377303, 40.733397488599202 ], [ -73.962309812741097, 40.733540586761698 ], [ -73.962333213016294, 40.733631286082499 ], [ -73.962329939040004, 40.733762603368099 ], [ -73.962286638166802, 40.734055957973702 ], [ -73.962186964550995, 40.734257278772802 ], [ -73.962091780262099, 40.7345162600677 ], [ -73.961986214442007, 40.734646295371398 ], [ -73.961911082483397, 40.734759068494597 ], [ -73.961763520269599, 40.734899877059902 ], [ -73.961576378706098, 40.735187877272303 ], [ -73.961191466881203, 40.7356110590231 ], [ -73.960520602550602, 40.736350454908496 ], [ -73.960512985830704, 40.736358871507903 ], [ -73.960468916780698, 40.736407907974403 ], [ -73.960424057689494, 40.736452818645297 ], [ -73.960297005760296, 40.7365711824594 ], [ -73.960240066188206, 40.7366220236853 ], [ -73.960224319797007, 40.736644918278898 ], [ -73.960217210377394, 40.7366534437583 ], [ -73.960189088361005, 40.736683735558401 ], [ -73.960148753704203, 40.736723956440599 ], [ -73.960096649457, 40.736766811438102 ], [ -73.960078570804896, 40.736786823747998 ], [ -73.960035267090305, 40.736842576614798 ], [ -73.9600025010282, 40.736877397342603 ], [ -73.959918027349005, 40.7369623131057 ], [ -73.959896454738001, 40.736987321819903 ], [ -73.959852249376794, 40.737045118627798 ], [ -73.959830746671798, 40.737069163406602 ], [ -73.959817267716502, 40.7370810006474 ], [ -73.959800508567199, 40.737092656148299 ], [ -73.959781180731795, 40.737103923763598 ], [ -73.959723874356499, 40.737134575318898 ], [ -73.959707294249199, 40.737145114807497 ], [ -73.959693685518701, 40.737155519804702 ], [ -73.959666867508702, 40.737180427296302 ], [ -73.959603833815294, 40.737245214322002 ], [ -73.959584549649506, 40.7372624259256 ], [ -73.959565752971301, 40.7372769346577 ], [ -73.959471535286596, 40.737343044670901 ], [ -73.959402818364197, 40.737389278878403 ], [ -73.959370164216693, 40.737412591233699 ], [ -73.959307176325197, 40.7374603314572 ], [ -73.959192510585893, 40.737547379175901 ], [ -73.959165164639003, 40.737565271862401 ], [ -73.9591113391037, 40.737594302689303 ], [ -73.9590909690384, 40.737606271921301 ], [ -73.959029405841605, 40.737645620762997 ], [ -73.958990000857895, 40.7376729906115 ], [ -73.958889632594506, 40.737749426462997 ], [ -73.958834755374795, 40.737793730170601 ], [ -73.958826179690604, 40.737799066172897 ], [ -73.958815759418798, 40.737804096951798 ], [ -73.958779405454706, 40.737817708871802 ], [ -73.958766864889199, 40.737823071427499 ], [ -73.958731798026605, 40.737842005438203 ], [ -73.958679437929106, 40.737874755674397 ], [ -73.958641745046606, 40.737908205049202 ], [ -73.958614857906795, 40.737929465050399 ], [ -73.958488903979699, 40.738024946480898 ], [ -73.958460121621798, 40.738047466064003 ], [ -73.958433329987997, 40.7380669073899 ], [ -73.958376513818195, 40.738105212396 ], [ -73.958313789905404, 40.738145289508203 ], [ -73.958243570262397, 40.738188182668402 ], [ -73.958157315496507, 40.738239093472103 ], [ -73.957961305845998, 40.738356654464198 ], [ -73.957895681653099, 40.738394668373402 ], [ -73.957855876127198, 40.738418372876701 ], [ -73.957766315378393, 40.738472622485801 ], [ -73.957718171373898, 40.738501583375403 ], [ -73.957635530649995, 40.738546380900999 ], [ -73.957548473169197, 40.738590509146398 ], [ -73.957419669677606, 40.738657505003999 ], [ -73.957156229773801, 40.7387845848233 ], [ -73.957094729605501, 40.738814252469297 ], [ -73.956959945114093, 40.738882136488101 ], [ -73.956947842311493, 40.738887445232599 ], [ -73.956931463026507, 40.738895336304203 ], [ -73.956919634468207, 40.738897178021503 ], [ -73.956904907285903, 40.7388982259179 ], [ -73.956779603472199, 40.738913856421 ], [ -73.955641479732705, 40.739052580018701 ], [ -73.955636589277802, 40.739052965121097 ], [ -73.955631475086804, 40.739052963151003 ], [ -73.955615977155006, 40.739054073743198 ], [ -73.955584797181601, 40.739048334497397 ], [ -73.955532105445101, 40.739040956572502 ], [ -73.955198042966003, 40.739092805025699 ], [ -73.954924238677094, 40.739111564010301 ], [ -73.954809009378494, 40.739127106349997 ], [ -73.954764573899496, 40.739131798911203 ], [ -73.954716766215299, 40.739134805316198 ], [ -73.954664648664107, 40.739136216493598 ], [ -73.954604967446002, 40.739136111735498 ], [ -73.954547881817206, 40.739133180292299 ], [ -73.954442684724697, 40.739125917335002 ], [ -73.954396987748197, 40.739123035888603 ], [ -73.954284603816902, 40.739115633741903 ], [ -73.954234062920605, 40.739115613669597 ], [ -73.954194946190199, 40.739115220514599 ], [ -73.954157712353407, 40.739115178226001 ], [ -73.954123299491997, 40.739109032218799 ], [ -73.954029214617904, 40.739091407947498 ], [ -73.953973837422495, 40.739083209200999 ], [ -73.953816948304805, 40.739061389237797 ], [ -73.953739266216104, 40.739053596562698 ], [ -73.953582323958898, 40.739041240663497 ], [ -73.953516051826497, 40.739035190354798 ], [ -73.953368879230396, 40.739018777602098 ], [ -73.953234423574202, 40.739000947023698 ], [ -73.952924990336797, 40.738943205777602 ], [ -73.952863753816402, 40.738929823682398 ], [ -73.952824447772997, 40.7389207422315 ], [ -73.952788508796502, 40.738912438297398 ], [ -73.952719246913702, 40.738899348184198 ], [ -73.952658462032204, 40.738887139855301 ], [ -73.952556708692597, 40.738865944757599 ], [ -73.952385920690503, 40.738828656438798 ], [ -73.952188127097699, 40.7387935174145 ], [ -73.952178751652596, 40.738791847471703 ], [ -73.952146493684197, 40.738786520804901 ], [ -73.952106850203904, 40.7387792472489 ], [ -73.952034807533195, 40.738765520307098 ], [ -73.952018945988101, 40.738762028480402 ], [ -73.952006574707298, 40.738759780816999 ], [ -73.951989376328498, 40.738755883852697 ], [ -73.951978745031298, 40.738739552462199 ], [ -73.951974284035401, 40.738735696991696 ], [ -73.951956124674396, 40.738717202373799 ], [ -73.951950705349603, 40.738713084658698 ], [ -73.951945118790704, 40.738709975215201 ], [ -73.951937319456206, 40.738706784267798 ], [ -73.951929023053196, 40.738704160691903 ], [ -73.951911999510997, 40.738700956510797 ], [ -73.9519037962759, 40.738700467258703 ], [ -73.951895946006701, 40.738700715939899 ], [ -73.951888582393494, 40.738701703112802 ], [ -73.951881785612699, 40.738703420099597 ], [ -73.951881477187001, 40.738703528192801 ], [ -73.951881193630001, 40.738703663100701 ], [ -73.951880920631893, 40.738703816105698 ], [ -73.951880683086898, 40.738703978507097 ], [ -73.951880458511198, 40.738704176094501 ], [ -73.951880244720996, 40.738704382900302 ], [ -73.951879902330504, 40.738704860375101 ], [ -73.951879641380003, 40.738705409752797 ], [ -73.951879463398498, 40.738706048624202 ], [ -73.951879331691899, 40.7387075708818 ], [ -73.951879684749201, 40.738710316787603 ], [ -73.951881833333303, 40.738718161105197 ], [ -73.951882117209095, 40.738719719722198 ], [ -73.951882128050201, 40.738720871973499 ], [ -73.951882033024305, 40.738721313868503 ], [ -73.951881879031404, 40.738721673315901 ], [ -73.951881772320107, 40.738721827060502 ], [ -73.951881653068298, 40.738721962036998 ], [ -73.951881522383403, 40.738722069534397 ], [ -73.951881368578398, 40.738722168813297 ], [ -73.951881191006706, 40.738722240105403 ], [ -73.951881002428493, 40.738722303183998 ], [ -73.951880800434694, 40.738722339285403 ], [ -73.951880575988994, 40.7387223567818 ], [ -73.951880078020295, 40.7387223389835 ], [ -73.951879498611603, 40.738722249282297 ], [ -73.951859317180606, 40.738716558687003 ], [ -73.951814126038201, 40.738702446627599 ], [ -73.951718582389702, 40.738673482338001 ], [ -73.951543462199297, 40.738619521569703 ], [ -73.950646649663597, 40.738372735502701 ], [ -73.950511171180494, 40.738330947871198 ], [ -73.950466015074596, 40.7383178441411 ], [ -73.950388914220198, 40.738293100469598 ], [ -73.950220872787199, 40.738229794937801 ], [ -73.950049917501104, 40.738166316014201 ], [ -73.949966596797594, 40.738132744403401 ], [ -73.949649148777695, 40.738005994425798 ], [ -73.949485737445002, 40.737942122765197 ], [ -73.949398441904194, 40.737907927643001 ], [ -73.949258864740699, 40.737853251101697 ], [ -73.948845205720204, 40.737694155194397 ], [ -73.948613435480496, 40.7376037133727 ], [ -73.948585514884201, 40.737592813534498 ], [ -73.948406649283498, 40.737522097855702 ], [ -73.948124348034696, 40.737405417857801 ], [ -73.948108184491403, 40.737441971216498 ], [ -73.948093158281097, 40.737475968128997 ], [ -73.947543546198801, 40.737287179794897 ], [ -73.947202927010693, 40.737174712056103 ], [ -73.947182829086699, 40.737169516388697 ], [ -73.947163217033903, 40.737163194995297 ], [ -73.9471377725596, 40.7371529174644 ], [ -73.947097003201705, 40.737133123249102 ], [ -73.947050780524606, 40.737108220807997 ], [ -73.947037610973894, 40.7371000568833 ], [ -73.947035433533401, 40.737098542950299 ], [ -73.947007131426304, 40.737078880751 ], [ -73.946990042888601, 40.737069327228198 ], [ -73.946969710854006, 40.737060861801503 ], [ -73.946911907554096, 40.737039997557801 ], [ -73.946861339397799, 40.737015651905402 ], [ -73.946841208517696, 40.737007412206999 ], [ -73.946823005350794, 40.737002027376199 ], [ -73.946779671135701, 40.736992282112098 ], [ -73.946760685604502, 40.736986986871599 ], [ -73.9467006215108, 40.736966013924402 ], [ -73.946617326157494, 40.736932818169898 ], [ -73.946581937432498, 40.7369525321918 ], [ -73.946524959471205, 40.736935117171399 ], [ -73.946443722297104, 40.736788889450601 ], [ -73.946663179366993, 40.736373926335503 ], [ -73.946676584527495, 40.7363488871651 ], [ -73.946905199198497, 40.7359219211801 ], [ -73.947002876898694, 40.735725173793497 ], [ -73.947201264716398, 40.735363440493202 ], [ -73.9471883422177, 40.735239044958199 ], [ -73.947159189611, 40.735040560071397 ], [ -73.947087865594497, 40.734554178216598 ], [ -73.947066760097897, 40.734410255518902 ], [ -73.946599497870295, 40.7344504870712 ], [ -73.946624047758803, 40.734566319931702 ], [ -73.946740511622494, 40.735290956724597 ], [ -73.946700504126696, 40.7353643449838 ], [ -73.946561469803498, 40.735611326035603 ], [ -73.946556073704002, 40.7356212689103 ], [ -73.9465488822418, 40.735633932084397 ], [ -73.946543199275993, 40.735644289788503 ], [ -73.94653021872, 40.735667540629898 ], [ -73.946514477261701, 40.735695711948701 ], [ -73.946491535935294, 40.735736822683101 ], [ -73.946465935422097, 40.7357831383977 ], [ -73.946444531571998, 40.735821447453603 ], [ -73.946431943397002, 40.735843621940496 ], [ -73.946401937579793, 40.735897331551101 ], [ -73.946308631707694, 40.7360657825567 ], [ -73.946248913758097, 40.736174428300899 ], [ -73.946173389582, 40.736211151858001 ], [ -73.9458745362939, 40.736110094332503 ], [ -73.9455719151712, 40.7366205670954 ], [ -73.945534029639205, 40.7366133437027 ], [ -73.945521411022796, 40.736598926100697 ], [ -73.945546715438496, 40.736546096025897 ], [ -73.9454172804069, 40.736510007177003 ], [ -73.945401461811102, 40.736546027255102 ], [ -73.9453604023265, 40.736558017756103 ], [ -73.9452088674945, 40.736517113693601 ], [ -73.945202569860996, 40.7364954935817 ], [ -73.945221551628293, 40.736452268883198 ], [ -73.945079497151099, 40.736401760844203 ], [ -73.945060513765398, 40.736447388351401 ], [ -73.945035244664993, 40.736456983435801 ], [ -73.945000519300194, 40.736444956883297 ], [ -73.945000535160204, 40.736425741937403 ], [ -73.945256353250002, 40.7359010520589 ], [ -73.945186502220096, 40.735487415654298 ], [ -73.945034420674403, 40.7354368786553 ], [ -73.945029288026106, 40.735458785993004 ], [ -73.945023229655106, 40.735483169098003 ], [ -73.945007852473793, 40.7355397048021 ], [ -73.944992015679702, 40.735578571765799 ], [ -73.944962675180506, 40.735642512165597 ], [ -73.944924522610506, 40.735711049626502 ], [ -73.944886834578099, 40.735774633537801 ], [ -73.944863570784193, 40.7358188019899 ], [ -73.944837964466998, 40.735876044256102 ], [ -73.944786943017505, 40.735972806400802 ], [ -73.944774151113194, 40.7359940243674 ], [ -73.944760640517202, 40.736012370918502 ], [ -73.944740970975403, 40.736032505873901 ], [ -73.944691950873803, 40.736072401394601 ], [ -73.944672377700002, 40.736091015243801 ], [ -73.944634436559497, 40.7361321133736 ], [ -73.944614160209198, 40.736155661870299 ], [ -73.944578691380201, 40.736199444442299 ], [ -73.944569092666498, 40.7362110842544 ], [ -73.944551055553504, 40.736232921026598 ], [ -73.944550463243601, 40.736233551478598 ], [ -73.944549800274601, 40.7362341363295 ], [ -73.944548224681498, 40.736235188977503 ], [ -73.944546317989406, 40.736236070756497 ], [ -73.944544044049593, 40.736236816829702 ], [ -73.9445405988575, 40.736237580934301 ], [ -73.944528581362604, 40.736239276880703 ], [ -73.9445257281198, 40.736239843756202 ], [ -73.944523347423598, 40.736240517238599 ], [ -73.944521499875506, 40.736241254637903 ], [ -73.944519936126795, 40.736242100395998 ], [ -73.9445186455754, 40.736243091196101 ], [ -73.9445176026898, 40.736244207257698 ], [ -73.944517080919795, 40.736245026043399 ], [ -73.944516772804505, 40.736245818630302 ], [ -73.944516701777999, 40.736246214293701 ], [ -73.944516677669299, 40.736246601938397 ], [ -73.944516711917501, 40.736246997652501 ], [ -73.944516806746293, 40.736247375973001 ], [ -73.944516948699103, 40.736247763027599 ], [ -73.944517138230694, 40.736248141896297 ], [ -73.9445176932593, 40.736248907424802 ], [ -73.944518474261102, 40.736249664853197 ], [ -73.944519480334307, 40.736250439310297 ], [ -73.944521515206503, 40.736251674290699 ], [ -73.944524236272997, 40.7362529985582 ], [ -73.9445383438878, 40.736258930765203 ], [ -73.944541419681499, 40.736260616390297 ], [ -73.944542626356295, 40.736261436008398 ], [ -73.944543633052106, 40.736262256702901 ], [ -73.944544413364497, 40.736263049143901 ], [ -73.944545064350706, 40.736263895968698 ], [ -73.944545583808704, 40.736264796506198 ], [ -73.9445459741452, 40.736265770023103 ], [ -73.944546221729198, 40.736266787865802 ], [ -73.944546351448096, 40.736267849543701 ], [ -73.944546182822094, 40.7362701375393 ], [ -73.944545471390001, 40.7362725866017 ], [ -73.9445442378845, 40.736275160554897 ], [ -73.944542495137796, 40.736277789211599 ], [ -73.944540290333805, 40.736280409436901 ], [ -73.944534651305005, 40.7362854318459 ], [ -73.944531441479398, 40.7362876002707 ], [ -73.944528101548798, 40.736289435422499 ], [ -73.944521517599995, 40.736291917339003 ], [ -73.944516851415202, 40.736292654050501 ], [ -73.944493851051206, 40.736291336930798 ], [ -73.944482818547499, 40.736289756193798 ], [ -73.944465512606001, 40.736286989358703 ], [ -73.944429802176003, 40.736278541864898 ], [ -73.944392326908499, 40.736267000801199 ], [ -73.944324981003504, 40.736240854065898 ], [ -73.944223917310794, 40.7361959832823 ], [ -73.94330111, 40.7358318753407 ], [ -73.943214906323703, 40.735798793122697 ], [ -73.943169312978597, 40.735775771756003 ], [ -73.943106500684607, 40.7357440608098 ], [ -73.943008340830005, 40.735696915044898 ], [ -73.942945572814196, 40.735668454884397 ], [ -73.942881870000306, 40.735641210133402 ], [ -73.9428433257184, 40.735625495451202 ], [ -73.942395864934099, 40.7354340130113 ], [ -73.942123889040701, 40.735242024441902 ], [ -73.942106795373604, 40.735227301158098 ], [ -73.941970350656206, 40.735127239422098 ], [ -73.941773740060896, 40.734990344388599 ], [ -73.941739625169404, 40.734958980911301 ], [ -73.941793320895997, 40.734921159631902 ], [ -73.941787595698599, 40.734903199904302 ], [ -73.941764494308501, 40.734867645293399 ], [ -73.941695117567406, 40.734777641071098 ], [ -73.941608011181401, 40.734695965110603 ], [ -73.941547097520598, 40.734742598892801 ], [ -73.941299447663198, 40.734384556330198 ], [ -73.941148896052894, 40.734161190395703 ], [ -73.940998894962604, 40.7337987483481 ], [ -73.941157587105806, 40.733757172388501 ], [ -73.941136768555694, 40.733711074020299 ], [ -73.941039861706003, 40.733496522934701 ], [ -73.940943504416396, 40.7335169148175 ], [ -73.940930575739102, 40.733519654617197 ], [ -73.9409190094362, 40.733492309856501 ], [ -73.940900550070893, 40.733448645642298 ], [ -73.940819601132105, 40.7332571716302 ], [ -73.940727049396102, 40.733299448111097 ], [ -73.940645663684094, 40.733178774162802 ], [ -73.940592556255496, 40.733100028387398 ], [ -73.940570118084295, 40.733066756921602 ], [ -73.940686344829899, 40.733025339776297 ], [ -73.9403680181954, 40.732220849420102 ], [ -73.939889279919001, 40.731303883376 ], [ -73.939814654678997, 40.7311609512291 ], [ -73.939747505939195, 40.731073737774402 ], [ -73.938916462860902, 40.730392056931002 ], [ -73.938562632086899, 40.730141905379902 ], [ -73.938104777397299, 40.729736781619202 ], [ -73.9380904369077, 40.729755108362397 ], [ -73.937296540135193, 40.729308818829601 ], [ -73.937120172522199, 40.729198194091701 ], [ -73.936932675376397, 40.729116353282798 ], [ -73.936841441128095, 40.729096175954801 ], [ -73.936560371002898, 40.729026088279603 ], [ -73.936083881957998, 40.728890973854902 ], [ -73.935637339277804, 40.728760214645597 ], [ -73.935615966745502, 40.728754247626803 ], [ -73.935275808499597, 40.728659280556599 ], [ -73.935013358752201, 40.728580689208101 ], [ -73.934930690621499, 40.728552177227201 ], [ -73.934809883873797, 40.728536872179298 ], [ -73.934418845571102, 40.728480852527603 ], [ -73.934210912106906, 40.728452142304903 ], [ -73.934223493878207, 40.728398779342001 ], [ -73.9341556420666, 40.728389915090297 ], [ -73.933768187069504, 40.728342200914298 ], [ -73.933529042765997, 40.728315659569603 ], [ -73.933500908173599, 40.728312401181299 ], [ -73.933486986041203, 40.728302676759803 ], [ -73.933484146216699, 40.728289825319401 ], [ -73.933258724204407, 40.728248964790701 ], [ -73.933018012170606, 40.728218604212003 ], [ -73.932912588389698, 40.728241577928301 ], [ -73.932628252559098, 40.728188875549698 ], [ -73.932409324532401, 40.728154185824401 ], [ -73.932388429542698, 40.728155956544299 ], [ -73.932362332148401, 40.728176031857501 ], [ -73.932347414351199, 40.7281906558811 ], [ -73.932135400941405, 40.728167865433001 ], [ -73.932005630279406, 40.728153344894501 ], [ -73.931962278662795, 40.7281338863583 ], [ -73.931882680627794, 40.728103644789698 ], [ -73.931749838873898, 40.728061989688698 ], [ -73.931684603898503, 40.7280399885896 ], [ -73.931670013124204, 40.728046544298699 ], [ -73.931574987464401, 40.728026556549601 ], [ -73.931209126987198, 40.7279496006133 ], [ -73.930806216656705, 40.727857101246599 ], [ -73.930723967657798, 40.727849334676002 ], [ -73.930327780782207, 40.727803404240099 ], [ -73.929919552322403, 40.727647160331102 ], [ -73.929745271950594, 40.727581901819299 ], [ -73.929661846935304, 40.727541481642099 ], [ -73.929613975542296, 40.727568440944403 ], [ -73.929603500560901, 40.727582577816499 ], [ -73.929631724659203, 40.727595072122597 ], [ -73.929619492826603, 40.727611504713799 ], [ -73.929601626466095, 40.7276243595091 ], [ -73.929581631841401, 40.727621082690199 ], [ -73.929512602296597, 40.727578193152297 ], [ -73.929426187925102, 40.727520013979699 ], [ -73.929377310896896, 40.727488231501503 ], [ -73.929289300253103, 40.727433765983797 ], [ -73.929244764295603, 40.727406204269897 ], [ -73.9292704137534, 40.727373477265097 ], [ -73.929244837343006, 40.727350262284098 ], [ -73.929180766706395, 40.727292106536602 ], [ -73.929112450906104, 40.727228002448598 ], [ -73.928898912010197, 40.7270360258848 ], [ -73.928495609926003, 40.726622865131802 ], [ -73.9283388045924, 40.726425844489398 ], [ -73.928160131648596, 40.726213492513203 ], [ -73.928132171819499, 40.726180948574502 ], [ -73.928055719693702, 40.726080601895703 ], [ -73.927956565044198, 40.725924779219604 ], [ -73.927940550554496, 40.7258919907459 ], [ -73.927928967926903, 40.725887318546697 ], [ -73.927903142850596, 40.725884042141502 ], [ -73.927884000935293, 40.725874746324202 ], [ -73.927873148329297, 40.7258623128943 ], [ -73.927865744245395, 40.725834940749898 ], [ -73.927860378120997, 40.725762860674898 ], [ -73.927804295888194, 40.725018528715303 ], [ -73.9277979252401, 40.724933930231003 ], [ -73.927204183566303, 40.723661208474901 ], [ -73.925616128372198, 40.7200699228529 ], [ -73.924819412400097, 40.720273398183501 ], [ -73.924816794540007, 40.720233819251398 ], [ -73.924710339469399, 40.720007136226201 ], [ -73.924712407329594, 40.719999456135099 ], [ -73.924746454003994, 40.719993507902103 ], [ -73.924677646586801, 40.719893956622201 ], [ -73.924610279340598, 40.719797953457203 ], [ -73.924535748457899, 40.719674418373103 ], [ -73.924521416979502, 40.719620991014999 ], [ -73.924521608793995, 40.719576631356198 ], [ -73.924522253306904, 40.719561827090999 ], [ -73.924539972675802, 40.719350840741697 ], [ -73.924554981586297, 40.719287391718296 ], [ -73.924580903709, 40.719170783835203 ], [ -73.924630964824701, 40.718995234837898 ], [ -73.924691471399996, 40.7187305959661 ], [ -73.924703700901901, 40.718696564503801 ], [ -73.924773255381794, 40.7185728712318 ], [ -73.924816979627494, 40.718495096265698 ], [ -73.924865557958697, 40.718448705762398 ], [ -73.924933236677106, 40.718414089089201 ], [ -73.924993467171305, 40.718393048094804 ], [ -73.9250881981432, 40.718392479534401 ], [ -73.926159325603706, 40.718107727870098 ], [ -73.926385089340897, 40.718093067752299 ], [ -73.928380724956398, 40.717586627347103 ], [ -73.928392962285898, 40.717587013737202 ], [ -73.928405174705304, 40.717588453017498 ], [ -73.928422698145994, 40.717592470654999 ], [ -73.928425621165005, 40.717593562737498 ], [ -73.928428305565006, 40.717595014184496 ], [ -73.928430801536507, 40.717596834408603 ], [ -73.928433142497994, 40.717599068997899 ], [ -73.928437113619594, 40.717604214041003 ], [ -73.928447037825904, 40.717620122871899 ], [ -73.928450962598603, 40.717624348330197 ], [ -73.928453079789605, 40.717626033291701 ], [ -73.928455314174698, 40.717627458156599 ], [ -73.928463369606206, 40.717631380444601 ], [ -73.928472254822594, 40.717634546863401 ], [ -73.9284820642429, 40.7176369924846 ], [ -73.928492961858595, 40.717638755941003 ], [ -73.928514962384796, 40.717640354407997 ], [ -73.928575676220802, 40.717641391722204 ], [ -73.928593131906595, 40.717643320565799 ], [ -73.928608099670001, 40.7176465982987 ], [ -73.928638624642304, 40.717656217354303 ], [ -73.928669170883495, 40.7176675731667 ], [ -73.928699692185205, 40.717680640745797 ], [ -73.928730093452799, 40.717695401102297 ], [ -73.928736810528207, 40.717699447685199 ], [ -73.928743503826098, 40.717704728926599 ], [ -73.928769881897296, 40.717730302321797 ], [ -73.928777509697696, 40.7177355303632 ], [ -73.928781413487798, 40.717737576439198 ], [ -73.928785412339806, 40.717739262558503 ], [ -73.928791054654099, 40.717741112195299 ], [ -73.928797042861504, 40.7177425574681 ], [ -73.928809977255298, 40.717744231019502 ], [ -73.928823953754403, 40.717744257753601 ], [ -73.928838561074201, 40.717742627531997 ], [ -73.928853453062899, 40.717739367782301 ], [ -73.928867849710301, 40.717734604672998 ], [ -73.928881075910397, 40.717728578690902 ], [ -73.928892505173394, 40.717721571229802 ], [ -73.9289699311948, 40.717655800200802 ], [ -73.928983635800705, 40.717644831284503 ], [ -73.929075617739699, 40.717579592850598 ], [ -73.9290948909143, 40.717564421252298 ], [ -73.929111463601799, 40.717549861136597 ], [ -73.929125751883703, 40.717535552745503 ], [ -73.929137910281895, 40.7175213313283 ], [ -73.929139984724401, 40.7175182980221 ], [ -73.929141633159603, 40.717515021874497 ], [ -73.9291437362739, 40.7175075930137 ], [ -73.929144395620796, 40.717498976001004 ], [ -73.929143878748306, 40.717472779661897 ], [ -73.929145402859007, 40.717464873998097 ], [ -73.929146732025004, 40.717461399469599 ], [ -73.929148439630396, 40.717458175961802 ], [ -73.929158431132393, 40.717444674579902 ], [ -73.929171321913202, 40.7174318151013 ], [ -73.9291868146193, 40.717419910114799 ], [ -73.929204366308397, 40.717409357999699 ], [ -73.929569993355599, 40.717229796010599 ], [ -73.929607212664294, 40.7171984444931 ], [ -73.929640825037595, 40.717164758783902 ], [ -73.929650185783004, 40.717154202097298 ], [ -73.929668661530897, 40.717130808864802 ], [ -73.929684380521294, 40.717106702961203 ], [ -73.9296971528629, 40.7170821890032 ], [ -73.929706823487507, 40.7170575392961 ], [ -73.929709047156393, 40.717048463708203 ], [ -73.929709908636895, 40.717038927259701 ], [ -73.929709410426597, 40.717029067324098 ], [ -73.929707551678504, 40.717019061479498 ], [ -73.929699902456704, 40.716999290136101 ], [ -73.9296942797138, 40.716989984768396 ], [ -73.929687601414798, 40.716981335126398 ], [ -73.929508572837904, 40.716599040699897 ], [ -73.929503773518206, 40.716593778252303 ], [ -73.929499885921501, 40.716587913600698 ], [ -73.929497039703605, 40.7165816806923 ], [ -73.929495330193106, 40.716575294187599 ], [ -73.929494896246595, 40.716571529758397 ], [ -73.929496073989995, 40.716544029085398 ], [ -73.929497822179201, 40.716535079525201 ], [ -73.929498739096701, 40.716530397540403 ], [ -73.929503118236397, 40.716508049611598 ], [ -73.929321421814905, 40.716120268569298 ], [ -73.929317150513697, 40.716086360999903 ], [ -73.929317943804705, 40.7160520975293 ], [ -73.929323303926296, 40.716020330166302 ], [ -73.929333200497496, 40.7159848206893 ], [ -73.929346258363907, 40.715947177684903 ], [ -73.929362740840702, 40.715906575238201 ], [ -73.929383926251603, 40.7158598877431 ], [ -73.929401953101802, 40.715824778442197 ], [ -73.929421242339799, 40.715793263366002 ], [ -73.929442102302104, 40.7157648382791 ], [ -73.929464674990896, 40.715739304413198 ], [ -73.929474993394294, 40.715729712275902 ], [ -73.929486743416405, 40.715720687088201 ], [ -73.929499769509306, 40.715712328935403 ], [ -73.929513896501604, 40.715704764863098 ], [ -73.929528898384504, 40.715698100944401 ], [ -73.9295445630069, 40.715692455825902 ], [ -73.929560628060599, 40.715687908754603 ], [ -73.929576857444204, 40.715684532795201 ], [ -73.930301048700997, 40.715516135948 ], [ -73.931494470904696, 40.7152167400561 ], [ -73.931514409129903, 40.715220164108203 ], [ -73.931534679870694, 40.715222247971099 ], [ -73.931537390215695, 40.715222420292797 ], [ -73.931560349133207, 40.715223109747299 ], [ -73.931585806108401, 40.715222512231499 ], [ -73.9316606920232, 40.715216811871997 ], [ -73.931706770246294, 40.715211427087503 ], [ -73.931751514419503, 40.715202844408601 ], [ -73.931794097181097, 40.715191234559299 ], [ -73.931833853196494, 40.715176787793702 ], [ -73.931906254883003, 40.715145843338703 ], [ -73.931989574121403, 40.715108395859097 ], [ -73.932046041485705, 40.715082431358503 ], [ -73.932081895510905, 40.715064756974201 ], [ -73.932106206112095, 40.715050858698902 ], [ -73.932131420132393, 40.715033863209399 ], [ -73.932157157656704, 40.715014318596999 ], [ -73.932198956470202, 40.7149803669029 ], [ -73.932207498082093, 40.714972240340003 ], [ -73.932215057834199, 40.714963366028002 ], [ -73.932226723133297, 40.714944056865299 ], [ -73.932231802189904, 40.714929804647802 ], [ -73.932235574177696, 40.714910275230402 ], [ -73.932236115465102, 40.714901720615302 ], [ -73.932236788520001, 40.714891112531802 ], [ -73.932235399706798, 40.714872687765002 ], [ -73.932231440097695, 40.714855224932798 ], [ -73.932216618064203, 40.714813872888598 ], [ -73.932198409381797, 40.714774708760999 ], [ -73.932175104197597, 40.714730398883802 ], [ -73.932158078349303, 40.714703093845102 ], [ -73.932155040574102, 40.714699301589 ], [ -73.932151410986506, 40.714695724088699 ], [ -73.932142706505104, 40.7146895504467 ], [ -73.932138294181996, 40.714687305832001 ], [ -73.931754996673504, 40.714749934888602 ], [ -73.931591908343094, 40.714407751802803 ], [ -73.931558044842205, 40.714401643744601 ], [ -73.931543463016695, 40.714367866320103 ], [ -73.931427465733506, 40.714390602404499 ], [ -73.931368893178202, 40.7142607506524 ], [ -73.931314503346499, 40.714152284176997 ], [ -73.931437454923199, 40.714134441791302 ], [ -73.93124209522, 40.713733070086299 ], [ -73.931454442005702, 40.713447104104297 ], [ -73.931557467417903, 40.713407731881503 ], [ -73.931592867338296, 40.7133930750405 ], [ -73.931646698648194, 40.713351052870699 ], [ -73.931973266106993, 40.7132615199938 ], [ -73.932453056543494, 40.713129975977701 ], [ -73.932551842311796, 40.713103630294398 ], [ -73.932579079815994, 40.713097370686 ], [ -73.932597061215205, 40.713091959705103 ], [ -73.932611944379701, 40.713085547273998 ], [ -73.932618184831995, 40.713081931170002 ], [ -73.932623691127105, 40.713078008899103 ], [ -73.932633024846993, 40.7130696301355 ], [ -73.932640477456999, 40.713060845190199 ], [ -73.932645800523105, 40.713051960827599 ], [ -73.932647639621905, 40.713047531316001 ], [ -73.932648897892705, 40.713043137650402 ], [ -73.932649660011506, 40.7130393020621 ], [ -73.932650598763502, 40.713024074068301 ], [ -73.932648364594598, 40.713008989799299 ], [ -73.932034054554805, 40.711598481829697 ], [ -73.933386271314305, 40.711241986383897 ], [ -73.933284918316403, 40.7109869655471 ], [ -73.931902443900995, 40.711346730138899 ], [ -73.931665413192803, 40.710818502098 ], [ -73.931512350420803, 40.710478066948198 ], [ -73.931267151436103, 40.7099327020087 ], [ -73.931031211995204, 40.709366770560301 ], [ -73.9309336997282, 40.709173569572698 ], [ -73.930796326014004, 40.709122959884503 ], [ -73.930793227907699, 40.7091211931237 ], [ -73.930788875930304, 40.7091182634733 ], [ -73.930788367152701, 40.709117848705297 ], [ -73.930784950673697, 40.709115055816703 ], [ -73.930781451268103, 40.7091115595993 ], [ -73.930778355294606, 40.709107739794398 ], [ -73.930773417526296, 40.7090992713443 ], [ -73.930769996301294, 40.709089390882198 ], [ -73.930767424858104, 40.709068911824502 ], [ -73.930768260705605, 40.709027425741098 ], [ -73.930767450425904, 40.709010801871699 ], [ -73.930764129519204, 40.708994635349001 ], [ -73.930761415732206, 40.708987636778602 ], [ -73.930757955230803, 40.708981241024198 ], [ -73.930740455744996, 40.7089555752245 ], [ -73.930720246134896, 40.708929997753202 ], [ -73.930697362002505, 40.708904571285402 ], [ -73.930671863413394, 40.708879332711597 ], [ -73.930643227880594, 40.708855199931499 ], [ -73.930573557176601, 40.7088031265192 ], [ -73.930544390452795, 40.708777129151898 ], [ -73.930529368053996, 40.708759442121099 ], [ -73.930527146950496, 40.7087558665893 ], [ -73.930517282722306, 40.708740020609902 ], [ -73.930508547251307, 40.708719483378502 ], [ -73.930503455885301, 40.708698552647299 ], [ -73.930502424915503, 40.708689483278299 ], [ -73.930362369699196, 40.708725996283398 ], [ -73.930374903609902, 40.708747561759601 ], [ -73.930378634046704, 40.708755776866099 ], [ -73.930383273337597, 40.708766026971801 ], [ -73.930387055383804, 40.708782797049999 ], [ -73.930387164818796, 40.708790577411499 ], [ -73.930386093059994, 40.708798023847201 ], [ -73.930381641403201, 40.7088111060296 ], [ -73.930374302101399, 40.708824131516401 ], [ -73.930364278304395, 40.708836723326399 ], [ -73.9303519590826, 40.708848396033098 ], [ -73.930290222160096, 40.7088939870251 ], [ -73.930267704968301, 40.708913181881201 ], [ -73.930266521319098, 40.708914352011298 ], [ -73.930257942371995, 40.708924801680098 ], [ -73.930251812508402, 40.708936171718399 ], [ -73.930378138137897, 40.709230598382 ], [ -73.930682418503594, 40.709929211442599 ], [ -73.930999780572904, 40.710626483717199 ], [ -73.931159794093006, 40.711009307215299 ], [ -73.931547562078606, 40.711863610575499 ], [ -73.930890243533597, 40.7120642657449 ], [ -73.930861086142002, 40.712073200046298 ], [ -73.930837134659797, 40.712083190375502 ], [ -73.930817797485005, 40.712094479964797 ], [ -73.930809838893495, 40.712100643193303 ], [ -73.930803014651104, 40.712107149695797 ], [ -73.930789233718698, 40.7121247381193 ], [ -73.930784289421297, 40.712133578230301 ], [ -73.9307807902983, 40.712142166076497 ], [ -73.930778793557195, 40.7121503234439 ], [ -73.930778299867995, 40.712158041453797 ], [ -73.930779309720904, 40.712165272864098 ], [ -73.930780371753201, 40.712168686866498 ], [ -73.930781799613001, 40.712171965559499 ], [ -73.930791628528496, 40.712189081175097 ], [ -73.930802229835706, 40.712202955270399 ], [ -73.930814004831902, 40.712214064868398 ], [ -73.930820367387597, 40.712218608005202 ], [ -73.930827061749, 40.712222493127101 ], [ -73.930835117129604, 40.712226181384501 ], [ -73.930848249852801, 40.712229665292803 ], [ -73.930856712065406, 40.712228922702302 ], [ -73.930865518860998, 40.712226451606298 ], [ -73.931611751990502, 40.712046281538299 ], [ -73.931821845507997, 40.7124872425481 ], [ -73.931834774595899, 40.712515786929899 ], [ -73.9318426479566, 40.712536521723997 ], [ -73.931847775929597, 40.712555507585101 ], [ -73.931850113524206, 40.712573033136202 ], [ -73.931849373481199, 40.712601750017598 ], [ -73.931843919685804, 40.712635496955897 ], [ -73.931835582211903, 40.712663633548502 ], [ -73.931823297614798, 40.712687724202503 ], [ -73.931817763447299, 40.712695419965598 ], [ -73.9318111281098, 40.712703033825598 ], [ -73.931794284377602, 40.712718296786001 ], [ -73.931773688980201, 40.712733215598 ], [ -73.931735793241998, 40.7127575512311 ], [ -73.930669310865298, 40.713029525977298 ], [ -73.930572567472694, 40.713059356007598 ], [ -73.930547852125997, 40.713064005555403 ], [ -73.930528556430204, 40.713069820503598 ], [ -73.930520493722796, 40.713073290986401 ], [ -73.930513483881398, 40.713077141552901 ], [ -73.930507503102703, 40.713081396647702 ], [ -73.930502562181601, 40.713086049911801 ], [ -73.930492928740605, 40.713098678315298 ], [ -73.930475039564897, 40.7131282219637 ], [ -73.930465606759796, 40.7131399314327 ], [ -73.930437462832899, 40.713164345568899 ], [ -73.930432012477297, 40.713169808180197 ], [ -73.930427735387994, 40.713175047014097 ], [ -73.930425910169106, 40.713177846125497 ], [ -73.930424367460503, 40.713180817793003 ], [ -73.930424063320899, 40.713199890395103 ], [ -73.930773089961207, 40.7139377273432 ], [ -73.930952160488502, 40.714372078815401 ], [ -73.931053743634905, 40.714618483807698 ], [ -73.930853325911997, 40.714911245038898 ], [ -73.9299180795702, 40.715158076526599 ], [ -73.929904223294002, 40.715133222999697 ], [ -73.929315546959799, 40.715288093760698 ], [ -73.929273094759907, 40.7153224765608 ], [ -73.9292550897609, 40.7153370621253 ], [ -73.928440241982699, 40.715539209229298 ], [ -73.928903852588803, 40.716581072159499 ], [ -73.928907413912896, 40.716604614577903 ], [ -73.928907436702303, 40.716627217162603 ], [ -73.928903934490094, 40.716648367792203 ], [ -73.928896943028107, 40.716667778844602 ], [ -73.928885842594894, 40.7166886815316 ], [ -73.928872150994493, 40.716709708932001 ], [ -73.9288558911514, 40.716730834087201 ], [ -73.928837085761003, 40.716752038414697 ], [ -73.928792004925398, 40.716796198457899 ], [ -73.928769474293304, 40.716815590508702 ], [ -73.928746743891296, 40.716833388245 ], [ -73.928712537208597, 40.716858005762397 ], [ -73.928678711955698, 40.716880668633799 ], [ -73.928645078208604, 40.716901503559797 ], [ -73.928611515887496, 40.716920591213999 ], [ -73.928577235048905, 40.716938093607503 ], [ -73.928490533142906, 40.716979301845903 ], [ -73.928437647939901, 40.717007094208597 ], [ -73.928323843313294, 40.717070716158403 ], [ -73.928272874947595, 40.7170979887972 ], [ -73.9282540587689, 40.717106855834203 ], [ -73.928233954314706, 40.717114714223001 ], [ -73.928212773905202, 40.7171214997649 ], [ -73.928190695742202, 40.717127140198798 ], [ -73.928167943352406, 40.717131592776703 ], [ -73.928144790054901, 40.717134784794602 ], [ -73.928121484892799, 40.717136696472103 ], [ -73.928098311270801, 40.717137294648097 ], [ -73.925953062610205, 40.7176993307339 ], [ -73.925942334254202, 40.717682412323299 ], [ -73.925147483520803, 40.7178638726012 ], [ -73.924998829679097, 40.717897815323603 ], [ -73.924976159941707, 40.717902159772102 ], [ -73.924956319399698, 40.717906406214198 ], [ -73.9249439472852, 40.717909144586102 ], [ -73.924927633668105, 40.7179131143901 ], [ -73.924903816532705, 40.717917682562302 ], [ -73.924890535322703, 40.717919807689398 ], [ -73.924864419953195, 40.717924760838798 ], [ -73.924838731859396, 40.717930183671697 ], [ -73.924823566270206, 40.717933352761499 ], [ -73.924796041991897, 40.717940034188501 ], [ -73.924773158598398, 40.717945206878198 ], [ -73.924752194638501, 40.717948704208297 ], [ -73.924730484143296, 40.717952310944099 ], [ -73.924713698561803, 40.717954416169398 ], [ -73.924695043806906, 40.717956385142998 ], [ -73.924677337118297, 40.717958182851199 ], [ -73.924661463518703, 40.717959703493896 ], [ -73.924646561407897, 40.717961369178497 ], [ -73.924626973161594, 40.717962103526602 ], [ -73.924604817515402, 40.717961566335902 ], [ -73.924588357616798, 40.717958962908902 ], [ -73.924585493820402, 40.717958501004098 ], [ -73.924569664113605, 40.717953142169002 ], [ -73.924554332455202, 40.717947394995598 ], [ -73.924539439446605, 40.717940632056802 ], [ -73.924522239353706, 40.717932741654899 ], [ -73.924508979735904, 40.717925898029797 ], [ -73.924494088095003, 40.717917936095603 ], [ -73.924479233172207, 40.717909245776397 ], [ -73.924462035825599, 40.717899139823501 ], [ -73.924452052290803, 40.7178936398969 ], [ -73.924430669409304, 40.717880559097203 ], [ -73.924410198005404, 40.717867155062301 ], [ -73.924391628244805, 40.7178565168023 ], [ -73.924370692700705, 40.717844680340299 ], [ -73.924352123576298, 40.717833492585903 ], [ -73.924334454171998, 40.717822250973597 ], [ -73.924314490519606, 40.717810415140001 ], [ -73.924294478722302, 40.717798326138002 ], [ -73.924277281357107, 40.717788867816502 ], [ -73.924261491907401, 40.717779141035301 ], [ -73.924247074844203, 40.717769990944902 ], [ -73.924234999557797, 40.7177628240701 ], [ -73.924223384930002, 40.7177560082987 ], [ -73.924207134968697, 40.717745236508797 ], [ -73.924192246168403, 40.717735231378597 ], [ -73.924182264293094, 40.717728507310099 ], [ -73.924167411256306, 40.717718232146701 ], [ -73.924152048613195, 40.717708253000801 ], [ -73.924136733804801, 40.7176978419999 ], [ -73.924121417684702, 40.717687620301497 ], [ -73.924104223520501, 40.717675397426397 ], [ -73.9240856587639, 40.7176604553526 ], [ -73.924067886923694, 40.7176468273776 ], [ -73.924049688630305, 40.717632597026601 ], [ -73.924031846085299, 40.7176176537453 ], [ -73.924015991608997, 40.717603037278103 ], [ -73.924002654265394, 40.717591664619299 ], [ -73.923990547084301, 40.717580274175603 ], [ -73.923978702500904, 40.717568181128399 ], [ -73.923967060336196, 40.717554675291403 ], [ -73.923955925768098, 40.717541870721199 ], [ -73.923941797209594, 40.717529074056202 ], [ -73.923932751095805, 40.717522396151303 ], [ -73.923905101318894, 40.717503880893901 ], [ -73.923895593145005, 40.717497319614502 ], [ -73.923874683977104, 40.717482806835903 ], [ -73.923853314261905, 40.717469015622498 ], [ -73.923833812138795, 40.717456737571503 ], [ -73.923816143831601, 40.717444892614999 ], [ -73.923807994087397, 40.717439755033702 ], [ -73.9237966413165, 40.717431814113603 ], [ -73.923783846006501, 40.717422853841001 ], [ -73.923771559558801, 40.717414254589499 ], [ -73.923750177147298, 40.717400436544096 ], [ -73.923729741823394, 40.717386536698797 ], [ -73.923711137448294, 40.717375573805597 ], [ -73.923688820411598, 40.717361366969399 ], [ -73.923675126267497, 40.717352298536603 ], [ -73.923661430837299, 40.717343779589697 ], [ -73.923641315028505, 40.717328917665597 ], [ -73.923628416552603, 40.717316833264498 ], [ -73.923616417344704, 40.717305082669697 ], [ -73.923602974819602, 40.7172929979047 ], [ -73.923589284727996, 40.717279840801297 ], [ -73.923577464826806, 40.7172666861103 ], [ -73.923567490897398, 40.717253532141001 ], [ -73.9235601771897, 40.717243036244597 ], [ -73.923550925356594, 40.717228811083302 ], [ -73.923536766031404, 40.717212826644499 ], [ -73.923528693243796, 40.717203410623199 ], [ -73.9235204440416, 40.7171932747884 ], [ -73.923511946382206, 40.717182074824102 ], [ -73.923497541745803, 40.717162875542499 ], [ -73.923486407798606, 40.717150432784798 ], [ -73.923476242286, 40.717139060999401 ], [ -73.9234642093015, 40.717125905652402 ], [ -73.923453760862401, 40.717114156071098 ], [ -73.923441442761103, 40.717101189334898 ], [ -73.923430342325801, 40.717090258859798 ], [ -73.923420036669, 40.7170772758694 ], [ -73.923412121551493, 40.717065185376597 ], [ -73.923406643965095, 40.717052754582497 ], [ -73.9234027282927, 40.7170403429201 ], [ -73.923394416649003, 40.717023650866601 ], [ -73.923386820100802, 40.717011209782498 ], [ -73.923379763975802, 40.717002506416698 ], [ -73.923371944807997, 40.716989705167997 ], [ -73.923366686138905, 40.716982785987099 ], [ -73.923354979141806, 40.716974159601797 ], [ -73.923232993375507, 40.716707699222297 ], [ -73.923169183058903, 40.7164871749073 ], [ -73.923135879418993, 40.716487728970399 ], [ -73.923118603873405, 40.716484448481502 ], [ -73.9231129182253, 40.716477447752901 ], [ -73.923105033433501, 40.716459792514598 ], [ -73.923077221285695, 40.716397494775798 ], [ -73.923056422304697, 40.716350924794398 ], [ -73.923261820210598, 40.716257994110997 ], [ -73.923313871397795, 40.716237109866498 ], [ -73.923336196041703, 40.7162335862295 ], [ -73.923367698085997, 40.716225565571897 ], [ -73.923387219728099, 40.716221048634601 ], [ -73.923406333123907, 40.716200664439199 ], [ -73.923433115031003, 40.716180781053097 ], [ -73.923472862990906, 40.716154926571903 ], [ -73.9236128738807, 40.716111768105897 ], [ -73.923591432345304, 40.716036408615601 ], [ -73.9243147221502, 40.715855316436603 ], [ -73.924595505415994, 40.715542635644198 ], [ -73.924834298257096, 40.7152911717724 ], [ -73.924886957758702, 40.715275447378701 ], [ -73.924853732028097, 40.715206860412202 ], [ -73.924788874011, 40.715083853238099 ], [ -73.924767715474502, 40.715040309196098 ], [ -73.9247627104494, 40.715027734363701 ], [ -73.924763994689002, 40.7150123359528 ], [ -73.924766356028101, 40.714996912446701 ], [ -73.924762973118902, 40.714984231121797 ], [ -73.924731238903206, 40.714946226142402 ], [ -73.924691515980697, 40.714889216690302 ], [ -73.924661553370299, 40.714875140062901 ], [ -73.924616437628103, 40.714835343303598 ], [ -73.924557109986296, 40.714761913369898 ], [ -73.924527239231594, 40.714698677472597 ], [ -73.924513684137494, 40.714629031793201 ], [ -73.924483639856106, 40.714531711895098 ], [ -73.924432954223505, 40.714373035741502 ], [ -73.924420532148105, 40.714357872087497 ], [ -73.924415953653394, 40.714356798081397 ], [ -73.924410531120799, 40.714358172430998 ], [ -73.924391702973693, 40.714357438695899 ], [ -73.924368610788207, 40.714339089035498 ], [ -73.924348933632203, 40.7143153125662 ], [ -73.924339218514504, 40.714261968257603 ], [ -73.924338413520303, 40.714209846887698 ], [ -73.924337797074799, 40.714148341279902 ], [ -73.924337320008803, 40.714130852987402 ], [ -73.924060519718196, 40.714119819676 ], [ -73.924041535676196, 40.714016572137901 ], [ -73.9231407848429, 40.7134029880133 ], [ -73.922236086464295, 40.712864213709103 ], [ -73.921820225218596, 40.7117903265978 ], [ -73.921547438314803, 40.711051542549797 ], [ -73.921222155841207, 40.7107988180353 ], [ -73.921121622288197, 40.710743666784602 ], [ -73.920749952229897, 40.7105419079016 ], [ -73.9218932683563, 40.709404355390703 ], [ -73.922338390348301, 40.709014519003901 ], [ -73.922863610272401, 40.7085537565072 ], [ -73.923063862947203, 40.708377227603499 ], [ -73.923852905648999, 40.707684556337497 ], [ -73.924170472076796, 40.707402707834902 ], [ -73.924908489295703, 40.706752652582402 ], [ -73.925139044442702, 40.7065471627863 ], [ -73.9259632618475, 40.705818041008499 ], [ -73.926090723419406, 40.705687958966699 ], [ -73.926649507122605, 40.705537482257299 ], [ -73.928109724705905, 40.7049612549486 ], [ -73.928739154590005, 40.704725208286902 ], [ -73.929801365938999, 40.704312787399601 ], [ -73.930238312937604, 40.704139389448301 ], [ -73.931156763239599, 40.7037805921236 ], [ -73.931730141336701, 40.703554248312798 ], [ -73.932699273703406, 40.703178648303997 ], [ -73.933524050694601, 40.702857239364903 ], [ -73.933952354550499, 40.702682850140803 ], [ -73.935337954224096, 40.702323082659603 ], [ -73.936982165698495, 40.701918534343697 ], [ -73.9372920603506, 40.701836700995699 ], [ -73.937380404494505, 40.701813387746697 ], [ -73.937530386213297, 40.701773810174402 ], [ -73.937656359489097, 40.701740569024501 ], [ -73.938117350861802, 40.7016189249359 ], [ -73.938272821439199, 40.701577898895302 ], [ -73.938366622260006, 40.701553146410298 ], [ -73.938870067586194, 40.701435929505202 ], [ -73.939511508580694, 40.701288037720197 ], [ -73.939826384002004, 40.701217055093302 ], [ -73.940018546576098, 40.701174404604501 ], [ -73.940207065784406, 40.701132562064103 ], [ -73.940422005544093, 40.701084854695701 ], [ -73.941932216085704, 40.700733490974798 ], [ -73.943724956053103, 40.700514091903699 ], [ -73.944389313996993, 40.700432779916703 ] ] ] } }
]
}
