{
"type": "FeatureCollection",
"name": "brighton_beach",
"crs": { "type": "name", "properties": { "name": "urn:ogc:def:crs:OGC:1.3:CRS84" } },
"features": [
{ "type": "Feature", "properties": { "OBJECTID": 45, "BoroCode": 3, "BoroName": "Brooklyn", "CountyFIPS": "047", "NTA2020": "BK1303", "NTAName": "Brighton Beach", "NTAAbbrev": "BrghtnBch", "NTAType": 0, "CDTA2020": "BK13", "CDTAName": "BK13 Coney Island-Brighton Beach (CD 13 Approximation)", "Shape__Area": 13564293.511137962, "Shape__Length": 16805.896345610159 }, "geometry": { "type": "Polygon", "coordinates": [ [ [ -73.952399253765506, 40.5742552803179 ], [ -73.952579176691899, 40.5742123545675 ], [ -73.952786337966501, 40.5742090489234 ], [ -73.952968033142, 40.574250010053802 ], [ -73.953126392336202, 40.574291133765797 ], [ -73.953284341378904, 40.574300120894897 ], [ -73.953405506856299, 40.574302425886302 ], [ -73.9535280241777, 40.574304754750898 ], [ -73.953744003016197, 40.574305463280098 ], [ -73.953781104187598, 40.574295874745403 ], [ -73.953851937202799, 40.574279708301198 ], [ -73.953936328888204, 40.5742511396734 ], [ -73.953995657562103, 40.574274548065098 ], [ -73.954012786490395, 40.5742458535846 ], [ -73.954033421491403, 40.574094528167102 ], [ -73.954084757387307, 40.574081503165502 ], [ -73.9541086910518, 40.574110213564502 ], [ -73.9541017194951, 40.574295464172501 ], [ -73.954135031594504, 40.574341498526799 ], [ -73.954399361864802, 40.574379076936999 ], [ -73.955112568135107, 40.574379357810002 ], [ -73.955138476352204, 40.574379367929801 ], [ -73.955696264502606, 40.574335227239096 ], [ -73.956209590170801, 40.574273701621102 ], [ -73.956346491076104, 40.574215452919198 ], [ -73.956370465342502, 40.574181543481501 ], [ -73.956297036257894, 40.573843215512497 ], [ -73.956312538757302, 40.573808405239198 ], [ -73.956346758781095, 40.573805809643503 ], [ -73.956391224659498, 40.573831918596198 ], [ -73.956473118771797, 40.574147718657102 ], [ -73.956568933387899, 40.5741790094077 ], [ -73.957201959513895, 40.574194902276702 ], [ -73.957945563362102, 40.5741530435239 ], [ -73.958436188511598, 40.574097045879803 ], [ -73.958652896379107, 40.574059754589797 ], [ -73.958885616874795, 40.573999826829898 ], [ -73.958967766610201, 40.573955499555503 ], [ -73.958976858972406, 40.573912783257498 ], [ -73.958944109664898, 40.573475398340797 ], [ -73.958988614784204, 40.573438885914101 ], [ -73.959027502809704, 40.573460225805903 ], [ -73.959073905386305, 40.573853778763599 ], [ -73.959097847064996, 40.573872051199402 ], [ -73.959393247690798, 40.573920340517702 ], [ -73.959419208186503, 40.575186214152602 ], [ -73.961034853509304, 40.575084555298403 ], [ -73.962862606378494, 40.574988371613202 ], [ -73.964745386043404, 40.574822621487101 ], [ -73.965247760679603, 40.574805159536197 ], [ -73.965750644166704, 40.5748024278152 ], [ -73.966253294292599, 40.574814430170598 ], [ -73.966754968698396, 40.5748411490829 ], [ -73.967568500804404, 40.574889757619701 ], [ -73.967658863163606, 40.575051913189803 ], [ -73.967804964131204, 40.575028684868599 ], [ -73.967956761716295, 40.575020784393701 ], [ -73.968110005100996, 40.575029130132499 ], [ -73.968260216296699, 40.5750537201721 ], [ -73.968403087812007, 40.575093598756197 ], [ -73.968534886833694, 40.575146991086399 ], [ -73.9688339282649, 40.575249732204703 ], [ -73.968891387115605, 40.575269469693197 ], [ -73.968834781974493, 40.575344089445998 ], [ -73.968803299515699, 40.5753855943939 ], [ -73.968733161294693, 40.575509641024397 ], [ -73.968682623724106, 40.575639114044399 ], [ -73.968667569575999, 40.575705199347901 ], [ -73.968652516935606, 40.575771285654703 ], [ -73.968547782487093, 40.576250902871003 ], [ -73.968533770162793, 40.576313262581301 ], [ -73.968526183302501, 40.576348611919698 ], [ -73.968349903496801, 40.577120601137302 ], [ -73.9680460615849, 40.5784480711444 ], [ -73.967927334865195, 40.578964274077101 ], [ -73.967743407672103, 40.579763827195897 ], [ -73.967616985074201, 40.580313395105797 ], [ -73.967600105762401, 40.580386702426402 ], [ -73.967588565584194, 40.580437290900598 ], [ -73.967335468376305, 40.581525754279703 ], [ -73.967090988745099, 40.582604026467799 ], [ -73.967074203730107, 40.5826780450532 ], [ -73.967012588099095, 40.5829558563874 ], [ -73.966938049556703, 40.583285987431701 ], [ -73.966921179695703, 40.583360705401098 ], [ -73.966815182727203, 40.583765947159598 ], [ -73.966778211920598, 40.583923222496402 ], [ -73.966762717508303, 40.583992624624301 ], [ -73.966748069818905, 40.584063584515803 ], [ -73.966710091075797, 40.584247534576399 ], [ -73.966616744201005, 40.584579079064603 ], [ -73.966515586288196, 40.584582921403602 ], [ -73.966366185056799, 40.584587290327399 ], [ -73.963444429751306, 40.584672678629801 ], [ -73.962552612521193, 40.584791629515102 ], [ -73.962327333760598, 40.584808276653597 ], [ -73.961619862771201, 40.584890947645697 ], [ -73.960442211956106, 40.585020430638899 ], [ -73.9603086940418, 40.585035108254601 ], [ -73.960259684527003, 40.585037540762698 ], [ -73.960244579452905, 40.5848353139477 ], [ -73.960240859762806, 40.584800107858698 ], [ -73.960236041843501, 40.584754516575103 ], [ -73.960232669799794, 40.584684237481497 ], [ -73.960228965567893, 40.584617192763297 ], [ -73.960219347894196, 40.584522895659603 ], [ -73.960198157612396, 40.5842332639331 ], [ -73.960150667335, 40.583584130181201 ], [ -73.960106521220695, 40.583416589767303 ], [ -73.960049412663295, 40.583278104989297 ], [ -73.959836455373093, 40.583198778426599 ], [ -73.959111014405806, 40.582864908249597 ], [ -73.959009068130499, 40.582860384146301 ], [ -73.957456890939298, 40.583021021127301 ], [ -73.957337508346697, 40.583033367509401 ], [ -73.957231105456998, 40.583153800062902 ], [ -73.957032767472199, 40.583043565561603 ], [ -73.956957385342506, 40.5829904956775 ], [ -73.956891898408102, 40.582942212087602 ], [ -73.956827260665804, 40.582894541267002 ], [ -73.956757607757496, 40.5828432026426 ], [ -73.9564587154008, 40.582667083645397 ], [ -73.956042892679207, 40.5827444869376 ], [ -73.955713025147602, 40.582812818336102 ], [ -73.955175839233306, 40.582924103903302 ], [ -73.954367150643293, 40.583089310384302 ], [ -73.954144302704194, 40.583114373364999 ], [ -73.954122745361204, 40.582991217536801 ], [ -73.954113184962196, 40.582928150770201 ], [ -73.9540731527742, 40.582710630598598 ], [ -73.954041129529699, 40.5825246238958 ], [ -73.953921431414201, 40.5818780260946 ], [ -73.953812043935898, 40.581756090402898 ], [ -73.953667558979205, 40.580974235426702 ], [ -73.953342962057107, 40.579275360040697 ], [ -73.9531010620139, 40.578002387912598 ], [ -73.953041132187593, 40.577687819341897 ], [ -73.953002655137396, 40.577484744560898 ], [ -73.952875934748505, 40.576890390940001 ], [ -73.952427707775598, 40.5745673390985 ], [ -73.952399253765506, 40.5742552803179 ] ] ] } }
]
}
