{
"type": "FeatureCollection",
"name": "bushwick",
"crs": { "type": "name", "properties": { "name": "urn:ogc:def:crs:OGC:1.3:CRS84" } },
"features": [
{ "type": "Feature", "properties": { "OBJECTID": 12, "BoroCode": 3, "BoroName": "Brooklyn", "CountyFIPS": "047", "NTA2020": "BK0401", "NTAName": "Bushwick (West)", "NTAAbbrev": "Bshwck_W", "NTAType": 0, "CDTA2020": "BK04", "CDTAName": "BK04 Bushwick (CD 4 Equivalent)", "Shape__Area": 23134298.584671021, "Shape__Length": 23685.232899618783 }, "geometry": { "type": "Polygon", "coordinates": [ [ [ -73.9018891764063, 40.691085975859799 ], [ -73.902505388824096, 40.690480720162903 ], [ -73.902912066764003, 40.690062454086302 ], [ -73.903298617097093, 40.689633273469703 ], [ -73.904181180085999, 40.688588338545202 ], [ -73.9048840039395, 40.687744061350301 ], [ -73.904991693814495, 40.687586306635303 ], [ -73.905082161493098, 40.687422404206202 ], [ -73.905340552793803, 40.686825490045798 ], [ -73.904970197707897, 40.6866083438793 ], [ -73.904495425951595, 40.686306855215399 ], [ -73.905756895318504, 40.684012672290599 ], [ -73.905307121787104, 40.683784645456399 ], [ -73.904637539854306, 40.683384299667999 ], [ -73.903904001466799, 40.682954576362903 ], [ -73.903153754226807, 40.6825281208489 ], [ -73.902811123460694, 40.682348833095901 ], [ -73.902834614013898, 40.682169702107402 ], [ -73.902854088945304, 40.681618072593203 ], [ -73.902859048885304, 40.6809466976786 ], [ -73.902624036929296, 40.680672757136698 ], [ -73.903527259282399, 40.679747496019502 ], [ -73.904047811923206, 40.679228851404098 ], [ -73.904570327344103, 40.679523790446098 ], [ -73.904790774777396, 40.679658710817002 ], [ -73.905415579764295, 40.680000896869302 ], [ -73.905494449139198, 40.680045411654604 ], [ -73.905549782615097, 40.680079856238997 ], [ -73.905660756432098, 40.680148945439598 ], [ -73.906284285895197, 40.680515009634099 ], [ -73.906720825967795, 40.680775676039801 ], [ -73.907019617729503, 40.680956533410601 ], [ -73.9077730030737, 40.681386100252197 ], [ -73.908517838562005, 40.681812197560802 ], [ -73.908861670417096, 40.682002290226002 ], [ -73.909056685893106, 40.682113828521501 ], [ -73.909276044514897, 40.682242577878803 ], [ -73.910026025909303, 40.682665624940398 ], [ -73.910770959795698, 40.6831009551817 ], [ -73.911513345336502, 40.6835132445554 ], [ -73.912274428901497, 40.683943219214697 ], [ -73.913038630746996, 40.684376063763601 ], [ -73.913308698227496, 40.684529112425601 ], [ -73.913798419002902, 40.684808126425203 ], [ -73.914541141774805, 40.685235172676997 ], [ -73.914702251419101, 40.685325199449402 ], [ -73.915291052982894, 40.6856537912481 ], [ -73.915501757435905, 40.685769778798701 ], [ -73.916047411380703, 40.6860803237807 ], [ -73.916631579729099, 40.6863999749038 ], [ -73.916799747204706, 40.686505454741699 ], [ -73.917553679298905, 40.686938477977698 ], [ -73.917682557857106, 40.6870123492372 ], [ -73.918047487723797, 40.6872215022346 ], [ -73.918294877213498, 40.687364922298897 ], [ -73.918784651997498, 40.687634342963101 ], [ -73.919062511407205, 40.687792623802601 ], [ -73.919811038170096, 40.6882194960098 ], [ -73.920551550458697, 40.688649177275302 ], [ -73.9209624584946, 40.688880307027702 ], [ -73.921215118764295, 40.689027731822698 ], [ -73.921307298040603, 40.689079898312599 ], [ -73.922072758195696, 40.6894980960708 ], [ -73.922808443421602, 40.689932180676202 ], [ -73.923171087061604, 40.690131661348801 ], [ -73.923645219139502, 40.690407092475098 ], [ -73.924293553693701, 40.690781612300697 ], [ -73.924393254085601, 40.690840004229102 ], [ -73.925350457520807, 40.6913751968616 ], [ -73.925562062685998, 40.691499095546199 ], [ -73.926317547047205, 40.691936709068003 ], [ -73.926451343112504, 40.692010023938302 ], [ -73.927072116613502, 40.692354479251897 ], [ -73.927508274862703, 40.692612067149597 ], [ -73.927783364737195, 40.692769433648103 ], [ -73.928043018389801, 40.692913865257303 ], [ -73.928508019225404, 40.693173982127803 ], [ -73.928644112373703, 40.693249267827099 ], [ -73.928829764311601, 40.693358354544699 ], [ -73.928830400876194, 40.693358729864798 ], [ -73.929703346960395, 40.693871652972803 ], [ -73.930512889188606, 40.694324778470197 ], [ -73.931146588267495, 40.694682230835802 ], [ -73.931213421673803, 40.694721025256698 ], [ -73.931473269011093, 40.694869157920003 ], [ -73.931775469221193, 40.6950364708634 ], [ -73.931930323681897, 40.695122913059599 ], [ -73.932367480632195, 40.695366632857699 ], [ -73.933120052074599, 40.6957994094656 ], [ -73.933829595953696, 40.6961925329799 ], [ -73.934135397443001, 40.696366687099001 ], [ -73.934489272878494, 40.696568524201403 ], [ -73.934581418426404, 40.696621080200202 ], [ -73.934608175794096, 40.696636341571001 ], [ -73.934690350635805, 40.6966832101253 ], [ -73.9347984215796, 40.696744848100899 ], [ -73.9352240685959, 40.696994800911902 ], [ -73.936008217384597, 40.697413652085601 ], [ -73.936389050891293, 40.697623557370001 ], [ -73.936761215039795, 40.697839444722597 ], [ -73.937392073310605, 40.698194051339698 ], [ -73.937774972135799, 40.698412949019698 ], [ -73.9381786114633, 40.698648479293396 ], [ -73.938569973899604, 40.6988563920806 ], [ -73.938902954278106, 40.699045226539603 ], [ -73.939691379220307, 40.699464048052803 ], [ -73.940421340576506, 40.699882031434797 ], [ -73.940464512103105, 40.699906145708702 ], [ -73.941150598467502, 40.700289383711002 ], [ -73.941932216085704, 40.700733490974798 ], [ -73.940422005544093, 40.701084854695701 ], [ -73.940207065784406, 40.701132562064103 ], [ -73.940018546576098, 40.701174404604501 ], [ -73.939826384002004, 40.701217055093302 ], [ -73.939511508580694, 40.701288037720197 ], [ -73.938870067586194, 40.701435929505202 ], [ -73.938366622260006, 40.701553146410298 ], [ -73.938272821439199, 40.701577898895302 ], [ -73.938117350861802, 40.7016189249359 ], [ -73.937656359489097, 40.701740569024501 ], [ -73.937530386213297, 40.701773810174402 ], [ -73.937380404494505, 40.701813387746697 ], [ -73.9372920603506, 40.701836700995699 ], [ -73.936982165698495, 40.701918534343697 ], [ -73.935337954224096, 40.702323082659603 ], [ -73.933952354550499, 40.702682850140803 ], [ -73.933524050694601, 40.702857239364903 ], [ -73.932699273703406, 40.703178648303997 ], [ -73.931730141336701, 40.703554248312798 ], [ -73.931156763239599, 40.7037805921236 ], [ -73.930238312937604, 40.704139389448301 ], [ -73.929801365938999, 40.704312787399601 ], [ -73.928739154590005, 40.704725208286902 ], [ -73.928109724705905, 40.7049612549486 ], [ -73.926649507122605, 40.705537482257299 ], [ -73.926090723419406, 40.705687958966699 ], [ -73.9259632618475, 40.705818041008499 ], [ -73.925139044442702, 40.7065471627863 ], [ -73.924908489295703, 40.706752652582402 ], [ -73.924170472076796, 40.707402707834902 ], [ -73.923852905648999, 40.707684556337497 ], [ -73.923063862947203, 40.708377227603499 ], [ -73.922863610272401, 40.7085537565072 ], [ -73.922338390348301, 40.709014519003901 ], [ -73.9218932683563, 40.709404355390703 ], [ -73.921436181596107, 40.709137024350198 ], [ -73.920702080134205, 40.708702888707997 ], [ -73.919960949329806, 40.708265547047397 ], [ -73.919566154054294, 40.708032237392203 ], [ -73.919223047111998, 40.707823392808699 ], [ -73.9188448453462, 40.707606256835398 ], [ -73.918478129484797, 40.707389821643801 ], [ -73.918104416472005, 40.707168227832099 ], [ -73.918083096731195, 40.707155588483403 ], [ -73.917738048946106, 40.706950997273601 ], [ -73.917366622970206, 40.706730727322302 ], [ -73.916996487646003, 40.706511222861998 ], [ -73.916650901289202, 40.706307646380999 ], [ -73.9166103432797, 40.706283752922801 ], [ -73.916253939674206, 40.706073801203601 ], [ -73.915898805533502, 40.705863075325198 ], [ -73.9155139241592, 40.705634702817299 ], [ -73.914772056650506, 40.705197695878702 ], [ -73.914032393936594, 40.704757371079097 ], [ -73.9132930426277, 40.704320896531001 ], [ -73.912550556467096, 40.703881677759597 ], [ -73.911808517812801, 40.703443210392301 ], [ -73.912905459285099, 40.702370149414101 ], [ -73.912163115842006, 40.701931422160399 ], [ -73.911423843451402, 40.701494846013802 ], [ -73.910680244647594, 40.7010542270013 ], [ -73.911808239479697, 40.699955139703398 ], [ -73.911070676703801, 40.699571754419402 ], [ -73.909534148809897, 40.698683362135597 ], [ -73.908775077525206, 40.698263483648198 ], [ -73.908023908024603, 40.697833666535203 ], [ -73.907571268333598, 40.697580007838098 ], [ -73.907275939885096, 40.6974074470643 ], [ -73.906847251078105, 40.6971718061193 ], [ -73.906524922158894, 40.696984400900703 ], [ -73.906117676246197, 40.696758813883598 ], [ -73.905766774972307, 40.696556812351602 ], [ -73.905402692603602, 40.696358563084097 ], [ -73.905006263502898, 40.696127003452901 ], [ -73.904665262575307, 40.695940503671899 ], [ -73.904261599012798, 40.695708628053602 ], [ -73.904805768856704, 40.695156426570399 ], [ -73.904915657005603, 40.695081827795001 ], [ -73.905797386045293, 40.694135411762304 ], [ -73.905044368641597, 40.693712262952197 ], [ -73.904289342528799, 40.693286324882102 ], [ -73.903867420019907, 40.693043968330997 ], [ -73.903541985212399, 40.692857037872201 ], [ -73.902789661295998, 40.692426595726701 ], [ -73.902074188282299, 40.692007487265599 ], [ -73.901762380609796, 40.691815566826598 ], [ -73.901555316835498, 40.6916881148504 ], [ -73.901440999823095, 40.6916203616723 ], [ -73.901399820351998, 40.691598247941897 ], [ -73.9018891764063, 40.691085975859799 ] ] ] } }
]
}
