{
"type": "FeatureCollection",
"name": "coney_island",
"crs": { "type": "name", "properties": { "name": "urn:ogc:def:crs:OGC:1.3:CRS84" } },
"features": [
{ "type": "Feature", "properties": { "OBJECTID": 44, "BoroCode": 3, "BoroName": "Brooklyn", "CountyFIPS": "047", "NTA2020": "BK1302", "NTAName": "Coney Island-Sea Gate", "NTAAbbrev": "CnyIsl", "NTAType": 0, "CDTA2020": "BK13", "CDTAName": "BK13 Coney Island-Brighton Beach (CD 13 Approximation)", "Shape__Area": 47588744.446253955, "Shape__Length": 49219.522598671123 }, "geometry": { "type": "Polygon", "coordinates": [ [ [ -73.966616744201005, 40.584579079064603 ], [ -73.966710091075797, 40.584247534576399 ], [ -73.966748069818905, 40.584063584515803 ], [ -73.966762717508303, 40.583992624624301 ], [ -73.966778211920598, 40.583923222496402 ], [ -73.966815182727203, 40.583765947159598 ], [ -73.966921179695703, 40.583360705401098 ], [ -73.966938049556703, 40.583285987431701 ], [ -73.967012588099095, 40.5829558563874 ], [ -73.967074203730107, 40.5826780450532 ], [ -73.967090988745099, 40.582604026467799 ], [ -73.967335468376305, 40.581525754279703 ], [ -73.967588565584194, 40.580437290900598 ], [ -73.967600105762401, 40.580386702426402 ], [ -73.967616985074201, 40.580313395105797 ], [ -73.967743407672103, 40.579763827195897 ], [ -73.967927334865195, 40.578964274077101 ], [ -73.9680460615849, 40.5784480711444 ], [ -73.968349903496801, 40.577120601137302 ], [ -73.968526183302501, 40.576348611919698 ], [ -73.968533770162793, 40.576313262581301 ], [ -73.968547782487093, 40.576250902871003 ], [ -73.968652516935606, 40.575771285654703 ], [ -73.968667569575999, 40.575705199347901 ], [ -73.968682623724106, 40.575639114044399 ], [ -73.968733161294693, 40.575509641024397 ], [ -73.968803299515699, 40.5753855943939 ], [ -73.968834781974493, 40.575344089445998 ], [ -73.968891387115605, 40.575269469693197 ], [ -73.9688339282649, 40.575249732204703 ], [ -73.968534886833694, 40.575146991086399 ], [ -73.968403087812007, 40.575093598756197 ], [ -73.968260216296699, 40.5750537201721 ], [ -73.968110005100996, 40.575029130132499 ], [ -73.967956761716295, 40.575020784393701 ], [ -73.967804964131204, 40.575028684868599 ], [ -73.967658863163606, 40.575051913189803 ], [ -73.967568500804404, 40.574889757619701 ], [ -73.966754968698396, 40.5748411490829 ], [ -73.966253294292599, 40.574814430170598 ], [ -73.965750644166704, 40.5748024278152 ], [ -73.965247760679603, 40.574805159536197 ], [ -73.964745386043404, 40.574822621487101 ], [ -73.962862606378494, 40.574988371613202 ], [ -73.961034853509304, 40.575084555298403 ], [ -73.959419208186503, 40.575186214152602 ], [ -73.959393247690798, 40.573920340517702 ], [ -73.959830074469906, 40.573937540389103 ], [ -73.9602167484733, 40.573919409857297 ], [ -73.9604905096013, 40.573893412265697 ], [ -73.960688979265598, 40.573885652695502 ], [ -73.960815595082707, 40.573870040644501 ], [ -73.960910284635204, 40.573873259649503 ], [ -73.962109121581193, 40.573721750650002 ], [ -73.962677497526201, 40.573675169641497 ], [ -73.963060424236502, 40.573643784100902 ], [ -73.963984350464699, 40.573565802268 ], [ -73.964537611382994, 40.5735214299322 ], [ -73.965086212778303, 40.573477429117403 ], [ -73.966023822736204, 40.573396825263501 ], [ -73.967204368719905, 40.573334547774898 ], [ -73.967391182524807, 40.573267230262097 ], [ -73.967437105678997, 40.573217200017503 ], [ -73.9673653285206, 40.573052799268602 ], [ -73.967396150109707, 40.573003232993898 ], [ -73.967427712476706, 40.572993339271797 ], [ -73.967450891483395, 40.573016295219198 ], [ -73.967532925314302, 40.573198962724 ], [ -73.967625308848397, 40.573206815777603 ], [ -73.967792980099702, 40.573196426647897 ], [ -73.968186488971497, 40.573186098860198 ], [ -73.968391806338701, 40.573162673242301 ], [ -73.9685647879583, 40.573134176842402 ], [ -73.968850367637003, 40.573066258214901 ], [ -73.968973569366497, 40.573029762560502 ], [ -73.969065972167897, 40.572995867758699 ], [ -73.969203720285606, 40.572965648751698 ], [ -73.969452690395102, 40.572865510569898 ], [ -73.9694698147064, 40.572831595905001 ], [ -73.969213407784693, 40.572343606535902 ], [ -73.969247640428193, 40.572312305759603 ], [ -73.969285280564705, 40.572309706555103 ], [ -73.969560379920296, 40.572816810654103 ], [ -73.969757231836994, 40.572855154884401 ], [ -73.969962530551896, 40.5728682547769 ], [ -73.9702123224926, 40.572860492160999 ], [ -73.970855059558502, 40.572778745420599 ], [ -73.9710883457808, 40.572735474339602 ], [ -73.971331325222906, 40.572652040483199 ], [ -73.971351874838604, 40.572607689632399 ], [ -73.971379286880193, 40.572518983170198 ], [ -73.971143916809396, 40.572058861000997 ], [ -73.971155374589898, 40.5720078670251 ], [ -73.971136580394202, 40.5719683821074 ], [ -73.971184492427597, 40.5719501290504 ], [ -73.971222123047198, 40.5719710121707 ], [ -73.971457999757604, 40.5724876923057 ], [ -73.971519338218599, 40.572589911982199 ], [ -73.971608493571097, 40.5726364540063 ], [ -73.971837749688504, 40.572636510432702 ], [ -73.972498166799497, 40.572584486792501 ], [ -73.9729361910899, 40.572482832155103 ], [ -73.973148362970605, 40.5724228699859 ], [ -73.973346451882804, 40.572329443971498 ], [ -73.973363991827696, 40.572271586996898 ], [ -73.973234110310202, 40.571914095854602 ], [ -73.973213675149196, 40.571676654544298 ], [ -73.973251330663999, 40.571634915941097 ], [ -73.973292384308394, 40.571650580130303 ], [ -73.973326587102093, 40.571684508468998 ], [ -73.973344499315701, 40.571748800275699 ], [ -73.973350469888899, 40.571859329494998 ], [ -73.973367544333101, 40.571945437982301 ], [ -73.973391435355495, 40.572096776706502 ], [ -73.973429016273599, 40.572242900713299 ], [ -73.973449482871601, 40.572280336921402 ], [ -73.973733529418396, 40.5722951550391 ], [ -73.974008212380994, 40.572282592479603 ], [ -73.974411049328594, 40.572245732913899 ], [ -73.974849057021601, 40.572172771647899 ], [ -73.975287079860195, 40.572058062512703 ], [ -73.975472249271405, 40.571977233638798 ], [ -73.975407040394899, 40.571512764601799 ], [ -73.975407071131997, 40.571429270356901 ], [ -73.975458395798199, 40.5714292813322 ], [ -73.975485756901605, 40.571463207566801 ], [ -73.975510260570104, 40.5715327221736 ], [ -73.975518618445705, 40.571702545046598 ], [ -73.975604129767305, 40.571867512899303 ], [ -73.975680610602097, 40.571964214309297 ], [ -73.975926951307301, 40.572026887253301 ], [ -73.976221219056796, 40.572024339932398 ], [ -73.976843993160998, 40.571956628202599 ], [ -73.976854976820405, 40.571954567958798 ], [ -73.9770657478457, 40.571919848346802 ], [ -73.9772720010196, 40.571871880162902 ], [ -73.977472306783596, 40.571810995880902 ], [ -73.977665276812104, 40.571737617497199 ], [ -73.977569631783098, 40.5712548962656 ], [ -73.977600202922503, 40.571199260112898 ], [ -73.977672306137606, 40.571179249667203 ], [ -73.978048680360402, 40.571208023540102 ], [ -73.978077429014704, 40.571237799714098 ], [ -73.977716761643194, 40.5712601439472 ], [ -73.977699628198096, 40.571333197946899 ], [ -73.977706454765695, 40.571385383577002 ], [ -73.9777406196838, 40.5715419417756 ], [ -73.977752710453302, 40.571688519467997 ], [ -73.977785510491799, 40.571741423465198 ], [ -73.977837575056597, 40.571784414075999 ], [ -73.977932232957002, 40.5718204337416 ], [ -73.978071212055497, 40.571851541954999 ], [ -73.978198036351202, 40.571874421928598 ], [ -73.978326591937702, 40.571890743929302 ], [ -73.978456296305396, 40.571900433998998 ], [ -73.978586561738297, 40.571903448230003 ], [ -73.978716797977597, 40.571899772964301 ], [ -73.978846414896907, 40.5718894248553 ], [ -73.978974825176607, 40.571872450792199 ], [ -73.9791014469657, 40.571848927687903 ], [ -73.979458241971599, 40.571750997596503 ], [ -73.979523261975004, 40.5717223083644 ], [ -73.979766242166903, 40.5715945006827 ], [ -73.979848376311594, 40.571547549194698 ], [ -73.979862079865399, 40.571490149583198 ], [ -73.9798073570322, 40.571411863605299 ], [ -73.979725253821201, 40.571354446963198 ], [ -73.979667089637701, 40.5713413906497 ], [ -73.979468642133, 40.571307435634203 ], [ -73.979426673088895, 40.571293297444797 ], [ -73.979392102823695, 40.571270293512598 ], [ -73.979426593046099, 40.571229253260597 ], [ -73.979570614388194, 40.571225575718401 ], [ -73.979773414843095, 40.5712483758617 ], [ -73.979978016429399, 40.571437832419797 ], [ -73.979987359484298, 40.5715426697288 ], [ -73.979993574846603, 40.571652273044201 ], [ -73.980009423555302, 40.571717036219702 ], [ -73.980210262714706, 40.5717344350996 ], [ -73.9805028563012, 40.571745948507797 ], [ -73.9809398554453, 40.5716902249249 ], [ -73.981265832805605, 40.571618229078702 ], [ -73.981595993137404, 40.571531942365702 ], [ -73.981823683753206, 40.571472632585497 ], [ -73.9820421908409, 40.571488600018803 ], [ -73.982038283079703, 40.5714461537681 ], [ -73.982017766419901, 40.571396575528297 ], [ -73.981993823623398, 40.571360042781897 ], [ -73.981921977284799, 40.571328722055704 ], [ -73.981698001290297, 40.571319601295798 ], [ -73.981600342739398, 40.571315624961898 ], [ -73.981559286852502, 40.571302572345097 ], [ -73.981545606418194, 40.571281696459998 ], [ -73.981572986386098, 40.571258217892201 ], [ -73.981949372695297, 40.571245231609197 ], [ -73.982028061486403, 40.571284381545802 ], [ -73.982096475787401, 40.571354840946597 ], [ -73.982147753682597, 40.571529665582801 ], [ -73.982178539275097, 40.571568807961803 ], [ -73.982257234919899, 40.571576647795801 ], [ -73.982493332976702, 40.571574075410297 ], [ -73.982828664589306, 40.571550643055602 ], [ -73.983081877615703, 40.571516760898902 ], [ -73.983674134365899, 40.571415287112302 ], [ -73.983405840049699, 40.570173773700802 ], [ -73.983059525015804, 40.570217885479401 ], [ -73.983044721393398, 40.570154090186797 ], [ -73.983393117031099, 40.570102913693503 ], [ -73.983271399345796, 40.569550122925797 ], [ -73.983362013013604, 40.569538223050799 ], [ -73.983486651355605, 40.570097244235001 ], [ -73.983822686748098, 40.570054018633698 ], [ -73.983840927701493, 40.570120696322398 ], [ -73.983489854166095, 40.570164259231802 ], [ -73.983759337346399, 40.571404456670699 ], [ -73.985730751026395, 40.571204119293 ], [ -73.985936815300605, 40.571186418223199 ], [ -73.986452309594995, 40.571157138187402 ], [ -73.986469432234799, 40.571086691987801 ], [ -73.986510491934496, 40.571089306089704 ], [ -73.986548119677096, 40.571141494136498 ], [ -73.986862918085507, 40.571115438492598 ], [ -73.9872701023167, 40.571084173711199 ], [ -73.9875233103471, 40.571055500143203 ], [ -73.987776518379704, 40.571026826017103 ], [ -73.988038600989299, 40.5709933379581 ], [ -73.988621689199704, 40.570904280465697 ], [ -73.988579154748294, 40.570706138619002 ], [ -73.988635409931703, 40.570703373591897 ], [ -73.988666198512007, 40.570737296357201 ], [ -73.988696979613394, 40.57082340342 ], [ -73.988722892905002, 40.570891921228203 ], [ -73.988837256534296, 40.570886037698401 ], [ -73.988929640661198, 40.570883437362603 ], [ -73.989148631710705, 40.570852148306003 ], [ -73.989360776376103, 40.570839122110698 ], [ -73.989648010011706, 40.570800384504899 ], [ -73.989939046431999, 40.570766116204297 ], [ -73.990147730175096, 40.5707343088512 ], [ -73.990264110173499, 40.5707165691745 ], [ -73.990527583479704, 40.570667016163803 ], [ -73.990774538295, 40.570607651358401 ], [ -73.990743181763605, 40.570411332587398 ], [ -73.990719250945205, 40.570267824604201 ], [ -73.990794082710494, 40.570256877703898 ], [ -73.990828721043599, 40.570429603359798 ], [ -73.990865181933799, 40.570610245257697 ], [ -73.991194810427203, 40.570620103974001 ], [ -73.991564350434601, 40.570586212475398 ], [ -73.991892832972894, 40.570541878964796 ], [ -73.992207628701095, 40.5705079810187 ], [ -73.992296887732095, 40.570499298615097 ], [ -73.992529264197003, 40.570476692933802 ], [ -73.992729984642096, 40.570442016954502 ], [ -73.992970665892798, 40.570374960937798 ], [ -73.992946728924807, 40.570244499955997 ], [ -73.992982416459498, 40.570205002170802 ], [ -73.993015162616899, 40.570221021842002 ], [ -73.993028842889601, 40.570286251844202 ], [ -73.993054335212094, 40.570347254445998 ], [ -73.9931588546727, 40.570388018330299 ], [ -73.993299141100096, 40.5703906363728 ], [ -73.993627616300103, 40.570401091985403 ], [ -73.993676533442596, 40.5704033645466 ], [ -73.994021101465904, 40.570419377546401 ], [ -73.994407746671101, 40.570398523321501 ], [ -73.994685039520405, 40.570369566753001 ], [ -73.994808078710605, 40.570372450033702 ], [ -73.994939068672593, 40.570362903336701 ], [ -73.995139980803103, 40.5703228900162 ], [ -73.995153677080907, 40.570187211525699 ], [ -73.995136576461803, 40.570075015870202 ], [ -73.995188697290402, 40.5700301063833 ], [ -73.995249488589707, 40.570106330541698 ], [ -73.995263165738507, 40.570236791125197 ], [ -73.995294448517399, 40.5703295120218 ], [ -73.996850454161603, 40.570375194228802 ], [ -73.996997844797505, 40.570370920135403 ], [ -73.997045823658297, 40.570364702175603 ], [ -73.997196375353198, 40.5703568777881 ], [ -73.997319554855494, 40.5703307891579 ], [ -73.997357194651002, 40.570286432872699 ], [ -73.997357197847904, 40.570205548392103 ], [ -73.997370885963903, 40.570145536239501 ], [ -73.9974210987437, 40.570149083141402 ], [ -73.997449577657804, 40.570294263116203 ], [ -73.997521430751902, 40.570333402290501 ], [ -73.997668558599401, 40.570382979899101 ], [ -73.997846481430599, 40.570422122143903 ], [ -73.997997032569899, 40.570456044589001 ], [ -73.998188643628495, 40.570469093800902 ], [ -73.9982981352709, 40.570482141005201 ], [ -73.998469216512405, 40.570505625701998 ], [ -73.998633865723505, 40.570516235415703 ], [ -73.9989927257961, 40.5704978044893 ], [ -73.999228818042596, 40.570497806311501 ], [ -73.999615463628004, 40.570474325284302 ], [ -73.999642836899298, 40.570453451682503 ], [ -73.999659944749098, 40.5703908311676 ], [ -73.999704652099098, 40.570394726186699 ], [ -73.999734349703502, 40.570419740275597 ], [ -73.999730945838394, 40.570458669798597 ], [ -73.999720736144099, 40.570482026420699 ], [ -73.999749959485797, 40.570504026143503 ], [ -74.000007284481498, 40.570517263738097 ], [ -74.0002651508252, 40.570520878320004 ], [ -74.000522939991995, 40.570514861219102 ], [ -74.000780033642201, 40.5704992268683 ], [ -74.0009271508777, 40.570477005962097 ], [ -74.001072397198996, 40.570448513306999 ], [ -74.001215313181802, 40.5704138390279 ], [ -74.001355446774895, 40.570373092802299 ], [ -74.001907162344494, 40.570247634073802 ], [ -74.002013109166001, 40.570216987072598 ], [ -74.002059247954506, 40.570160690934898 ], [ -74.001985407465, 40.569604770252802 ], [ -74.002086915010395, 40.569594212408298 ], [ -74.002202288392994, 40.570311982952099 ], [ -74.002229981924302, 40.570618091388504 ], [ -74.002349965968307, 40.571114196654001 ], [ -74.002488516247993, 40.571746617705102 ], [ -74.004800855895994, 40.572887083324296 ], [ -74.006690490018698, 40.573405449468503 ], [ -74.008804884030596, 40.573772976129 ], [ -74.009430378118196, 40.573805497404898 ], [ -74.010075549277602, 40.573839038496502 ], [ -74.010714510100698, 40.574037326307 ], [ -74.011158129082403, 40.574174990865799 ], [ -74.011903406966795, 40.574798395610998 ], [ -74.012016844018902, 40.574893281592502 ], [ -74.012323277458506, 40.575660911623501 ], [ -74.012458938132099, 40.576618975858999 ], [ -74.012798661859605, 40.577497466736098 ], [ -74.013014397899198, 40.577766744029702 ], [ -74.013028597153806, 40.577859124230102 ], [ -74.012963718718694, 40.578000823679602 ], [ -74.012907011897596, 40.578144546879599 ], [ -74.0128585847838, 40.578290020002299 ], [ -74.012818529697597, 40.578436965884201 ], [ -74.012351801767906, 40.579230051115701 ], [ -74.012220998922302, 40.579396715266803 ], [ -74.012078947968305, 40.579557938096102 ], [ -74.011926037278897, 40.579713278723602 ], [ -74.011762684932606, 40.5798623123518 ], [ -74.011589337570896, 40.580004631427599 ], [ -74.011406469177203, 40.580139846757298 ], [ -74.011214579780898, 40.580267588571303 ], [ -74.011014194089995, 40.580387507535399 ], [ -74.010784059098995, 40.5805102692456 ], [ -74.010545026619099, 40.580622714206299 ], [ -74.010380161514604, 40.580647407559098 ], [ -74.010217244584197, 40.580678728353497 ], [ -74.010056733774405, 40.580716588549699 ], [ -74.0098990802706, 40.580760881726299 ], [ -74.009744727229005, 40.580811483378803 ], [ -74.009594108531502, 40.580868251270203 ], [ -74.009447647565906, 40.580931025829997 ], [ -74.009305756036298, 40.580999630603102 ], [ -74.009090583026506, 40.581120206341197 ], [ -74.008889488044304, 40.581254166138301 ], [ -74.008867168758997, 40.581268389775197 ], [ -74.008710169091998, 40.581362067844502 ], [ -74.008546517707998, 40.5814488766067 ], [ -74.008376731006194, 40.581528542125497 ], [ -74.008201344751896, 40.581600813004798 ], [ -74.008020912386698, 40.581665461182801 ], [ -74.0078360032809, 40.581722282651597 ], [ -74.007647200936702, 40.581771098101299 ], [ -74.007455101146405, 40.581811753486001 ], [ -74.006481289108095, 40.581936487657899 ], [ -74.006048782983896, 40.581991883255903 ], [ -74.004837715998406, 40.581863074319998 ], [ -74.003981676113099, 40.581729526407301 ], [ -74.002945181178006, 40.581441066243897 ], [ -74.002207268127904, 40.581374116755903 ], [ -74.001861352424797, 40.581395749770003 ], [ -74.001193562075002, 40.581427286033303 ], [ -74.000761738485096, 40.581332759875899 ], [ -74.000561306467603, 40.581305660462597 ], [ -73.999642961337003, 40.581324789311601 ], [ -73.998961409632301, 40.581641276826403 ], [ -73.998184050291201, 40.581733594683598 ], [ -73.997766082280904, 40.581462561679203 ], [ -73.997719232839401, 40.580715007068797 ], [ -73.992156084114399, 40.579328856117598 ], [ -73.991830563816094, 40.579255311610503 ], [ -73.991707209074704, 40.579239943080402 ], [ -73.991582346491299, 40.579235629419998 ], [ -73.991449576366406, 40.579243258489399 ], [ -73.991319071519797, 40.5792633810075 ], [ -73.991192846208804, 40.579295686396698 ], [ -73.9910728486458, 40.579339676044398 ], [ -73.990699145011703, 40.579381281843197 ], [ -73.990363500120395, 40.579432810888299 ], [ -73.989696448272895, 40.5792214998256 ], [ -73.989580996576507, 40.579201172945901 ], [ -73.989449407002098, 40.579064046418701 ], [ -73.988992370544196, 40.578843330668697 ], [ -73.988429772494001, 40.578824072832603 ], [ -73.9881435176152, 40.578874194449298 ], [ -73.987984675227594, 40.578953566497603 ], [ -73.987609813896995, 40.579041366932699 ], [ -73.987617749768205, 40.5790723994456 ], [ -73.987856003645703, 40.579011874515402 ], [ -73.987867911511998, 40.579034581884599 ], [ -73.9875142926698, 40.5791239220015 ], [ -73.987452952755405, 40.579139744010199 ], [ -73.987443029385801, 40.579115522180899 ], [ -73.987463304182896, 40.579111109154603 ], [ -73.987598888422497, 40.579074668441699 ], [ -73.987587974126001, 40.579048932553597 ], [ -73.987489287213705, 40.5790722483247 ], [ -73.987392078368103, 40.579095213869003 ], [ -73.987384456550203, 40.579145791529598 ], [ -73.986696834935401, 40.579823138602798 ], [ -73.987022820199201, 40.5800309958775 ], [ -73.9867825302005, 40.580302168239001 ], [ -73.986166701649793, 40.5809584605094 ], [ -73.985887108074806, 40.581152655827204 ], [ -73.985905415383698, 40.581208072970199 ], [ -73.985925621912102, 40.581275668897398 ], [ -73.986046533374207, 40.581728916521698 ], [ -73.986846224402896, 40.581240333251301 ], [ -73.986946503746495, 40.581144653025902 ], [ -73.987040456357704, 40.5810453100014 ], [ -73.987127852498105, 40.5809425471274 ], [ -73.987208478466599, 40.580836615715697 ], [ -73.987282137121895, 40.580727774825803 ], [ -73.987348648364105, 40.580616290630999 ], [ -73.987407849575106, 40.580502435767698 ], [ -73.987459596015697, 40.580386488668303 ], [ -73.987575436881301, 40.580039681709401 ], [ -73.987630367953997, 40.579967125420303 ], [ -73.987640692552702, 40.5799258288366 ], [ -73.987734854235697, 40.579826526940501 ], [ -73.987766770141803, 40.579825992862801 ], [ -73.987796809530906, 40.579817754462901 ], [ -73.987821858997506, 40.579802665602898 ], [ -73.987839322316304, 40.579782290153801 ], [ -73.987963144996996, 40.579680041680099 ], [ -73.987998511608495, 40.579652933948203 ], [ -73.988046234819194, 40.579641188107701 ], [ -73.988095713764295, 40.579647413287802 ], [ -73.988135957577697, 40.579670226675702 ], [ -73.988183393407695, 40.579705462887802 ], [ -73.988237528564895, 40.5797345492633 ], [ -73.988297006084395, 40.579756756711802 ], [ -73.988360335082405, 40.579771528572103 ], [ -73.988476004102694, 40.579788603500702 ], [ -73.988582142092397, 40.579827597481398 ], [ -73.988904974261601, 40.580016909115798 ], [ -73.9891377971243, 40.5802231088933 ], [ -73.989543386754804, 40.580423596714901 ], [ -73.989701129141594, 40.580429338290301 ], [ -73.989956485275798, 40.580669901059402 ], [ -73.989719059875796, 40.580846457640703 ], [ -73.989288685430196, 40.581965814213603 ], [ -73.989204370784904, 40.582094859290997 ], [ -73.988749935899506, 40.582828554658498 ], [ -73.988525427590403, 40.583151766951097 ], [ -73.988300917987203, 40.583474978292898 ], [ -73.9872112039141, 40.583600135508298 ], [ -73.986624939270499, 40.583682168578797 ], [ -73.986546004910807, 40.583666823050201 ], [ -73.986604816804899, 40.583773353007402 ], [ -73.9867300931937, 40.584000287494 ], [ -73.9867972061774, 40.584121860272099 ], [ -73.986837339828099, 40.584194563097299 ], [ -73.986876836247802, 40.584259819822499 ], [ -73.986965551199305, 40.584414227212498 ], [ -73.987102637919904, 40.584652824173297 ], [ -73.987011664417494, 40.584634498941398 ], [ -73.986717257710396, 40.584576732307198 ], [ -73.986277170575903, 40.584488213337103 ], [ -73.985862027376498, 40.584533945285699 ], [ -73.985483014398596, 40.584527909357597 ], [ -73.984928744389407, 40.584604184676699 ], [ -73.984823362980705, 40.584176755170901 ], [ -73.983877366703794, 40.583983977551497 ], [ -73.982813009721397, 40.583800620309297 ], [ -73.981755953713105, 40.583591995614498 ], [ -73.980462292442695, 40.583391937745702 ], [ -73.980067112805898, 40.583326095639201 ], [ -73.977426684882602, 40.582914825076102 ], [ -73.9746833744356, 40.583132350445702 ], [ -73.974591436458795, 40.583147053310597 ], [ -73.974498560882196, 40.583161621870303 ], [ -73.974051912455195, 40.583249063550198 ], [ -73.973086494701505, 40.583438058284003 ], [ -73.971746426612, 40.583670981638299 ], [ -73.970847851755593, 40.583828447781201 ], [ -73.970455164095597, 40.5839005121288 ], [ -73.970056892681299, 40.583955963303097 ], [ -73.969855885525803, 40.583975214996499 ], [ -73.9690012847568, 40.584071127071297 ], [ -73.967859869886993, 40.584522276816202 ], [ -73.966916230333595, 40.584575365277999 ], [ -73.966845725451094, 40.584577562208601 ], [ -73.966710116833696, 40.5845772023495 ], [ -73.966616744201005, 40.584579079064603 ] ] ] } }
]
}
