{
"type": "FeatureCollection",
"name": "crown_heights",
"crs": { "type": "name", "properties": { "name": "urn:ogc:def:crs:OGC:1.3:CRS84" } },
"features": [
{ "type": "Feature", "properties": { "OBJECTID": 28, "BoroCode": 3, "BoroName": "Brooklyn", "CountyFIPS": "047", "NTA2020": "BK0802", "NTAName": "Crown Heights (North)", "NTAAbbrev": "CrwnHts_N", "NTAType": 0, "CDTA2020": "BK08", "CDTAName": "BK08 Crown Heights (North) (CD 8 Approximation)", "Shape__Area": 35416299.50514771, "Shape__Length": 30149.111935872963 }, "geometry": { "type": "Polygon", "coordinates": [ [ [ -73.928361371024806, 40.6685234529063 ], [ -73.928371296046194, 40.668443071118602 ], [ -73.928443818360293, 40.667680459811798 ], [ -73.928526118432302, 40.666874810153701 ], [ -73.928599975379399, 40.665978788826102 ], [ -73.928685465779594, 40.665094273025097 ], [ -73.928693427148204, 40.664970547102797 ], [ -73.928723466794494, 40.664503819318803 ], [ -73.929053775599598, 40.664359257138798 ], [ -73.929168943016506, 40.664307781731502 ], [ -73.929404949482105, 40.664208095822197 ], [ -73.929875069460095, 40.663999022022502 ], [ -73.9306860763554, 40.663628725663401 ], [ -73.931608855066003, 40.663564972646903 ], [ -73.932380823041598, 40.6635060386199 ], [ -73.934376015923704, 40.663381060357402 ], [ -73.934553789468097, 40.663370535493399 ], [ -73.937265198530895, 40.663200082872699 ], [ -73.940031193908098, 40.663028991546497 ], [ -73.942830347733903, 40.662855734486499 ], [ -73.942697714896397, 40.664063378797003 ], [ -73.944083412499495, 40.664136821961598 ], [ -73.944893702876598, 40.664182392591897 ], [ -73.945464362736402, 40.664234353634797 ], [ -73.948167468800904, 40.664090071354202 ], [ -73.949407817035805, 40.6640135565968 ], [ -73.950975528711396, 40.663913116603801 ], [ -73.953849940276498, 40.663736057458699 ], [ -73.957210783820997, 40.663525645725997 ], [ -73.957293156018395, 40.664310881416498 ], [ -73.958080964015707, 40.664267754778599 ], [ -73.959345654914998, 40.664183895650098 ], [ -73.9603382596693, 40.664116946800902 ], [ -73.960616878310901, 40.663310998452502 ], [ -73.960957384971096, 40.663293303103202 ], [ -73.961110299073994, 40.664070572080803 ], [ -73.9612240264305, 40.664634827937199 ], [ -73.961259347896402, 40.6648100724682 ], [ -73.961282946671901, 40.664934757608997 ], [ -73.961617707220597, 40.666703465178102 ], [ -73.961808018334594, 40.667689476005798 ], [ -73.961998007537801, 40.668671119176999 ], [ -73.962111642688598, 40.669203947082202 ], [ -73.962195903035095, 40.669649279265499 ], [ -73.962524698053699, 40.671387989048 ], [ -73.962542513745205, 40.671468368529297 ], [ -73.962572662962302, 40.671630494735901 ], [ -73.961338387297005, 40.671365021312198 ], [ -73.961265852482995, 40.671571840577997 ], [ -73.961030414213894, 40.672251434730804 ], [ -73.960711176550106, 40.673129644742197 ], [ -73.960394449589998, 40.674006852825798 ], [ -73.960074890413907, 40.674872535228999 ], [ -73.963183819789293, 40.675537755584799 ], [ -73.962865874523402, 40.6764135919042 ], [ -73.962547786483796, 40.677294868510202 ], [ -73.962229844805407, 40.678174459366602 ], [ -73.961957875821398, 40.678942095292001 ], [ -73.961681418549901, 40.679710457420803 ], [ -73.961541051859896, 40.680094506572402 ], [ -73.961411894805295, 40.680421404371501 ], [ -73.961347990234302, 40.680471775926598 ], [ -73.958293599317699, 40.679839386108803 ], [ -73.955960054177794, 40.679354498745901 ], [ -73.9552950462365, 40.6792114026345 ], [ -73.955310505072603, 40.6792813866481 ], [ -73.954323560903902, 40.679081786689302 ], [ -73.954144981685999, 40.679045669055 ], [ -73.953006566002799, 40.6788233321655 ], [ -73.952053817970295, 40.678682908874002 ], [ -73.949680451267994, 40.6785742206796 ], [ -73.948678995549898, 40.678505835316201 ], [ -73.948597880771203, 40.678500297497798 ], [ -73.947755953278005, 40.678444854284002 ], [ -73.946912880348506, 40.678400664088301 ], [ -73.944142790162701, 40.678245211095899 ], [ -73.943184637105503, 40.678190287748997 ], [ -73.941815722784696, 40.678123028644997 ], [ -73.941720402858707, 40.678118343906803 ], [ -73.941370595634893, 40.678101155261899 ], [ -73.940568571106596, 40.678057428998102 ], [ -73.939828060705196, 40.678018321934204 ], [ -73.938618255401593, 40.677952061949199 ], [ -73.937905794484394, 40.677911858992204 ], [ -73.937125537455103, 40.677867831819597 ], [ -73.936956899697407, 40.677858311753504 ], [ -73.936097293030599, 40.677809785906298 ], [ -73.936008006662703, 40.677804747977397 ], [ -73.935859404747106, 40.677796362225102 ], [ -73.933075249421094, 40.677644849227399 ], [ -73.932776734403603, 40.677627728436498 ], [ -73.932670571131993, 40.677621641059098 ], [ -73.931147129281698, 40.677534236883403 ], [ -73.931047802300895, 40.677528540093299 ], [ -73.930322646868305, 40.677486931620898 ], [ -73.930062843870004, 40.677473491559297 ], [ -73.929931427144993, 40.677466692904197 ], [ -73.928242588093198, 40.677379320135898 ], [ -73.927835371988706, 40.677354283908102 ], [ -73.927703721462393, 40.6773461860639 ], [ -73.927535098052104, 40.677335823770299 ], [ -73.927142832599102, 40.677311386884099 ], [ -73.9270174514578, 40.677303582549797 ], [ -73.926600123814296, 40.677277588668197 ], [ -73.925122646454298, 40.677193888321703 ], [ -73.925046797522199, 40.677189587751499 ], [ -73.924779486748406, 40.677174447715203 ], [ -73.923782585709404, 40.677124694806402 ], [ -73.922816664635704, 40.677075964069502 ], [ -73.9226825380386, 40.677069349145398 ], [ -73.921816809707494, 40.677026642794097 ], [ -73.921825028887199, 40.676946610788796 ], [ -73.921833745005401, 40.676857295062703 ], [ -73.921902323922794, 40.676139873701899 ], [ -73.921976372214203, 40.6753567997714 ], [ -73.922049852525305, 40.674582649042698 ], [ -73.922132953083704, 40.673692141176602 ], [ -73.922215862474999, 40.672799885041201 ], [ -73.922300922249207, 40.671908513411502 ], [ -73.922385437096494, 40.671017014606498 ], [ -73.922454973611806, 40.670269399837899 ], [ -73.922468387477707, 40.670125181211098 ], [ -73.922545741513403, 40.669284061984797 ], [ -73.922614962362204, 40.668572357887598 ], [ -73.922633526138995, 40.668381461671501 ], [ -73.922656718917594, 40.6681353655718 ], [ -73.922728560853699, 40.667373307335097 ], [ -73.922753991298293, 40.6671055833148 ], [ -73.922812485101005, 40.667080011562 ], [ -73.923035812978995, 40.666982376252101 ], [ -73.923121204418507, 40.6669450439408 ], [ -73.9232336652681, 40.666895878364699 ], [ -73.923311816901901, 40.666861710710698 ], [ -73.924246091617903, 40.666453250558803 ], [ -73.924688976851698, 40.667475861808398 ], [ -73.924782516756196, 40.667650294362197 ], [ -73.924894310061703, 40.667819375512501 ], [ -73.925023472946094, 40.667981463190998 ], [ -73.925168816920404, 40.668135034909803 ], [ -73.925328830045899, 40.668278756103803 ], [ -73.925401962958901, 40.668359323866198 ], [ -73.925529017801793, 40.668507940348199 ], [ -73.925608245499703, 40.668513503109203 ], [ -73.928351092638295, 40.668655445152098 ], [ -73.928361371024806, 40.6685234529063 ] ] ] } }
]
}
