{
"type": "FeatureCollection",
"name": "dumbo",
"crs": { "type": "name", "properties": { "name": "urn:ogc:def:crs:OGC:1.3:CRS84" } },
"features": [
{ "type": "Feature", "properties": { "OBJECTID": 5, "BoroCode": 3, "BoroName": "Brooklyn", "CountyFIPS": "047", "NTA2020": "BK0201", "NTAName": "Brooklyn Heights", "NTAAbbrev": "BkHts", "NTAType": 0, "CDTA2020": "BK02", "CDTAName": "BK02 Downtown Brooklyn-Fort Greene (CD 2 Approximation)", "Shape__Area": 9982022.6871235371, "Shape__Length": 14312.192068090524 }, "geometry": { "type": "Polygon", "coordinates": [ [ [ -73.979062288587002, 40.705954284943303 ], [ -73.979244774439096, 40.7055594522962 ], [ -73.979122361224896, 40.7055383255923 ], [ -73.979329064178103, 40.704754532088501 ], [ -73.979604367043294, 40.704184655895297 ], [ -73.979989980400703, 40.703549313689102 ], [ -73.980275863244302, 40.703049655835301 ], [ -73.980241145916196, 40.702932664120098 ], [ -73.980027828362495, 40.702148716163002 ], [ -73.980905467925993, 40.701869684967001 ], [ -73.9806505169296, 40.701569128343699 ], [ -73.980845843978997, 40.701303495127902 ], [ -73.980763250418093, 40.701243235896598 ], [ -73.980687620301296, 40.701177895799297 ], [ -73.980619491238599, 40.701107939318497 ], [ -73.980559347512994, 40.701033863752102 ], [ -73.980507616766204, 40.700956195704002 ], [ -73.980464666571905, 40.700875487268704 ], [ -73.980430802213505, 40.700792312170002 ], [ -73.980406264384001, 40.700707261664299 ], [ -73.980418877623805, 40.700525919231197 ], [ -73.9804422251256, 40.700191885716102 ], [ -73.980463611548601, 40.699711412900299 ], [ -73.980482217901894, 40.699380969149999 ], [ -73.980487481875798, 40.699287482776697 ], [ -73.980545630656195, 40.698254766693204 ], [ -73.980510701240902, 40.697454529829301 ], [ -73.980411054504003, 40.696567598200097 ], [ -73.980404137889394, 40.696510359292397 ], [ -73.980397056609704, 40.696451744118498 ], [ -73.980388673978098, 40.696391165636498 ], [ -73.9803720736803, 40.696271304354099 ], [ -73.980358268162902, 40.696185771073203 ], [ -73.980311637272806, 40.695914248995898 ], [ -73.980283306195005, 40.695640366215201 ], [ -73.980255099659701, 40.695465513562503 ], [ -73.980231171918902, 40.6952972474703 ], [ -73.980159413291602, 40.694832801636302 ], [ -73.980139534861905, 40.694718309486802 ], [ -73.980099378811403, 40.694604812961501 ], [ -73.980039213056401, 40.6944954202215 ], [ -73.979960375005106, 40.694393121664802 ], [ -73.9798652049233, 40.694300551361103 ], [ -73.979756830964106, 40.6942197302008 ], [ -73.979617915809101, 40.694123836956301 ], [ -73.979617797419607, 40.6941237556846 ], [ -73.979617703020594, 40.694123676092403 ], [ -73.979492184322893, 40.694015393566701 ], [ -73.979492053836495, 40.694015285320702 ], [ -73.979491935681494, 40.694015158481399 ], [ -73.979382380003997, 40.693896011006899 ], [ -73.979291108448507, 40.6937682475996 ], [ -73.979291013184607, 40.693768120764197 ], [ -73.979290942571296, 40.693767996111099 ], [ -73.979219594646594, 40.693634257006899 ], [ -73.979219500938001, 40.693634084604298 ], [ -73.9792194303418, 40.6936339056723 ], [ -73.979168622799406, 40.693496576777598 ], [ -73.980114431268305, 40.6935321345698 ], [ -73.980984770641697, 40.6935648709199 ], [ -73.981472941979305, 40.6935831889068 ], [ -73.981549009903006, 40.693586043060797 ], [ -73.981754609009897, 40.693591638917702 ], [ -73.982268337209305, 40.693613029026501 ], [ -73.982351314270701, 40.693616141706499 ], [ -73.982431526828805, 40.693614481886399 ], [ -73.982512353364598, 40.693614864765401 ], [ -73.982513055746693, 40.693571047909302 ], [ -73.982518914841094, 40.6929856406433 ], [ -73.981760329984496, 40.692963425898199 ], [ -73.981776778580098, 40.692475889831798 ], [ -73.981791697674396, 40.6920336691635 ], [ -73.981790512938105, 40.691653121490198 ], [ -73.982063596157204, 40.691320344099999 ], [ -73.981424460392901, 40.689994047639999 ], [ -73.981399171340001, 40.689936923214802 ], [ -73.981474591213001, 40.6899394628661 ], [ -73.981575642712102, 40.689943435918401 ], [ -73.982768640794106, 40.689994733847698 ], [ -73.983136113176002, 40.690010529493797 ], [ -73.983506297406905, 40.690013959151102 ], [ -73.983511261004907, 40.689930423954401 ], [ -73.982958282571701, 40.689708072451197 ], [ -73.982098818835098, 40.689366262445603 ], [ -73.981554422478297, 40.689154416859999 ], [ -73.981019307730705, 40.688946179604102 ], [ -73.980929667563501, 40.688910730371703 ], [ -73.9808351916448, 40.688872037099102 ], [ -73.9807698734745, 40.688760524747799 ], [ -73.980638728613798, 40.6885432354835 ], [ -73.980651160317905, 40.6884677300718 ], [ -73.9801290003399, 40.687758261019702 ], [ -73.979841996693295, 40.687352583874102 ], [ -73.979591815754603, 40.687012154625499 ], [ -73.979364415048096, 40.6866902529299 ], [ -73.979092096141798, 40.686302118302301 ], [ -73.978995467531803, 40.686164385002897 ], [ -73.978275598493397, 40.6852042037332 ], [ -73.978078734288601, 40.684923192303501 ], [ -73.978390063568597, 40.684431593855102 ], [ -73.978431144850802, 40.684363864453601 ], [ -73.978761662660304, 40.683773696147099 ], [ -73.979185343245703, 40.683137089497102 ], [ -73.979618239080807, 40.682499521094798 ], [ -73.979690410498407, 40.682530224751702 ], [ -73.981993879773896, 40.683426393897399 ], [ -73.983954367545095, 40.684189680766401 ], [ -73.986120562833904, 40.685032581661197 ], [ -73.988284378500296, 40.685875037364603 ], [ -73.988713002292897, 40.685232870081201 ], [ -73.988789406973396, 40.685116450899798 ], [ -73.988820704700899, 40.685068760179099 ], [ -73.989070180414799, 40.684688623317399 ], [ -73.989099575644403, 40.684643833077999 ], [ -73.989129848029805, 40.684597704535797 ], [ -73.991333939763194, 40.6854566577898 ], [ -73.9939307385483, 40.686461123308597 ], [ -73.993788812990402, 40.6867642186591 ], [ -73.993605674457598, 40.6871354818513 ], [ -73.993339672583502, 40.687687049357201 ], [ -73.993269742289598, 40.687832703780202 ], [ -73.993005959978007, 40.688372888106798 ], [ -73.992930333073403, 40.688527674225 ], [ -73.992686970436694, 40.689041498740401 ], [ -73.992624303661799, 40.689168801072299 ], [ -73.992365112516495, 40.689698376126202 ], [ -73.994362371718907, 40.690247732471398 ], [ -73.9962342250533, 40.690766027009403 ], [ -73.997770688355899, 40.691202950315599 ], [ -73.998031931102901, 40.691261975333497 ], [ -73.998454162622096, 40.6913782359428 ], [ -73.998939734962605, 40.691503397507198 ], [ -73.999102017738295, 40.691545226469103 ], [ -73.999203063107302, 40.691580087328802 ], [ -73.999289640701804, 40.691602212406899 ], [ -73.999366846392505, 40.6916213312563 ], [ -73.999514186542001, 40.691659703294697 ], [ -73.999916618293398, 40.691775482502202 ], [ -74.000191848585004, 40.691904699637703 ], [ -74.000624480832698, 40.692049743188299 ], [ -74.000586920529699, 40.692134115400499 ], [ -74.001048620540502, 40.6922728509645 ], [ -74.001618720556806, 40.692557323689499 ], [ -74.001701339622798, 40.692391019686497 ], [ -74.001745067021901, 40.692415002258599 ], [ -74.001543175072399, 40.692794215887297 ], [ -74.001271595500398, 40.693304314920397 ], [ -74.000960129930704, 40.694077336488803 ], [ -74.000784398474494, 40.694294768619997 ], [ -74.000702493149007, 40.694396109320301 ], [ -74.000270168711793, 40.694974055684497 ], [ -73.999883595112905, 40.695613452491102 ], [ -73.999596913410301, 40.696073292182298 ], [ -73.999462879901699, 40.6962882799968 ], [ -73.999421164426593, 40.696355191225599 ], [ -73.999414469736607, 40.696365930365303 ], [ -73.999525183827899, 40.696583079991598 ], [ -73.999475512990699, 40.696712387937197 ], [ -73.999296133754996, 40.696803379293399 ], [ -73.999183434870801, 40.696893442088303 ], [ -73.998997486690499, 40.696820531886097 ], [ -73.9989411349748, 40.696949194056202 ], [ -73.998873517369802, 40.696932038113601 ], [ -73.998766025520098, 40.6971289866758 ], [ -73.998872616255994, 40.697165830881097 ], [ -73.998379052033997, 40.698071549926198 ], [ -73.998022472355501, 40.698769990503301 ], [ -73.998001020500993, 40.698805939481602 ], [ -73.997500428090305, 40.699647123440997 ], [ -73.997368903064796, 40.699642489053304 ], [ -73.9971619873305, 40.699801066806003 ], [ -73.997182929374105, 40.700002739168802 ], [ -73.997177288474006, 40.700114246189003 ], [ -73.997246073656299, 40.700149664124297 ], [ -73.996699134123006, 40.700885231307701 ], [ -73.996618806085806, 40.700993262445898 ], [ -73.996499735436899, 40.701153162478199 ], [ -73.996291366345503, 40.7014334305495 ], [ -73.996217839382595, 40.701532328201402 ], [ -73.995385928321795, 40.702651264848697 ], [ -73.995261596299699, 40.702818464358799 ], [ -73.995139712843297, 40.702982369579203 ], [ -73.995065829335601, 40.703108568537203 ], [ -73.995047371899702, 40.703140094690099 ], [ -73.995022790901302, 40.703156124141302 ], [ -73.994801827096097, 40.703300213575098 ], [ -73.994664347747999, 40.703438863521697 ], [ -73.994859103719705, 40.7035743940109 ], [ -73.994996869110594, 40.703658818708199 ], [ -73.994883843428099, 40.703796280862299 ], [ -73.994770786293202, 40.703961150014699 ], [ -73.994715686714102, 40.704004944132599 ], [ -73.994773024975402, 40.704057615454403 ], [ -73.994793758992401, 40.704076660716801 ], [ -73.994793757393097, 40.704097149794201 ], [ -73.994774306013198, 40.70411279679 ], [ -73.994699519075596, 40.7041729559025 ], [ -73.994777587932106, 40.704254116170702 ], [ -73.994703734400304, 40.7043007870436 ], [ -73.994637478441902, 40.704342658569203 ], [ -73.994571233848205, 40.704384519167597 ], [ -73.993864854442805, 40.704564262644197 ], [ -73.993808316589096, 40.7045478684241 ], [ -73.993782998357503, 40.704477200243304 ], [ -73.993776016167203, 40.7044577126021 ], [ -73.993694805357606, 40.7044843845419 ], [ -73.993689366307905, 40.704486169413499 ], [ -73.993587513785997, 40.704517373429802 ], [ -73.993627883217897, 40.704603499884499 ], [ -73.993510258050705, 40.7046317605108 ], [ -73.992802486078503, 40.704642279191503 ], [ -73.992692799503203, 40.704638105212098 ], [ -73.992513550520201, 40.704702367843197 ], [ -73.992309781507203, 40.704698256532097 ], [ -73.992128478926901, 40.704697897331698 ], [ -73.992122449947402, 40.7044044568188 ], [ -73.991958597804199, 40.704208933061601 ], [ -73.991863035347905, 40.7040948972937 ], [ -73.991419391134698, 40.704012344209403 ], [ -73.990948996666702, 40.704040697349903 ], [ -73.990716174251602, 40.704359634322003 ], [ -73.990547623039006, 40.7044244228018 ], [ -73.990309127940904, 40.704848135993501 ], [ -73.990286403353807, 40.704874684789701 ], [ -73.990228654942797, 40.704942299899798 ], [ -73.990092556874103, 40.704951718708401 ], [ -73.989495032453803, 40.704817293537602 ], [ -73.989348789863698, 40.704737947106203 ], [ -73.989201907002794, 40.704732152396303 ], [ -73.989071339124195, 40.704714170106797 ], [ -73.988990420149506, 40.704698612189901 ], [ -73.988698675518094, 40.704572834170797 ], [ -73.988408890448795, 40.704562756243 ], [ -73.988304764428307, 40.704548724357998 ], [ -73.988291433483596, 40.705078914505002 ], [ -73.987958207843306, 40.705142472944097 ], [ -73.987271135061803, 40.705183976760601 ], [ -73.986924925834799, 40.705170718059101 ], [ -73.986873963508899, 40.705165532982797 ], [ -73.986824669893295, 40.705154407630502 ], [ -73.9867782330452, 40.705137610141598 ], [ -73.986735772167293, 40.705115545363498 ], [ -73.986698310631894, 40.705088745093398 ], [ -73.986666751315795, 40.705057855261003 ], [ -73.986641854839704, 40.705023620360102 ], [ -73.986624221236497, 40.704986865504601 ], [ -73.986531171262001, 40.704987354724899 ], [ -73.986430557861397, 40.705077436005503 ], [ -73.986435740720495, 40.705356863046603 ], [ -73.984744740695007, 40.705551162991199 ], [ -73.984022938864996, 40.7056068903251 ], [ -73.983439503070997, 40.705652350637699 ], [ -73.983427716276395, 40.705585477126697 ], [ -73.983407943473495, 40.705474626416503 ], [ -73.983369639599502, 40.705469320832997 ], [ -73.983265428169005, 40.705493322425397 ], [ -73.983087831657002, 40.705485346471598 ], [ -73.983091306391898, 40.705519797602001 ], [ -73.982836962006303, 40.705564063191702 ], [ -73.982743059484505, 40.705580697332898 ], [ -73.982746521871107, 40.705560965665597 ], [ -73.982750033640897, 40.705540947534203 ], [ -73.982461009252702, 40.705517053525597 ], [ -73.982460426947796, 40.705550670776702 ], [ -73.982374846224999, 40.705551606245102 ], [ -73.982330882657394, 40.705560289474697 ], [ -73.980926543150503, 40.705377511024601 ], [ -73.980910086356403, 40.705916199742198 ], [ -73.980742144290005, 40.705863416298598 ], [ -73.980221482359894, 40.705859332166803 ], [ -73.980238593648806, 40.705771539485298 ], [ -73.979560625148807, 40.705751871195297 ], [ -73.979557238953404, 40.705778471225699 ], [ -73.979330092803096, 40.7057736893127 ], [ -73.979281271382007, 40.705797737938397 ], [ -73.979274802303607, 40.705925391291501 ], [ -73.979215356554207, 40.705914896725098 ], [ -73.979184147518097, 40.705973470975202 ], [ -73.979051938507695, 40.705975219598599 ], [ -73.979059109590807, 40.705961145104602 ], [ -73.979062288587002, 40.705954284943303 ] ] ] } }
]
}
