{
"type": "FeatureCollection",
"name": "flatbush",
"crs": { "type": "name", "properties": { "name": "urn:ogc:def:crs:OGC:1.3:CRS84" } },
"features": [
{ "type": "Feature", "properties": { "OBJECTID": 47, "BoroCode": 3, "BoroName": "Brooklyn", "CountyFIPS": "047", "NTA2020": "BK1401", "NTAName": "Flatbush", "NTAAbbrev": "Fltbsh", "NTAType": 0, "CDTA2020": "BK14", "CDTAName": "BK14 Flatbush-Midwood (CD 14 Approximation)", "Shape__Area": 24024170.907226562, "Shape__Length": 33235.614499568386 }, "geometry": { "type": "Polygon", "coordinates": [ [ [ -73.958995590646197, 40.627893835930699 ], [ -73.9599570791937, 40.6277869138735 ], [ -73.960149163703505, 40.6289234269668 ], [ -73.960227029389401, 40.629262742910697 ], [ -73.960250458029805, 40.629378863970601 ], [ -73.960259979597893, 40.629426504712796 ], [ -73.960408772343399, 40.630170772864403 ], [ -73.960464235337497, 40.630163903001801 ], [ -73.961370645156606, 40.630066629993998 ], [ -73.961637828711503, 40.630030465236104 ], [ -73.961822427197106, 40.630013119106799 ], [ -73.961975972246194, 40.630003283280899 ], [ -73.962327423171402, 40.629976958417998 ], [ -73.963222923234696, 40.629849302661 ], [ -73.964150059106998, 40.6297472071331 ], [ -73.965082158017907, 40.629662917117201 ], [ -73.966083343640804, 40.629550948291602 ], [ -73.967078000326595, 40.629442923057702 ], [ -73.968002275333205, 40.629341299572502 ], [ -73.968930590495305, 40.629239867432197 ], [ -73.970002529564795, 40.629121715502798 ], [ -73.971093754900494, 40.6289743818012 ], [ -73.971367653926194, 40.628937403876201 ], [ -73.971230240037002, 40.6282106249298 ], [ -73.971208937496698, 40.628097953198697 ], [ -73.971189702093, 40.627994067855397 ], [ -73.971115651706199, 40.627594124589798 ], [ -73.970922694759295, 40.626578226218001 ], [ -73.971083035502204, 40.626561949524501 ], [ -73.971193530594704, 40.626550937620102 ], [ -73.972300380940894, 40.626439408798902 ], [ -73.9732214428021, 40.626326783168103 ], [ -73.974150548212904, 40.626223138374797 ], [ -73.975077546015697, 40.626122007593302 ], [ -73.975637242832605, 40.626043449186199 ], [ -73.976235970563593, 40.625984591140401 ], [ -73.976451138282798, 40.627016496078298 ], [ -73.976502752764205, 40.627244083335597 ], [ -73.976516054247199, 40.627302731153002 ], [ -73.976534882872301, 40.6273858461565 ], [ -73.976579190833604, 40.6275814275307 ], [ -73.976697477745901, 40.628362805572401 ], [ -73.976851077210497, 40.629096822478303 ], [ -73.976999923496706, 40.629879738279001 ], [ -73.977072423836603, 40.630260522113197 ], [ -73.977166554267896, 40.6307548954438 ], [ -73.976050790569801, 40.631284147104203 ], [ -73.975172895916003, 40.631696822834698 ], [ -73.974320268095099, 40.632098816369201 ], [ -73.973197567648995, 40.632628830800797 ], [ -73.972850506168697, 40.632798307606002 ], [ -73.972416248789401, 40.633002076190103 ], [ -73.972312724601395, 40.633050156480301 ], [ -73.972162892451905, 40.633119863806101 ], [ -73.971905702950394, 40.633238336625901 ], [ -73.970877109133795, 40.633727755935098 ], [ -73.969870125589594, 40.634202916844899 ], [ -73.970291794751304, 40.636414584084498 ], [ -73.969361090083297, 40.636513792867497 ], [ -73.968040116634199, 40.636659228229497 ], [ -73.968224865708194, 40.637305149355399 ], [ -73.968723616596193, 40.639026781483302 ], [ -73.968792423887393, 40.639264176499701 ], [ -73.968916042807905, 40.639765403126503 ], [ -73.969400463792496, 40.641390689893001 ], [ -73.969486113901695, 40.641698140766003 ], [ -73.969687550042906, 40.642364253627697 ], [ -73.969886080108907, 40.643038541550403 ], [ -73.970090410110899, 40.643754083621403 ], [ -73.970318202815307, 40.644546185608398 ], [ -73.970546976987293, 40.645324912528302 ], [ -73.970771194692603, 40.6461191524008 ], [ -73.970842570536007, 40.646386816179898 ], [ -73.971211823762104, 40.647628399319899 ], [ -73.971397750412194, 40.648266030565999 ], [ -73.970700189992002, 40.648510345486699 ], [ -73.969986440369695, 40.648783180177503 ], [ -73.969673169650804, 40.648906180723898 ], [ -73.968795104739002, 40.6492565090686 ], [ -73.967910916380802, 40.649607619555901 ], [ -73.967029524509897, 40.649955519722297 ], [ -73.966146464580603, 40.650305925221403 ], [ -73.965264250861296, 40.650650695736701 ], [ -73.964655817838405, 40.650895974165202 ], [ -73.965242466879303, 40.651750293329101 ], [ -73.965752646513195, 40.652507475067303 ], [ -73.966214651761604, 40.653197650650498 ], [ -73.964148094951298, 40.6540032186847 ], [ -73.961882295282095, 40.6548894386397 ], [ -73.961566045013598, 40.655012363775597 ], [ -73.961394958955395, 40.6550788635966 ], [ -73.960699524328703, 40.6553491713996 ], [ -73.959862461414005, 40.655643036245401 ], [ -73.959698088152805, 40.654847461884202 ], [ -73.956301780334996, 40.655056528646597 ], [ -73.956389945313703, 40.655882812874403 ], [ -73.9530546006267, 40.656088764537699 ], [ -73.950161087699797, 40.656268478350597 ], [ -73.950068076407803, 40.655431244307501 ], [ -73.947160389445003, 40.655602035015697 ], [ -73.945080518779505, 40.655730294383098 ], [ -73.944874269534907, 40.6557430094539 ], [ -73.944289313340207, 40.655778301740703 ], [ -73.943653356494593, 40.655818028362198 ], [ -73.943356314002997, 40.655836583308002 ], [ -73.942402903994804, 40.655893059060602 ], [ -73.941464034301504, 40.655952496042403 ], [ -73.940533570318493, 40.656009786518503 ], [ -73.939560677581298, 40.656071000847803 ], [ -73.9385949134859, 40.656130626942598 ], [ -73.938205461462701, 40.656156262788699 ], [ -73.937637263077207, 40.656175823976596 ], [ -73.937122061121599, 40.656224150804498 ], [ -73.936686117961699, 40.656250071036197 ], [ -73.936180700900906, 40.656282220331498 ], [ -73.935719555207498, 40.656311544510501 ], [ -73.9347857960786, 40.656368643414901 ], [ -73.933811542738894, 40.656431240546297 ], [ -73.932847995274301, 40.656486729967703 ], [ -73.931908860337202, 40.656545900503303 ], [ -73.930904969734698, 40.656618603993401 ], [ -73.931084652219994, 40.658304164370499 ], [ -73.932091900515701, 40.658243339041398 ], [ -73.933997270366902, 40.658126894590801 ], [ -73.934231797215702, 40.6604234825883 ], [ -73.932337028800902, 40.660539973353004 ], [ -73.931327119247399, 40.6606015558012 ], [ -73.931408215302696, 40.661338757258001 ], [ -73.931481335790195, 40.662059359011501 ], [ -73.931557810193496, 40.662763653122802 ], [ -73.931603608422193, 40.663238693685201 ], [ -73.931608855066003, 40.663564972646903 ], [ -73.9306860763554, 40.663628725663401 ], [ -73.929875069460095, 40.663999022022502 ], [ -73.929404949482105, 40.664208095822197 ], [ -73.929168943016506, 40.664307781731502 ], [ -73.929053775599598, 40.664359257138798 ], [ -73.928723466794494, 40.664503819318803 ], [ -73.928230144501001, 40.6647181148792 ], [ -73.927713309969405, 40.6649425777467 ], [ -73.927394920674502, 40.665082966450399 ], [ -73.926381124992105, 40.665523142559202 ], [ -73.925923434861105, 40.665723285674403 ], [ -73.925464121844598, 40.6659250020179 ], [ -73.924392413422893, 40.666389673432803 ], [ -73.924315587365996, 40.6662824260398 ], [ -73.9242287555887, 40.666179700543402 ], [ -73.924132374712002, 40.666082037502399 ], [ -73.924026951853406, 40.665989950339203 ], [ -73.923183581560806, 40.665234269676603 ], [ -73.922880020350306, 40.664960349351801 ], [ -73.922100443638598, 40.664259581900097 ], [ -73.921657134484605, 40.663851824919597 ], [ -73.920973499847406, 40.663961598676103 ], [ -73.9200504180086, 40.664097172746501 ], [ -73.919610820117995, 40.664163055064897 ], [ -73.919098233120593, 40.664238734377797 ], [ -73.919073469019807, 40.664142227484803 ], [ -73.919064821574594, 40.664108534183903 ], [ -73.919029525733706, 40.663970994754301 ], [ -73.919011977830493, 40.6639026105033 ], [ -73.918900048243103, 40.663466446975598 ], [ -73.918716451475504, 40.662750938211303 ], [ -73.918704093701393, 40.662702796976703 ], [ -73.918300780107103, 40.661169507244701 ], [ -73.918186347631504, 40.660734458176798 ], [ -73.9174196091368, 40.660059441256799 ], [ -73.917075051857694, 40.659753603071302 ], [ -73.915729454028906, 40.658558377197103 ], [ -73.915567712390697, 40.658400820613302 ], [ -73.914413892741806, 40.657370668526703 ], [ -73.914030196485697, 40.657011958263098 ], [ -73.9137808530174, 40.656791928352902 ], [ -73.913144977287899, 40.656229112600599 ], [ -73.912366004036201, 40.655521813691003 ], [ -73.9119967988035, 40.655569808093098 ], [ -73.911084650273907, 40.655710641347298 ], [ -73.910123971357706, 40.655860020140302 ], [ -73.909781035059297, 40.654474503410199 ], [ -73.909758975030499, 40.6543753659817 ], [ -73.909744211841598, 40.654319360747103 ], [ -73.909729689312897, 40.654260112518799 ], [ -73.909701551380493, 40.654161196469701 ], [ -73.909424893268493, 40.653142626809199 ], [ -73.909336407067798, 40.652816840160398 ], [ -73.908559318873799, 40.652104185698001 ], [ -73.909449877689994, 40.651529847052402 ], [ -73.910231342886803, 40.651022278632503 ], [ -73.911102116793998, 40.650456160798299 ], [ -73.911824216644703, 40.649991669979599 ], [ -73.912537306977498, 40.649529726420297 ], [ -73.913254356874901, 40.649069672637602 ], [ -73.9139627086345, 40.648608905749697 ], [ -73.9147335837594, 40.648109422152302 ], [ -73.915501712679699, 40.647613101658301 ], [ -73.916210756779606, 40.647159389236798 ], [ -73.916938252428906, 40.646691782236402 ], [ -73.917309428763105, 40.646451151876299 ], [ -73.9176487390625, 40.6462311829059 ], [ -73.917986547727807, 40.646019126573002 ], [ -73.918302939879993, 40.645820509581803 ], [ -73.918618184702595, 40.6456103446776 ], [ -73.918924706650003, 40.645405998893402 ], [ -73.919255613649298, 40.645186010360398 ], [ -73.919431565640295, 40.645069038410902 ], [ -73.919822193447402, 40.644792077618902 ], [ -73.919952046518901, 40.644715876789597 ], [ -73.919909242864193, 40.644337826727799 ], [ -73.919738787145903, 40.642786394029201 ], [ -73.920259439686305, 40.642374544152297 ], [ -73.9215508980338, 40.641352937733998 ], [ -73.923299662105606, 40.6399314666671 ], [ -73.923335358218097, 40.640188099624197 ], [ -73.923375606295707, 40.6405037895696 ], [ -73.923416419652995, 40.640931850961501 ], [ -73.923566676684203, 40.642507543781399 ], [ -73.924543702031698, 40.642447423225903 ], [ -73.925187608877494, 40.642405536938597 ], [ -73.925383749455804, 40.642392778076498 ], [ -73.9254802913361, 40.6415952874273 ], [ -73.925584225621606, 40.6410782758106 ], [ -73.925622675673793, 40.640819465108002 ], [ -73.925705301699693, 40.640369195485199 ], [ -73.925773857016594, 40.640020411851602 ], [ -73.925828530738997, 40.639634515158399 ], [ -73.925836173343001, 40.6394268336146 ], [ -73.925862104702702, 40.639219316308797 ], [ -73.925906248774396, 40.639013350651197 ], [ -73.925968335981494, 40.638810333970802 ], [ -73.9260478058941, 40.638611586170803 ], [ -73.926064799047595, 40.638532305663396 ], [ -73.926082764972506, 40.638171190968201 ], [ -73.926128268173102, 40.637751767704003 ], [ -73.926165196131706, 40.637581205616598 ], [ -73.926275409540395, 40.637223572824396 ], [ -73.926526326723504, 40.636500967508503 ], [ -73.926687575190499, 40.636265332559198 ], [ -73.926745849471502, 40.636181350586 ], [ -73.926822276474496, 40.6360689063047 ], [ -73.926915995058806, 40.635947684747002 ], [ -73.927129114239406, 40.635675699933699 ], [ -73.927449640964895, 40.635266653495002 ], [ -73.927670005761698, 40.635253266561499 ], [ -73.928614256805702, 40.635195890058398 ], [ -73.929625952635405, 40.635129560025803 ], [ -73.930554751779496, 40.635071158320301 ], [ -73.931528772075794, 40.6350162115586 ], [ -73.9322369685393, 40.6349715824688 ], [ -73.932501377286997, 40.634955312638397 ], [ -73.933428296096494, 40.634892294660197 ], [ -73.934395824021706, 40.634835046659198 ], [ -73.935361271486897, 40.634775556024003 ], [ -73.936297389049201, 40.634717769263702 ], [ -73.937268423635004, 40.634658869149703 ], [ -73.937066350504296, 40.632779410992903 ], [ -73.937048598359397, 40.6326147594799 ], [ -73.937038111479097, 40.632517493136604 ], [ -73.937023775754795, 40.632369666378203 ], [ -73.937018883803901, 40.632319222160802 ], [ -73.937187880331294, 40.632306124233402 ], [ -73.937409752263406, 40.632288928286002 ], [ -73.937594157452807, 40.632276099995202 ], [ -73.937935697866294, 40.632258359789802 ], [ -73.937999419182503, 40.632255049289398 ], [ -73.938925992078396, 40.632201333402101 ], [ -73.939856006623899, 40.632143218577198 ], [ -73.940325020822698, 40.632113511166303 ], [ -73.9407896375197, 40.632084089067497 ], [ -73.941758231215601, 40.632024869677302 ], [ -73.942730203524704, 40.631965536927602 ], [ -73.943661368327, 40.631907670162697 ], [ -73.944630278893598, 40.631845977298298 ], [ -73.945618971403704, 40.631785672931699 ], [ -73.946481042407498, 40.631716404756503 ], [ -73.945675860541101, 40.630954435333699 ], [ -73.945512379412904, 40.630799725330903 ], [ -73.945450204990607, 40.630740955775003 ], [ -73.944809584636701, 40.630135408986703 ], [ -73.944541374186102, 40.629874805492399 ], [ -73.944156776240604, 40.629516527432898 ], [ -73.944469264945496, 40.629488293719596 ], [ -73.945401956203895, 40.6293860545114 ], [ -73.946327646707402, 40.629284884862201 ], [ -73.947328146942198, 40.629174809256803 ], [ -73.948325287611695, 40.629064902523602 ], [ -73.949253723616593, 40.628963007264701 ], [ -73.950177995074995, 40.628861014416501 ], [ -73.951107845064797, 40.628758708927798 ], [ -73.952070444259206, 40.628654022793803 ], [ -73.9530327581259, 40.628548356817603 ], [ -73.953961260280394, 40.6284476312862 ], [ -73.954886419274402, 40.628343790460001 ], [ -73.955813498626199, 40.628241733473999 ], [ -73.956848401126294, 40.628128120563098 ], [ -73.958054358844194, 40.627979360069197 ], [ -73.958995590646197, 40.627893835930699 ] ], [ [ -73.943309743129007, 40.646534977135097 ], [ -73.942801034518396, 40.646550862932898 ], [ -73.942693067617697, 40.645534528828399 ], [ -73.942609670560998, 40.644670107638298 ], [ -73.942138140300202, 40.644691501466198 ], [ -73.941201527940194, 40.644728244539003 ], [ -73.940268606538197, 40.644775671889697 ], [ -73.939330481243502, 40.644823007006302 ], [ -73.938361928588193, 40.644865275561401 ], [ -73.937384514281106, 40.644913133118202 ], [ -73.936457763179703, 40.644954363178698 ], [ -73.935486486908701, 40.644998100701699 ], [ -73.934511796180502, 40.645036622969599 ], [ -73.933577308987594, 40.645091946719802 ], [ -73.932615603648401, 40.645253724314301 ], [ -73.932706181354405, 40.646150386249801 ], [ -73.932922113113804, 40.648005417887603 ], [ -73.933000891446099, 40.648794521400198 ], [ -73.933964210958393, 40.648760084206401 ], [ -73.934905206023004, 40.648729405750899 ], [ -73.935874978262206, 40.648696593794803 ], [ -73.936845994734, 40.648657453500199 ], [ -73.937786372971203, 40.648611130119697 ], [ -73.938261545018307, 40.648583101187398 ], [ -73.938708260915902, 40.648525689253098 ], [ -73.938862861594103, 40.649580187566499 ], [ -73.939835105128907, 40.649519987827397 ], [ -73.9407653963097, 40.649461928265801 ], [ -73.941701373972293, 40.649402233173902 ], [ -73.942632555770203, 40.649348003904301 ], [ -73.943123873570102, 40.649317430074603 ], [ -73.943005269398995, 40.648603014266499 ], [ -73.943531004891, 40.648585490123899 ], [ -73.943375272904902, 40.647122948928498 ], [ -73.943309743129007, 40.646534977135097 ] ] ] } }
]
}
