{
"type": "FeatureCollection",
"name": "flushing",
"crs": { "type": "name", "properties": { "name": "urn:ogc:def:crs:OGC:1.3:CRS84" } },
"features": [
{ "type": "Feature", "properties": { "OBJECTID": 189, "BoroCode": 4, "BoroName": "Queens", "CountyFIPS": "081", "NTA2020": "QN0704", "NTAName": "Murray Hill-Broadway Flushing", "NTAAbbrev": "MryHl_BwyF", "NTAType": 0, "CDTA2020": "QN07", "CDTAName": "QN07 Flushing-Murray Hill-Whitestone (CD 7 Approximation)", "Shape__Area": 56452698.920623779, "Shape__Length": 37469.224406381138 }, "geometry": { "type": "Polygon", "coordinates": [ [ [ -73.794748589167796, 40.755636460032299 ], [ -73.794578653136995, 40.753571283117999 ], [ -73.794629074742502, 40.752710946927301 ], [ -73.794657221681803, 40.751996416000701 ], [ -73.794684629595395, 40.7512833172024 ], [ -73.794722795679505, 40.750629590993597 ], [ -73.794970434137596, 40.750550672891698 ], [ -73.7952109646141, 40.750459927258497 ], [ -73.795443411929497, 40.750357721805798 ], [ -73.795666832902995, 40.750244471412501 ], [ -73.796068644625805, 40.750050452439098 ], [ -73.796447556110294, 40.749867487552699 ], [ -73.797296630851704, 40.749443323765902 ], [ -73.797048544788296, 40.749340589308503 ], [ -73.796582419754898, 40.748985668924703 ], [ -73.795984076992596, 40.748540164402101 ], [ -73.794724032365295, 40.747607600814199 ], [ -73.794677071068804, 40.747220198993901 ], [ -73.794581143879597, 40.746410953193298 ], [ -73.794682397124205, 40.7464128986242 ], [ -73.794754759916401, 40.746437488953802 ], [ -73.794820610395007, 40.746471034615404 ], [ -73.794878050529405, 40.746512568716703 ], [ -73.794925424693105, 40.746560894111198 ], [ -73.794956901581997, 40.746596846581497 ], [ -73.794999265231894, 40.746625614691503 ], [ -73.795049786972896, 40.746645345460799 ], [ -73.795105212654903, 40.7466547680107 ], [ -73.795282005966797, 40.746668459091303 ], [ -73.795459602240697, 40.746673240014601 ], [ -73.795637225935394, 40.746669089902902 ], [ -73.795814101390107, 40.746656026879101 ], [ -73.795887678028706, 40.746648441848201 ], [ -73.795973910649593, 40.746648594630301 ], [ -73.796150580693194, 40.746652754334399 ], [ -73.796326483730198, 40.746639574117197 ], [ -73.796468568284197, 40.746622464657598 ], [ -73.796566238364903, 40.746614921095698 ], [ -73.796658827344899, 40.746610262671503 ], [ -73.796797224895798, 40.746600934515399 ], [ -73.796934098476598, 40.746582778060201 ], [ -73.797062876060707, 40.746558299000498 ], [ -73.797187904709006, 40.746524393569402 ], [ -73.797290735941004, 40.746487924447599 ], [ -73.7973258518835, 40.746475959886602 ], [ -73.797364326234899, 40.746475515405102 ], [ -73.797517494032405, 40.7465154063784 ], [ -73.797659156164798, 40.746575016882701 ], [ -73.797784963734003, 40.746652516944501 ], [ -73.797891054521301, 40.7467455273949 ], [ -73.798102272952093, 40.746931075599001 ], [ -73.798263738371105, 40.746973925865703 ], [ -73.799218120097194, 40.746864552137097 ], [ -73.800176106985205, 40.746763848608197 ], [ -73.803279477469701, 40.746447780868699 ], [ -73.803353527148403, 40.746440235267599 ], [ -73.803030371636694, 40.747203071145599 ], [ -73.802941727536506, 40.747417187247997 ], [ -73.802864390011706, 40.747651240873203 ], [ -73.802806199352702, 40.747889434303403 ], [ -73.802767677416199, 40.748130415013001 ], [ -73.802749093001907, 40.748372746270597 ], [ -73.802750494765306, 40.748615022285598 ], [ -73.802771723060204, 40.748855808755799 ], [ -73.802809226271293, 40.7490749319023 ], [ -73.802878050553403, 40.749773420417398 ], [ -73.802958092318903, 40.749778798102199 ], [ -73.803532091018297, 40.749833683939599 ], [ -73.804470916794799, 40.749907546528902 ], [ -73.805400923809799, 40.749980999409502 ], [ -73.8063339246536, 40.750055936441299 ], [ -73.807272148508801, 40.750127245522997 ], [ -73.807507380419096, 40.750144857247399 ], [ -73.809761741732203, 40.748787492934298 ], [ -73.811618934823699, 40.7476731131298 ], [ -73.812355507802096, 40.747231553413101 ], [ -73.813164360731506, 40.746746189146201 ], [ -73.8134201079734, 40.746592715625297 ], [ -73.814163109620793, 40.746146849969797 ], [ -73.814772916473899, 40.746690641210499 ], [ -73.815374563077896, 40.747226607671003 ], [ -73.815752085122597, 40.746987749867202 ], [ -73.816581352186304, 40.747146058041899 ], [ -73.816920376614306, 40.747212937605198 ], [ -73.817821649199303, 40.7473936859068 ], [ -73.818732819532002, 40.747720170549698 ], [ -73.819621017892601, 40.748050312979103 ], [ -73.820524209536998, 40.748365119427099 ], [ -73.821085667343795, 40.748566716320497 ], [ -73.821320373376594, 40.748766452952403 ], [ -73.822397381679195, 40.749872493005 ], [ -73.823214591010199, 40.750716201730697 ], [ -73.824266331394199, 40.751841158995099 ], [ -73.824611695440197, 40.751635018732102 ], [ -73.824924087333699, 40.751448565788202 ], [ -73.825189766285902, 40.751296855619401 ], [ -73.825766966212498, 40.7509772939352 ], [ -73.825737117811599, 40.750781726483901 ], [ -73.825722777948897, 40.750585148353402 ], [ -73.825723998425303, 40.750388270716599 ], [ -73.825740774545096, 40.750191804693102 ], [ -73.825845802599702, 40.7493566614651 ], [ -73.826738336113195, 40.749685504815297 ], [ -73.827240608201393, 40.749867873004398 ], [ -73.827378956658805, 40.749882640815798 ], [ -73.827519319392096, 40.749883059652603 ], [ -73.827657812309099, 40.749869100745002 ], [ -73.827868332691395, 40.749819554969001 ], [ -73.828074535625305, 40.749758735539302 ], [ -73.828274893778399, 40.749686985809099 ], [ -73.828467912360495, 40.749604849551403 ], [ -73.828652228874304, 40.749513002253103 ], [ -73.828830544228097, 40.749415454197297 ], [ -73.829022984662402, 40.749332018991801 ], [ -73.829226514462803, 40.749264350912703 ], [ -73.829437721303506, 40.749213578500303 ], [ -73.829652968116605, 40.749180262908197 ], [ -73.830610808566703, 40.749034153679197 ], [ -73.830722752751399, 40.7490222172922 ], [ -73.830830902391995, 40.748997207244301 ], [ -73.830932634364004, 40.748959730145103 ], [ -73.831025481211796, 40.7489106949863 ], [ -73.831107190974706, 40.748851290616003 ], [ -73.831175781781695, 40.748782958331702 ], [ -73.8312295900446, 40.7487073554936 ], [ -73.831267310731306, 40.748626315799001 ], [ -73.831285847017298, 40.748498582089702 ], [ -73.831290176472706, 40.748370115023903 ], [ -73.831280268612602, 40.748241827093103 ], [ -73.831256193723704, 40.748114629061803 ], [ -73.833004414842605, 40.747842258110303 ], [ -73.833087219106204, 40.747997394080301 ], [ -73.832697094554504, 40.749311480029498 ], [ -73.832224709219403, 40.751428157030801 ], [ -73.832277213981698, 40.751465865620702 ], [ -73.832253393631404, 40.7515862740443 ], [ -73.832248632629799, 40.751708861425499 ], [ -73.832263268817798, 40.751830991895503 ], [ -73.832296752620294, 40.751950060783699 ], [ -73.835592934745605, 40.7513854026923 ], [ -73.835999797376402, 40.752014006615603 ], [ -73.836154279402905, 40.752285585052498 ], [ -73.836315975633596, 40.7525547241288 ], [ -73.836484819585607, 40.752821313040897 ], [ -73.836660741830698, 40.753085242033997 ], [ -73.836843669892403, 40.7533464025801 ], [ -73.837033528674397, 40.753604687025501 ], [ -73.837230240088601, 40.753859989030197 ], [ -73.837433723223199, 40.754112203481199 ], [ -73.837500028583705, 40.7541432083706 ], [ -73.837576307370398, 40.754154996507097 ], [ -73.837683068299796, 40.754143632739599 ], [ -73.837766078917198, 40.754286673252302 ], [ -73.837918724882897, 40.7545497052594 ], [ -73.837988533228199, 40.754690643165397 ], [ -73.838055246234006, 40.754838176205702 ], [ -73.8381352199834, 40.755045999277598 ], [ -73.838212368190696, 40.7552614372471 ], [ -73.838306762602699, 40.755641206133497 ], [ -73.838310291113203, 40.755657587953301 ], [ -73.838407481712693, 40.756108809274203 ], [ -73.838619987205306, 40.757053117318399 ], [ -73.838674615847196, 40.757028249510398 ], [ -73.8387526937818, 40.757003262555301 ], [ -73.839124697450401, 40.756836333136903 ], [ -73.842000968942102, 40.755723774250001 ], [ -73.842535005377101, 40.755552969632802 ], [ -73.843245213170505, 40.755345074197997 ], [ -73.843635826911196, 40.756165264341902 ], [ -73.8440457108847, 40.756953043380697 ], [ -73.844451103170996, 40.757751754757003 ], [ -73.844791670328505, 40.758411429883502 ], [ -73.845135440015099, 40.759076746496604 ], [ -73.845491262442096, 40.759736943331198 ], [ -73.845853757532197, 40.760463669034898 ], [ -73.8459128392102, 40.760592970867897 ], [ -73.845967785034603, 40.760708262790899 ], [ -73.846070298424394, 40.760776879633802 ], [ -73.846153718653198, 40.7608526775279 ], [ -73.846501164604405, 40.761180051971103 ], [ -73.846631867032997, 40.761299929989399 ], [ -73.846710737718197, 40.761353540623098 ], [ -73.845629280706206, 40.762151013039599 ], [ -73.845233469167994, 40.762442879369303 ], [ -73.844746471939999, 40.762763902534203 ], [ -73.844677880367001, 40.762760452187699 ], [ -73.844287163352604, 40.763006824044801 ], [ -73.844117066923403, 40.7631444715066 ], [ -73.843775665674002, 40.763307594937601 ], [ -73.843595012703602, 40.763378814779898 ], [ -73.843669725906906, 40.763478179404501 ], [ -73.843616637776705, 40.763504986077102 ], [ -73.843689276226698, 40.7636209981194 ], [ -73.843651680365696, 40.763636066333099 ], [ -73.843572405887599, 40.7635234048252 ], [ -73.843521538991496, 40.763545175117898 ], [ -73.843437687298604, 40.763440838202797 ], [ -73.843144641260395, 40.763556366807101 ], [ -73.843071012082603, 40.763600841207001 ], [ -73.843005906381507, 40.763712496083201 ], [ -73.842984891280196, 40.763840123482296 ], [ -73.843008110653898, 40.764002894468199 ], [ -73.843052851164103, 40.764105630305998 ], [ -73.843043807529696, 40.7643295921172 ], [ -73.842986196465503, 40.764431865838198 ], [ -73.842729593304, 40.764636821199801 ], [ -73.842614521940106, 40.764691261975699 ], [ -73.842312878950693, 40.764839937651402 ], [ -73.842117920695102, 40.764909306539799 ], [ -73.841834620461597, 40.764983326336697 ], [ -73.841072251540595, 40.765216679159899 ], [ -73.840527753473097, 40.765396262193804 ], [ -73.840466594633597, 40.765311142479703 ], [ -73.840168639406798, 40.7653168174174 ], [ -73.8399295308528, 40.765358484407599 ], [ -73.839701932693899, 40.765297860940898 ], [ -73.839579666902594, 40.765260595473201 ], [ -73.839459532800603, 40.765454041503503 ], [ -73.839360520566103, 40.765418144391703 ], [ -73.839236989106396, 40.765639860159197 ], [ -73.839054748596396, 40.765966950756898 ], [ -73.839133290240596, 40.765999378730498 ], [ -73.839257615337999, 40.766042482303298 ], [ -73.838856065904395, 40.766691259265698 ], [ -73.838830321501106, 40.766732853302202 ], [ -73.838818796715103, 40.766751994952003 ], [ -73.838724284433496, 40.766910837840904 ], [ -73.838206136288903, 40.7676563194292 ], [ -73.837949185005499, 40.767963844110298 ], [ -73.837578336127805, 40.768407673190403 ], [ -73.837220780326504, 40.768751342658902 ], [ -73.836912992084095, 40.769032070925597 ], [ -73.836812947114396, 40.7691233210506 ], [ -73.836270314845606, 40.769618244617902 ], [ -73.835509056263106, 40.770172537494801 ], [ -73.835217514484, 40.7703848128508 ], [ -73.834376721374099, 40.770896406885598 ], [ -73.834056411494998, 40.771083225425897 ], [ -73.834036683198605, 40.771094570178803 ], [ -73.833814417723204, 40.771222380511297 ], [ -73.833602410730094, 40.771344293071799 ], [ -73.833430283284898, 40.771442549941 ], [ -73.833255370244899, 40.771546259677699 ], [ -73.833136551711405, 40.771617016799702 ], [ -73.8331344313535, 40.771618279052198 ], [ -73.832790434273804, 40.771815233437998 ], [ -73.832523514453896, 40.771972676796302 ], [ -73.832439385999706, 40.772022298622701 ], [ -73.832179823234299, 40.772183400762302 ], [ -73.831834454397196, 40.772396235763097 ], [ -73.831714448366597, 40.772482265361802 ], [ -73.831594453264699, 40.772568294683403 ], [ -73.831126378562502, 40.772948208508403 ], [ -73.831123847937405, 40.7729503764375 ], [ -73.831001152013002, 40.773055508511 ], [ -73.830638431979693, 40.7733662996757 ], [ -73.830541419595207, 40.773445221551199 ], [ -73.830221404775699, 40.773767265585299 ], [ -73.830158327162806, 40.7738330168267 ], [ -73.829730490855496, 40.774358284938302 ], [ -73.829302645598204, 40.7748835502437 ], [ -73.8291863435621, 40.7750263345661 ], [ -73.828966046866697, 40.7753189778105 ], [ -73.828962590504204, 40.775323900620101 ], [ -73.828884393215006, 40.775435282010598 ], [ -73.828529520587495, 40.7760155174239 ], [ -73.828240443399096, 40.776468220427198 ], [ -73.828145618536794, 40.776631267104101 ], [ -73.828104383564593, 40.776702166513502 ], [ -73.827939310247004, 40.776985719403697 ], [ -73.827437221739103, 40.7778465696341 ], [ -73.827410804502705, 40.777890299362397 ], [ -73.827373636428305, 40.777951827502697 ], [ -73.826703177066193, 40.779137720060703 ], [ -73.826617201756093, 40.779282681094799 ], [ -73.826605162711502, 40.779302980167103 ], [ -73.826293623810102, 40.779814599620799 ], [ -73.826240496357599, 40.779901158302799 ], [ -73.825874212486198, 40.780510014402502 ], [ -73.825827014376898, 40.780595461433499 ], [ -73.825677788120899, 40.780865624630202 ], [ -73.825286236809603, 40.781705568044202 ], [ -73.825138797960307, 40.7817079826171 ], [ -73.824991325564795, 40.781709739914803 ], [ -73.824611600273698, 40.781727909757599 ], [ -73.8238427218715, 40.781725162614201 ], [ -73.822242670183101, 40.781702155804197 ], [ -73.822438366639304, 40.781422112958801 ], [ -73.822616808343199, 40.781135100110802 ], [ -73.822777363543395, 40.780842052836199 ], [ -73.822919556015094, 40.780543943298902 ], [ -73.823314263231296, 40.779586935708203 ], [ -73.822241387023496, 40.779498512939902 ], [ -73.821324177985005, 40.779417534801098 ], [ -73.820322808743697, 40.779342956696603 ], [ -73.819811813771494, 40.7793052651271 ], [ -73.819311243839195, 40.779268335807302 ], [ -73.817282861784506, 40.779113789189999 ], [ -73.814531369182305, 40.778896450924499 ], [ -73.814664450379894, 40.7779129635435 ], [ -73.814760220894797, 40.7772117768492 ], [ -73.814789608741293, 40.777004014647702 ], [ -73.814859897676698, 40.776494198681903 ], [ -73.812687653212393, 40.776321070197802 ], [ -73.809453910371005, 40.776066354413203 ], [ -73.806593672277003, 40.775840137249297 ], [ -73.803791616400204, 40.775618388071798 ], [ -73.800991127257504, 40.775397392289499 ], [ -73.798653305907607, 40.775208835363202 ], [ -73.7985314800802, 40.775199004761298 ], [ -73.798234340810893, 40.774856581286997 ], [ -73.797855390076194, 40.774423945198997 ], [ -73.797723285604704, 40.774280649534496 ], [ -73.797576614382805, 40.774145117749001 ], [ -73.797416695323705, 40.774018657971403 ], [ -73.797416612436393, 40.774018595338397 ], [ -73.797416530406096, 40.774018540748301 ], [ -73.797301441373406, 40.773940562230599 ], [ -73.797244783534296, 40.773902172807503 ], [ -73.796728236111605, 40.773617504841297 ], [ -73.796526290277299, 40.773511554088898 ], [ -73.795718458677499, 40.773077918339403 ], [ -73.795658405529096, 40.773044362270703 ], [ -73.795216891101305, 40.7726831827081 ], [ -73.795073287451601, 40.772550400064603 ], [ -73.794937752480294, 40.772412805843103 ], [ -73.794806845775696, 40.772265150714802 ], [ -73.794160619598202, 40.771524313580898 ], [ -73.793950442124796, 40.771275650206498 ], [ -73.793238502466494, 40.7704759964492 ], [ -73.793180828702702, 40.770411452853402 ], [ -73.793213206979303, 40.770344764211899 ], [ -73.7934236607841, 40.768608182279102 ], [ -73.793614179974796, 40.7672316320403 ], [ -73.793960530238195, 40.7647035939071 ], [ -73.7930268970632, 40.764629466188097 ], [ -73.793226222118605, 40.763150281884997 ], [ -73.7933468459739, 40.762303616385097 ], [ -73.793438121049306, 40.7616051042218 ], [ -73.793439385836706, 40.761521800005802 ], [ -73.793444383096897, 40.7611936103185 ], [ -73.793441718669897, 40.760830800459999 ], [ -73.793441295431606, 40.7607724011919 ], [ -73.792554763519504, 40.760848567615 ], [ -73.791656045163407, 40.7609203372661 ], [ -73.790761428665107, 40.760994042790799 ], [ -73.790535892646602, 40.7593813112682 ], [ -73.790316552093898, 40.757831723352403 ], [ -73.791222897358097, 40.757807038531801 ], [ -73.792013098297403, 40.7577884230408 ], [ -73.792121973704496, 40.757785855037802 ], [ -73.793031541127306, 40.757764466429997 ], [ -73.794026122902295, 40.757744241572397 ], [ -73.794933845285001, 40.7578063026697 ], [ -73.794748589167796, 40.755636460032299 ] ] ] } }
]
}
