{
"type": "FeatureCollection",
"name": "forest_hills",
"crs": { "type": "name", "properties": { "name": "urn:ogc:def:crs:OGC:1.3:CRS84" } },
"features": [
{ "type": "Feature", "properties": { "OBJECTID": 185, "BoroCode": 4, "BoroName": "Queens", "CountyFIPS": "081", "NTA2020": "QN0602", "NTAName": "Forest Hills", "NTAAbbrev": "FrstHls", "NTAType": 0, "CDTA2020": "QN06", "CDTAName": "QN06 Forest Hills-Rego Park (CD 6 Approximation)", "Shape__Area": 57954644.302291736, "Shape__Length": 36075.594446413044 }, "geometry": { "type": "Polygon", "coordinates": [ [ [ -73.830979601374906, 40.7143218681055 ], [ -73.831097286015094, 40.714288875283501 ], [ -73.831218513083698, 40.714236301921197 ], [ -73.831301735735707, 40.7142031216584 ], [ -73.831344637543594, 40.714181049640999 ], [ -73.832396752075695, 40.713639731119301 ], [ -73.832957173946099, 40.713351381666698 ], [ -73.833156588411001, 40.713248779437997 ], [ -73.833276202141704, 40.713186249609798 ], [ -73.833536914822702, 40.713049955611403 ], [ -73.833572939254594, 40.713030687276202 ], [ -73.833635189797704, 40.712997392078698 ], [ -73.833700358761206, 40.712963305141102 ], [ -73.833721432576098, 40.712952283470898 ], [ -73.8342264115322, 40.712657183499999 ], [ -73.8342924094853, 40.7126202412475 ], [ -73.834539113602702, 40.712489704167197 ], [ -73.834963341071301, 40.712265232315602 ], [ -73.835021348231805, 40.712234211670598 ], [ -73.835176417788801, 40.712151271733802 ], [ -73.835292458348306, 40.712082260430897 ], [ -73.835978465094499, 40.711714219108401 ], [ -73.836006501521197, 40.711737933675998 ], [ -73.836029258604498, 40.711757326051099 ], [ -73.836116159865199, 40.711833409024401 ], [ -73.836409970293005, 40.711650032369 ], [ -73.836410195649407, 40.711649888280697 ], [ -73.836410420302201, 40.7116497617818 ], [ -73.836717785011302, 40.711478578311699 ], [ -73.836718010317995, 40.7114784539909 ], [ -73.836718247274206, 40.711478337392897 ], [ -73.837038087338101, 40.711320065672801 ], [ -73.8370382764748, 40.711319967099499 ], [ -73.837038477261004, 40.711319876248801 ], [ -73.837369573439105, 40.711175190760798 ], [ -73.837710336494197, 40.711044746211201 ], [ -73.838058955899996, 40.710929134689799 ], [ -73.8395245223751, 40.710504713227301 ], [ -73.839725794196298, 40.710407027332003 ], [ -73.839781646799594, 40.710393785820102 ], [ -73.840193388486398, 40.710285091120198 ], [ -73.8402434585376, 40.7102701933904 ], [ -73.8406929373932, 40.710161475724099 ], [ -73.841340761688897, 40.709954495962698 ], [ -73.842632075894301, 40.7094412386882 ], [ -73.842720298718504, 40.7094063348205 ], [ -73.842992308871004, 40.709295189556002 ], [ -73.843147649146403, 40.709231717813601 ], [ -73.843260205077897, 40.709176441016901 ], [ -73.843487699893998, 40.709064036642502 ], [ -73.843571129851398, 40.7090278708258 ], [ -73.843819653677002, 40.708920081435203 ], [ -73.844174208997302, 40.708786682615496 ], [ -73.844538784348899, 40.708669316206098 ], [ -73.844911508355395, 40.708568592573798 ], [ -73.845290382413495, 40.708484940671603 ], [ -73.845673378384902, 40.708418627271399 ], [ -73.846160980822702, 40.708359081666799 ], [ -73.846658638319994, 40.708326903435903 ], [ -73.846900424717603, 40.708318417223303 ], [ -73.847142467254699, 40.708317920464701 ], [ -73.847384310389103, 40.708325414113197 ], [ -73.847625498742303, 40.708340884047402 ], [ -73.848579785234705, 40.708446981879597 ], [ -73.848768650220507, 40.708452839977198 ], [ -73.848958523429502, 40.708446398560397 ], [ -73.849147313737404, 40.708427581507003 ], [ -73.849332960205203, 40.708396594696303 ], [ -73.8495134721623, 40.7083539223758 ], [ -73.850430452104803, 40.708095327973098 ], [ -73.8505919094343, 40.708048144327499 ], [ -73.851102615356893, 40.707909243879797 ], [ -73.852683655557698, 40.707426406030201 ], [ -73.8527551047261, 40.7074054082656 ], [ -73.854717924892398, 40.7067777568381 ], [ -73.854775834632505, 40.706760173868197 ], [ -73.855393542792299, 40.7065726192657 ], [ -73.855535302334999, 40.706529575873198 ], [ -73.855939341397701, 40.706404548623397 ], [ -73.855961058572206, 40.706434928072902 ], [ -73.856678544044598, 40.7077001350888 ], [ -73.857294272723195, 40.7114759385328 ], [ -73.857449980077803, 40.713701061821403 ], [ -73.857773146557605, 40.716464531460304 ], [ -73.858238972691197, 40.719620674383997 ], [ -73.858523542591001, 40.721542057151503 ], [ -73.858682378402904, 40.722620703962598 ], [ -73.859909366643706, 40.724354498434003 ], [ -73.862039741689998, 40.725965049423699 ], [ -73.860153458355995, 40.725235305191703 ], [ -73.8596065740808, 40.7250306644125 ], [ -73.858055570766894, 40.724453669962301 ], [ -73.857764569596597, 40.724913976292903 ], [ -73.857272482159104, 40.725689562218101 ], [ -73.859421282717605, 40.7264731017709 ], [ -73.859015145238004, 40.727117171648999 ], [ -73.858609239424496, 40.727760548613396 ], [ -73.858202067163703, 40.7283996165975 ], [ -73.858127587299407, 40.728516510372103 ], [ -73.858089059424302, 40.728576986497799 ], [ -73.858049770981495, 40.728638333985003 ], [ -73.857982298167997, 40.728743709949903 ], [ -73.857630637760806, 40.728615186504797 ], [ -73.857825572861501, 40.728979996282703 ], [ -73.858166403989401, 40.729633199516002 ], [ -73.858381115610399, 40.730043943211399 ], [ -73.858512381409298, 40.730295067793399 ], [ -73.856258052667499, 40.730967388299497 ], [ -73.856598141535102, 40.731631325502399 ], [ -73.857050781525899, 40.7325206999529 ], [ -73.857310672809405, 40.733012376771498 ], [ -73.857653232361798, 40.733676151707698 ], [ -73.857994339616695, 40.734341922525999 ], [ -73.858344861191597, 40.735009506097001 ], [ -73.858584737803994, 40.7354802083576 ], [ -73.858672184619905, 40.735627225563 ], [ -73.858726061014096, 40.735716910240498 ], [ -73.858772814911106, 40.735793555596103 ], [ -73.858698203269398, 40.735812653752703 ], [ -73.858060821398794, 40.7359989954005 ], [ -73.858038301438199, 40.736005723658302 ], [ -73.856657368168399, 40.7364182457708 ], [ -73.856324008202606, 40.736514400777601 ], [ -73.856276494048998, 40.736525711357999 ], [ -73.855086250532494, 40.736809017988499 ], [ -73.854464677255393, 40.736916272288703 ], [ -73.854176692401694, 40.736965962955601 ], [ -73.853423937921804, 40.737089882226499 ], [ -73.852783722425102, 40.737217621892697 ], [ -73.852616086971096, 40.737258875190001 ], [ -73.851913888550996, 40.737431673591402 ], [ -73.851347446687697, 40.737596719012302 ], [ -73.850921634297706, 40.737738710338 ], [ -73.850849111279601, 40.737762893228101 ], [ -73.850838058817999, 40.737766579410099 ], [ -73.850003532064306, 40.738044853095097 ], [ -73.849609982410101, 40.738191482370098 ], [ -73.849136352574604, 40.7383735281133 ], [ -73.848637627618501, 40.738565216942703 ], [ -73.848064916263795, 40.738824024589803 ], [ -73.847557197204694, 40.7390721828368 ], [ -73.847509602106001, 40.739016074121103 ], [ -73.847464539633904, 40.738960298599601 ], [ -73.847326341165896, 40.738779725119798 ], [ -73.847215015087897, 40.738652253704799 ], [ -73.846895061044904, 40.738679484431501 ], [ -73.846056817109698, 40.737107455730801 ], [ -73.845910213812999, 40.736408068350798 ], [ -73.845694814501599, 40.735674746811597 ], [ -73.845427529354495, 40.7349580696361 ], [ -73.845116818438598, 40.734285673846699 ], [ -73.844969398917399, 40.734015395014602 ], [ -73.844958374867005, 40.733995544332601 ], [ -73.844754425136003, 40.733627566373997 ], [ -73.844348696334393, 40.732986958949397 ], [ -73.844190263194207, 40.732650285530802 ], [ -73.843506288454194, 40.731822610677 ], [ -73.842856981566797, 40.731149176870403 ], [ -73.841623214207303, 40.730126213015801 ], [ -73.841469505460395, 40.7300063590015 ], [ -73.840328428706997, 40.728815380463402 ], [ -73.839855739125298, 40.728185834509503 ], [ -73.839446768558801, 40.7275450653325 ], [ -73.839064942050101, 40.726887798671299 ], [ -73.838711667687406, 40.726224249544401 ], [ -73.838363008677902, 40.725570107022698 ], [ -73.837315990062606, 40.723579772966097 ], [ -73.836499078542801, 40.722346800088701 ], [ -73.836035254365399, 40.721775465698798 ], [ -73.835964518860493, 40.721685432214002 ], [ -73.835762639844006, 40.721369838659598 ], [ -73.835568379619602, 40.721051455232903 ], [ -73.835381845814695, 40.720730444292499 ], [ -73.835276415920404, 40.720465570334603 ], [ -73.835187115313502, 40.720196983169501 ], [ -73.835114263616305, 40.719925535837902 ], [ -73.835058057294603, 40.719652105321998 ], [ -73.8350182364521, 40.719535062556901 ], [ -73.834960335351894, 40.719420740802398 ], [ -73.834884988220495, 40.719311536076503 ], [ -73.8347935379728, 40.719209692120302 ], [ -73.834687968013895, 40.719117184208301 ], [ -73.834571742964499, 40.7190362234454 ], [ -73.834570762627493, 40.719035545729703 ], [ -73.833482877783595, 40.718341719175797 ], [ -73.832072802610099, 40.717298859849301 ], [ -73.830729573056004, 40.7162679042438 ], [ -73.829834675915905, 40.715576046762401 ], [ -73.829908243023297, 40.715440477333999 ], [ -73.8299986735517, 40.715309516472701 ], [ -73.830105063036598, 40.715185033581101 ], [ -73.830105119562404, 40.715184970004103 ], [ -73.8301051875371, 40.715184906444101 ], [ -73.830226320759607, 40.715068472599597 ], [ -73.830360614171894, 40.7149614918143 ], [ -73.830506002493607, 40.714865207739798 ], [ -73.8306709606086, 40.714788162146903 ], [ -73.830843323369706, 40.714721155651702 ], [ -73.831022037542695, 40.714664597441697 ], [ -73.831206011317903, 40.714618833286202 ], [ -73.831387694443904, 40.714585660579601 ], [ -73.831460061907407, 40.714562712784797 ], [ -73.831260281851897, 40.714449522840802 ], [ -73.831159890288603, 40.714401629876399 ], [ -73.831070614360996, 40.714362219126002 ], [ -73.831032810238099, 40.714344988583697 ], [ -73.830979601374906, 40.7143218681055 ] ] ] } }
]
}
