{
"type": "FeatureCollection",
"name": "jackson_heights",
"crs": { "type": "name", "properties": { "name": "urn:ogc:def:crs:OGC:1.3:CRS84" } },
"features": [
{ "type": "Feature", "properties": { "OBJECTID": 171, "BoroCode": 4, "BoroName": "Queens", "CountyFIPS": "081", "NTA2020": "QN0301", "NTAName": "Jackson Heights", "NTAAbbrev": "JcksnHts", "NTAType": 0, "CDTA2020": "QN03", "CDTAName": "QN03 Jackson Heights-East Elmhurst (CD 3 Approximation)", "Shape__Area": 39315142.731179237, "Shape__Length": 27112.803851466255 }, "geometry": { "type": "Polygon", "coordinates": [ [ [ -73.873658626561095, 40.756811755258298 ], [ -73.872712082856197, 40.755071790290302 ], [ -73.872693815432399, 40.755038209079302 ], [ -73.872671078299206, 40.754995068236099 ], [ -73.872143734786107, 40.753994317843798 ], [ -73.872071880608004, 40.753870257106499 ], [ -73.871793849926902, 40.753333938453103 ], [ -73.870843563967099, 40.751552961813303 ], [ -73.8696869159306, 40.749620630773002 ], [ -73.869425992992703, 40.749165119825598 ], [ -73.869740545464396, 40.749134538213099 ], [ -73.870380220045604, 40.749072346313199 ], [ -73.871357892355505, 40.748965218999302 ], [ -73.8718423667015, 40.748913844821097 ], [ -73.872373971424096, 40.748859819473999 ], [ -73.872774976575997, 40.748821226106301 ], [ -73.873304509140098, 40.748766393233097 ], [ -73.873702391141407, 40.748725587550197 ], [ -73.873984345855305, 40.748693937027902 ], [ -73.874630872106707, 40.7486221959362 ], [ -73.875433770478097, 40.748535627493901 ], [ -73.875557840358994, 40.748521876516897 ], [ -73.876253211236104, 40.748447118039699 ], [ -73.876480939616002, 40.7484246700241 ], [ -73.876925991869697, 40.748377257006801 ], [ -73.877417533733507, 40.748327641709103 ], [ -73.878344535306496, 40.748230927853498 ], [ -73.878459202492294, 40.748223078673099 ], [ -73.879279209652694, 40.748132360734097 ], [ -73.879840358771204, 40.748069992768897 ], [ -73.880207890603003, 40.748033247902299 ], [ -73.8811388866512, 40.747935561150697 ], [ -73.8820725322051, 40.747838194421803 ], [ -73.882570180650106, 40.747786113485901 ], [ -73.883000594113099, 40.747742669976397 ], [ -73.883937206146996, 40.747638510017403 ], [ -73.884856796479596, 40.747543079015202 ], [ -73.885788816639305, 40.747448021891202 ], [ -73.886717974923897, 40.7473497298651 ], [ -73.887648049938207, 40.747253106669902 ], [ -73.887784681566401, 40.747237194022702 ], [ -73.888679075074194, 40.747142545087698 ], [ -73.889572696897403, 40.747047320889699 ], [ -73.890502705064307, 40.746950206346902 ], [ -73.891432700077303, 40.7468530040384 ], [ -73.8917519018988, 40.746819994702797 ], [ -73.892410480361505, 40.7471435959947 ], [ -73.893798502375702, 40.747699767517901 ], [ -73.895277421011002, 40.748325561173999 ], [ -73.895410754627093, 40.748382125949803 ], [ -73.895646113466597, 40.748481972833503 ], [ -73.895729207488102, 40.748519310287001 ], [ -73.895816042376694, 40.7485592075152 ], [ -73.895859425110899, 40.748577570604397 ], [ -73.895959195913406, 40.748618899539402 ], [ -73.896052943395105, 40.748657733008898 ], [ -73.896110926240894, 40.748677680909402 ], [ -73.896146756513403, 40.748688304064501 ], [ -73.896243871255194, 40.748727812864502 ], [ -73.896360112653895, 40.748778557526002 ], [ -73.896529329352106, 40.7490709997926 ], [ -73.896866730618996, 40.749614713539003 ], [ -73.8970763024344, 40.749953080047099 ], [ -73.897189985904504, 40.750169181876899 ], [ -73.897218539859793, 40.750232576004699 ], [ -73.897266782935304, 40.7503492154651 ], [ -73.897310721579004, 40.750466833607298 ], [ -73.897369292023697, 40.750698469219799 ], [ -73.897397960600998, 40.7508118490397 ], [ -73.897460071505506, 40.751071661973 ], [ -73.897480583432895, 40.751157465719402 ], [ -73.897500754576001, 40.7512902621054 ], [ -73.897538580438194, 40.751539280760099 ], [ -73.897574026851402, 40.7517726307291 ], [ -73.897595256619994, 40.7520471761365 ], [ -73.897601023726693, 40.752085109865398 ], [ -73.897607598771501, 40.752122966914797 ], [ -73.897678980344395, 40.752393540755698 ], [ -73.897684086562194, 40.752408150727398 ], [ -73.897805331772801, 40.752709602621898 ], [ -73.897933337514303, 40.752947438278397 ], [ -73.898217065061303, 40.753374842034702 ], [ -73.898400569809098, 40.753651269585198 ], [ -73.898667183692893, 40.754052883190703 ], [ -73.898739580939903, 40.754161938696001 ], [ -73.898630891048398, 40.754169790710201 ], [ -73.898543647713396, 40.754178380702498 ], [ -73.898605490942202, 40.754285583033997 ], [ -73.898864122946804, 40.754720103647301 ], [ -73.898877865542701, 40.754754658930501 ], [ -73.898971240500899, 40.754989426707802 ], [ -73.898992297019504, 40.755034737871398 ], [ -73.899122331289604, 40.755314559796197 ], [ -73.899226424852003, 40.7555503177649 ], [ -73.899481524525001, 40.756254848862099 ], [ -73.899593088954106, 40.756563876832601 ], [ -73.899692234793505, 40.757030587337503 ], [ -73.899735187485007, 40.757394206562502 ], [ -73.899739836819904, 40.757429103943302 ], [ -73.899744688266395, 40.757501419618798 ], [ -73.899741324226099, 40.757576148560297 ], [ -73.899734868550397, 40.757625265603799 ], [ -73.899730554719596, 40.757645264460898 ], [ -73.899710204385499, 40.757760998207097 ], [ -73.899702715993399, 40.757803580832203 ], [ -73.8996559977451, 40.757989661427999 ], [ -73.899553825273202, 40.758308924781502 ], [ -73.899454629005106, 40.758556714655597 ], [ -73.899339249146607, 40.758800419379597 ], [ -73.8990446134205, 40.7592522481374 ], [ -73.8990020489111, 40.759317521016698 ], [ -73.898753972650297, 40.7596597465473 ], [ -73.898556346659504, 40.7599323725549 ], [ -73.898662795647795, 40.759929287265997 ], [ -73.898773924908397, 40.759923846554898 ], [ -73.898568847625896, 40.7602035919126 ], [ -73.898258059109097, 40.760670694785503 ], [ -73.898014267697107, 40.761021217161101 ], [ -73.898012675787299, 40.761023572842397 ], [ -73.8978261773577, 40.761299963331801 ], [ -73.897820673066803, 40.761308122325801 ], [ -73.897615227649396, 40.761598381215002 ], [ -73.897522388261095, 40.761738635341601 ], [ -73.897385246669103, 40.761933775001502 ], [ -73.897353802824696, 40.761978464360098 ], [ -73.897348206857998, 40.761986419705202 ], [ -73.897150662630096, 40.762267526136498 ], [ -73.897024777860494, 40.762422573543603 ], [ -73.896837171259506, 40.7626789422089 ], [ -73.896774163873403, 40.7627699619214 ], [ -73.8965523743218, 40.763090354695798 ], [ -73.8965088312452, 40.763147993093703 ], [ -73.896457897858397, 40.763213107546498 ], [ -73.896393890647104, 40.763277103041098 ], [ -73.896319688791905, 40.763355443784803 ], [ -73.896217876885103, 40.763442602133203 ], [ -73.896113169013603, 40.763526443613998 ], [ -73.895988111253402, 40.7636190927321 ], [ -73.895858696920897, 40.7637100876454 ], [ -73.895659500971206, 40.763839120660897 ], [ -73.895500996244806, 40.7639615627523 ], [ -73.895400633796299, 40.764044851000897 ], [ -73.895384334423994, 40.764059908675698 ], [ -73.895287184536599, 40.764149665236602 ], [ -73.895245591627003, 40.764192436662498 ], [ -73.895201345970506, 40.764237936165202 ], [ -73.895098012456003, 40.764364848038902 ], [ -73.895036110799595, 40.764474257609599 ], [ -73.894959381099895, 40.764674073051502 ], [ -73.894956392259701, 40.764676591088701 ], [ -73.894803641638802, 40.765143156576798 ], [ -73.894644675974206, 40.765609196148702 ], [ -73.894607690202804, 40.765717625274398 ], [ -73.894561627345894, 40.765823356787301 ], [ -73.894501224038507, 40.765927985561802 ], [ -73.894433675447402, 40.766019513599801 ], [ -73.894325136181905, 40.766154742498202 ], [ -73.894083951315196, 40.766337927005701 ], [ -73.894011576541104, 40.766387756686797 ], [ -73.893861292669698, 40.7664297165839 ], [ -73.893243362304503, 40.766344859566502 ], [ -73.892855099459297, 40.766311729086702 ], [ -73.892782768433904, 40.766308233047901 ], [ -73.892464953849895, 40.766292869414499 ], [ -73.892074300234299, 40.766288362231201 ], [ -73.891836651041899, 40.766288688858403 ], [ -73.891091692733895, 40.766344906516302 ], [ -73.891072202789204, 40.766283609475003 ], [ -73.891038019272102, 40.766204566423802 ], [ -73.891003849729998, 40.766125515668499 ], [ -73.890891851789803, 40.765866469439402 ], [ -73.890721442046697, 40.765895150866299 ], [ -73.890425446463695, 40.765970331438197 ], [ -73.889950282612801, 40.766112680461802 ], [ -73.889186619621995, 40.766305962901299 ], [ -73.888774519733801, 40.7665195976994 ], [ -73.888343432412597, 40.766605071416002 ], [ -73.888356125862799, 40.766705984880097 ], [ -73.888366878113303, 40.7667778642287 ], [ -73.887808409721401, 40.766903274754398 ], [ -73.887731296149298, 40.766922706015798 ], [ -73.8877080320879, 40.766846869683803 ], [ -73.8876748813083, 40.766747681826701 ], [ -73.887572960733706, 40.766419394048398 ], [ -73.887555790975497, 40.766368219581899 ], [ -73.8875426321638, 40.766326396133699 ], [ -73.887106908159296, 40.765066038440601 ], [ -73.887091053894594, 40.765021726039002 ], [ -73.887079463992094, 40.7649559873974 ], [ -73.8870652945008, 40.764881240702501 ], [ -73.886795528238693, 40.763412206425897 ], [ -73.886731139977996, 40.763061531590097 ], [ -73.886398536799106, 40.761224723320197 ], [ -73.885468959037098, 40.761323686974201 ], [ -73.8845378991888, 40.761421794632 ], [ -73.883608497379797, 40.761519275590203 ], [ -73.883127957624396, 40.761569425853203 ], [ -73.8826779427487, 40.7616163789857 ], [ -73.882370711686605, 40.761648403752503 ], [ -73.882052925289003, 40.761681523068397 ], [ -73.881749068090102, 40.761713188948299 ], [ -73.8808194957127, 40.761815103594799 ], [ -73.880342669183406, 40.7618659026177 ], [ -73.879889475022495, 40.761914184278602 ], [ -73.879421717471004, 40.761953273348901 ], [ -73.878955237454704, 40.761992252468303 ], [ -73.878570314700198, 40.761918060403602 ], [ -73.878433361618704, 40.761885110192203 ], [ -73.877974411373003, 40.761803202160998 ], [ -73.876993834593094, 40.761629145880804 ], [ -73.876494790841804, 40.761538822548999 ], [ -73.8760151284215, 40.761452002621397 ], [ -73.875807954688895, 40.760316106545297 ], [ -73.875512213896897, 40.758687906329698 ], [ -73.875140152239297, 40.756642085631199 ], [ -73.874209439902103, 40.756739832446399 ], [ -73.873658626561095, 40.756811755258298 ] ] ] } }
]
}
