{
"type": "FeatureCollection",
"name": "jfk_airport",
"crs": { "type": "name", "properties": { "name": "urn:ogc:def:crs:OGC:1.3:CRS84" } },
"features": [
{ "type": "Feature", "properties": { "OBJECTID": 237, "BoroCode": 4, "BoroName": "Queens", "CountyFIPS": "081", "NTA2020": "QN8381", "NTAName": "John F. Kennedy International Airport", "NTAAbbrev": "JFK", "NTAType": 8, "CDTA2020": "QN83", "CDTAName": "QN83 JFK International Airport (JIA 83 Approximation)", "Shape__Area": 197189856.77195597, "Shape__Length": 103641.30739333847 }, "geometry": { "type": "MultiPolygon", "coordinates": [ [ [ [ -73.747067915773201, 40.6371625003178 ], [ -73.747066217744006, 40.637169249853301 ], [ -73.747029724284502, 40.637163923229998 ], [ -73.747007645474099, 40.637160701149497 ], [ -73.7469952729178, 40.637158895772203 ], [ -73.747001213051306, 40.6371352783422 ], [ -73.747012384913901, 40.6371369569381 ], [ -73.747039252118, 40.637140992686803 ], [ -73.7470697095698, 40.637145569404403 ], [ -73.747068193530495, 40.637151416860299 ], [ -73.747121896280206, 40.637159491606198 ], [ -73.747137674793194, 40.637066311369203 ], [ -73.747159177203002, 40.637068774087702 ], [ -73.747150606013705, 40.637134081921403 ], [ -73.747155719635302, 40.637134614181498 ], [ -73.747131560249599, 40.637225111438298 ], [ -73.747105387271901, 40.637219509834701 ], [ -73.747122903674494, 40.637170526291101 ], [ -73.747067915773201, 40.6371625003178 ] ] ], [ [ [ -73.747050492754695, 40.6375533850605 ], [ -73.747044524468393, 40.6375746776271 ], [ -73.746941060480296, 40.637562485880402 ], [ -73.746944567396596, 40.637537452838501 ], [ -73.747050492754695, 40.6375533850605 ] ] ], [ [ [ -73.824271444001695, 40.663584816843901 ], [ -73.8230534926155, 40.663562131770497 ], [ -73.822962399464004, 40.663868391442897 ], [ -73.822816694082704, 40.663849863802497 ], [ -73.820858022250604, 40.663600778362898 ], [ -73.818911405448105, 40.663353190464598 ], [ -73.818371149278306, 40.663284470124303 ], [ -73.816954945303394, 40.6631238753411 ], [ -73.815092859054502, 40.662912691640898 ], [ -73.815003936354302, 40.662902841405199 ], [ -73.814106587891601, 40.662803435579498 ], [ -73.813811878211695, 40.662800257559503 ], [ -73.813620472840796, 40.662807638496098 ], [ -73.813375283922596, 40.662817101364503 ], [ -73.8132698179313, 40.662821170861001 ], [ -73.813044664759701, 40.662848549540101 ], [ -73.812798300059796, 40.662878506705397 ], [ -73.8125734438226, 40.662913755766098 ], [ -73.812458397352501, 40.662937152578102 ], [ -73.812355605214293, 40.662961080394197 ], [ -73.812079717105803, 40.663025299857097 ], [ -73.811930849374505, 40.663065399424298 ], [ -73.811689995819293, 40.663141125457997 ], [ -73.811559314002395, 40.663185919979803 ], [ -73.811201471618602, 40.663333566400098 ], [ -73.810841464051293, 40.663482105764203 ], [ -73.810069752361301, 40.663800505734102 ], [ -73.809460651944605, 40.664052342564098 ], [ -73.808847324462306, 40.664305923167703 ], [ -73.8084515441343, 40.664469555082903 ], [ -73.8077991580641, 40.664597262614599 ], [ -73.807649489267305, 40.664626560612597 ], [ -73.806957779344302, 40.664761034450798 ], [ -73.806145341346195, 40.664920984196897 ], [ -73.805725359314096, 40.664968894623399 ], [ -73.804893857020204, 40.665063746026803 ], [ -73.804321886755403, 40.665128987458203 ], [ -73.80377662539, 40.665168438391902 ], [ -73.802996652040207, 40.665224864936498 ], [ -73.802878694965798, 40.665229510643698 ], [ -73.802150045384593, 40.665258208158399 ], [ -73.802033457220105, 40.665256279528002 ], [ -73.801888055038901, 40.665257171593197 ], [ -73.801801876456196, 40.665258695753003 ], [ -73.801221890293206, 40.665284311786799 ], [ -73.800093637401204, 40.665270786862699 ], [ -73.799820923577897, 40.6652675162495 ], [ -73.798392449806201, 40.665170247492803 ], [ -73.797613754045301, 40.6651207827544 ], [ -73.797014297023694, 40.665081501602501 ], [ -73.7964163050206, 40.6650291848647 ], [ -73.795892177111099, 40.664971736036499 ], [ -73.7958205264691, 40.6649638823069 ], [ -73.795227682403706, 40.664885679848197 ], [ -73.793944555644302, 40.664710642694203 ], [ -73.792565708498898, 40.664522530348599 ], [ -73.791996023459703, 40.664447531325798 ], [ -73.791190567643397, 40.664341488106601 ], [ -73.790579701776807, 40.664251555234699 ], [ -73.790061176738007, 40.664175161974498 ], [ -73.789968744075196, 40.664161543224402 ], [ -73.789908976202994, 40.664152792463298 ], [ -73.789844848346902, 40.664144246634798 ], [ -73.788118174234498, 40.663914135283797 ], [ -73.787513154866502, 40.663833497892199 ], [ -73.7861860789411, 40.663617807469201 ], [ -73.785026512165899, 40.663429326823902 ], [ -73.784851362905798, 40.6633924662626 ], [ -73.784402124955605, 40.663297934008 ], [ -73.784256101027395, 40.663267205727102 ], [ -73.783417481689895, 40.663090730902702 ], [ -73.782379119799799, 40.662811089297101 ], [ -73.782147222851705, 40.662748635141902 ], [ -73.782040755371895, 40.662719961816499 ], [ -73.781521864954996, 40.6625629532723 ], [ -73.781312815938605, 40.662499697650702 ], [ -73.781243105254802, 40.662478604264699 ], [ -73.7807879477066, 40.662314626117102 ], [ -73.780549776203301, 40.662228815018103 ], [ -73.780332790882099, 40.662150638288701 ], [ -73.779818839783402, 40.661965463379403 ], [ -73.779195148326906, 40.6616986141211 ], [ -73.779330704249702, 40.661847774658902 ], [ -73.778768651404107, 40.661624249108698 ], [ -73.778716854043594, 40.661603654700798 ], [ -73.778768208332295, 40.661518977976797 ], [ -73.778704036310401, 40.661489056564598 ], [ -73.777356562719802, 40.660860712092898 ], [ -73.777102130820893, 40.660758917979997 ], [ -73.7769059019125, 40.660680410432299 ], [ -73.776861741593905, 40.660667690606203 ], [ -73.776469569548496, 40.660554733092297 ], [ -73.775540488142596, 40.660287117450999 ], [ -73.775268003780297, 40.660208632838902 ], [ -73.775102071054306, 40.660160837956099 ], [ -73.774396196685899, 40.659865939483197 ], [ -73.774231457451805, 40.659797113463299 ], [ -73.773937416601797, 40.659636271520903 ], [ -73.773831018188602, 40.659659412848598 ], [ -73.773785075930306, 40.659632413719201 ], [ -73.773312956660504, 40.659354970846401 ], [ -73.773056380677005, 40.659208005159698 ], [ -73.772920574523098, 40.659137657718802 ], [ -73.770501146915905, 40.657884294266204 ], [ -73.769762822070106, 40.657490489984099 ], [ -73.768780152130702, 40.656950265944502 ], [ -73.768733055892298, 40.656928318311103 ], [ -73.768071415730702, 40.6565635807479 ], [ -73.767863336824206, 40.656448867354001 ], [ -73.767715128788296, 40.656367233440903 ], [ -73.767408741846396, 40.656198468862698 ], [ -73.767354111964707, 40.656168379779103 ], [ -73.767293978916399, 40.656132696639801 ], [ -73.7668318846505, 40.655884307441397 ], [ -73.766697306824099, 40.655811101069098 ], [ -73.766281450294301, 40.655586469035498 ], [ -73.765670339052605, 40.655261722888604 ], [ -73.764755921724102, 40.654755150031797 ], [ -73.764179069993702, 40.654429753967101 ], [ -73.764064268920393, 40.654364520205696 ], [ -73.763600340237005, 40.654099155219399 ], [ -73.762780486689394, 40.653630189970599 ], [ -73.757940739914105, 40.650861556837199 ], [ -73.757455987547303, 40.650589605151403 ], [ -73.754658945561403, 40.649020349756597 ], [ -73.754112230722399, 40.648705918269002 ], [ -73.752842874030193, 40.647987591478199 ], [ -73.751575204331104, 40.647267554120198 ], [ -73.751624047089507, 40.647204232293298 ], [ -73.752050389278097, 40.646660189088301 ], [ -73.752210614282703, 40.646761429775097 ], [ -73.752527631510901, 40.646942858258797 ], [ -73.752780242772303, 40.6470534679476 ], [ -73.753035510877496, 40.647221261102999 ], [ -73.753082538320498, 40.6472359731221 ], [ -73.753272268555193, 40.6473420143857 ], [ -73.753405017220999, 40.647170626938198 ], [ -73.753212488069494, 40.647080504187102 ], [ -73.753234646292896, 40.647060367001203 ], [ -73.753543282064797, 40.647204564651901 ], [ -73.753527021869104, 40.647222471993999 ], [ -73.753423751382101, 40.647178911376002 ], [ -73.753293470383795, 40.647351655092201 ], [ -73.753366358992096, 40.647368922214703 ], [ -73.753433923047098, 40.647395978088397 ], [ -73.753493918626305, 40.647431924142502 ], [ -73.753544353160095, 40.647475566546902 ], [ -73.753597540894503, 40.647504500478398 ], [ -73.753661983494496, 40.647512813489797 ], [ -73.753721227277097, 40.647513526470298 ], [ -73.753779827117498, 40.647520199764799 ], [ -73.753836753980394, 40.647532716187499 ], [ -73.753891008207404, 40.647550855945497 ], [ -73.754063268281897, 40.647765155949003 ], [ -73.754279462550798, 40.647894674521602 ], [ -73.754392789637706, 40.647896185795403 ], [ -73.754505060072802, 40.647943731498899 ], [ -73.754757289651195, 40.647820451305002 ], [ -73.754881080032106, 40.647695460321998 ], [ -73.754929050601604, 40.647580973397098 ], [ -73.754613448429296, 40.647208711251899 ], [ -73.753794257450494, 40.646713856913003 ], [ -73.753661401216306, 40.646879391455599 ], [ -73.753768431851995, 40.646939033483399 ], [ -73.753739072018107, 40.646968675857302 ], [ -73.753403258709497, 40.646815713470403 ], [ -73.753437479742303, 40.646789794716597 ], [ -73.753612704752399, 40.646864434519898 ], [ -73.753762827359594, 40.6466945748829 ], [ -73.750571690726105, 40.6447368086246 ], [ -73.750486392897699, 40.644626704419998 ], [ -73.750327974310196, 40.644469088161799 ], [ -73.750145648302507, 40.644358420525997 ], [ -73.7490776749747, 40.643641121838897 ], [ -73.749003171156801, 40.643567861048702 ], [ -73.748921690498193, 40.643499044648799 ], [ -73.748833688397298, 40.643435057239202 ], [ -73.748739656695705, 40.643376256430798 ], [ -73.748708376892097, 40.643351744080498 ], [ -73.748564361074102, 40.6430905412237 ], [ -73.748400854831203, 40.642836082766699 ], [ -73.748218400079793, 40.642589211732002 ], [ -73.748017601493103, 40.6423507459955 ], [ -73.747766610703906, 40.642103094815397 ], [ -73.747672486541006, 40.641903202140703 ], [ -73.747566990218004, 40.641706632000201 ], [ -73.747562433959104, 40.6416986648671 ], [ -73.747562258586996, 40.641697234955998 ], [ -73.747546332611194, 40.641623533555197 ], [ -73.747517296017094, 40.641552190407197 ], [ -73.747475696885104, 40.641484552050002 ], [ -73.747422320395899, 40.641421895092897 ], [ -73.747400232382603, 40.641361627823997 ], [ -73.747403367875606, 40.641299101552399 ], [ -73.747431427069998, 40.641240293463298 ], [ -73.747481727599805, 40.641190825288099 ], [ -73.747522802679299, 40.641175642275797 ], [ -73.747544593385697, 40.641145081050801 ], [ -73.747538951441996, 40.641110569520897 ], [ -73.747507986600993, 40.6410850127345 ], [ -73.747486799642402, 40.640436102678002 ], [ -73.747471209893803, 40.640394008056397 ], [ -73.747443194149696, 40.640355830308998 ], [ -73.7474353515844, 40.6402199785649 ], [ -73.747441497776194, 40.640084076148298 ], [ -73.747461594896706, 40.639948957622799 ], [ -73.747495519447995, 40.639815452733401 ], [ -73.7474847525679, 40.639741493578803 ], [ -73.747488053453196, 40.639667123532298 ], [ -73.7475053534978, 40.639593887259799 ], [ -73.747536293335699, 40.639523305873702 ], [ -73.747551364678102, 40.639484198895701 ], [ -73.747549428476503, 40.639443468190699 ], [ -73.747530808087603, 40.639388983878 ], [ -73.747530140175499, 40.639332685749601 ], [ -73.747547464797293, 40.6392779539703 ], [ -73.747581741735502, 40.639228074652998 ], [ -73.747621604607005, 40.639082991409701 ], [ -73.747632800363306, 40.639022443793699 ], [ -73.747619471665104, 40.638948654120703 ], [ -73.7476319343276, 40.638914514732399 ], [ -73.7476658542069, 40.638840277075097 ], [ -73.747677185338006, 40.638808697222601 ], [ -73.747681761648096, 40.638784791299599 ], [ -73.747716115233402, 40.638742740621602 ], [ -73.747743660649405, 40.638709381993003 ], [ -73.747727422050701, 40.638652952357802 ], [ -73.747727458768495, 40.638561101040104 ], [ -73.747776362912902, 40.638378417380103 ], [ -73.747780890072903, 40.638367323474803 ], [ -73.747786545701999, 40.638354523246598 ], [ -73.7478136132533, 40.638312728792101 ], [ -73.747822648846295, 40.638295664985201 ], [ -73.747828319059806, 40.638278594300097 ], [ -73.747829473349398, 40.638270055020101 ], [ -73.747830623751, 40.638262369963101 ], [ -73.747829518541707, 40.638258096047402 ], [ -73.747828415896393, 40.6382529690787 ], [ -73.747818396073697, 40.638234155689801 ], [ -73.747817293429705, 40.638229028721 ], [ -73.747817299887998, 40.638227319769797 ], [ -73.747817309572, 40.638224757264403 ], [ -73.747820858930993, 40.638176078382301 ], [ -73.747831317724604, 40.638078726310397 ], [ -73.747837065385895, 40.638041154910702 ], [ -73.747848433114896, 40.638000181421702 ], [ -73.747862032968499, 40.637961773007198 ], [ -73.747897141218999, 40.637869600026697 ], [ -73.747911895280495, 40.637822654670003 ], [ -73.747931243299504, 40.637746676015801 ], [ -73.747943828398206, 40.637680078576899 ], [ -73.747947320593497, 40.637645919487099 ], [ -73.747946510513302, 40.637563918529203 ], [ -73.747948832967495, 40.637542569676498 ], [ -73.747952270966096, 40.637522931564298 ], [ -73.747971571339505, 40.637459766101003 ], [ -73.747996493389095, 40.637392341461897 ], [ -73.748028158423807, 40.637320661273201 ], [ -73.748030446907407, 40.637308707717501 ], [ -73.748032737073601, 40.637295900604002 ], [ -73.748032927359702, 40.637245504882202 ], [ -73.748035247867406, 40.6372250107569 ], [ -73.748039800049497, 40.637207082875797 ], [ -73.748046601122894, 40.637187452129098 ], [ -73.748081676467194, 40.637103820323503 ], [ -73.748094152103704, 40.637066264819701 ], [ -73.748101021513406, 40.637028697535897 ], [ -73.748111425790995, 40.636945865233301 ], [ -73.748118288072803, 40.636910005725298 ], [ -73.748126247201895, 40.636880982136297 ], [ -73.748128508979093, 40.6368758625391 ], [ -73.748145279370604, 40.636873696262597 ], [ -73.748164781591797, 40.6368711034062 ], [ -73.748183320292497, 40.636866258853999 ], [ -73.748213349115105, 40.636852876202802 ], [ -73.748268831581797, 40.636815695285897 ], [ -73.748364831129095, 40.636725683884002 ], [ -73.748399516790101, 40.636661887758898 ], [ -73.748403098797198, 40.636485541767797 ], [ -73.748414587570593, 40.6362974454849 ], [ -73.748435579451893, 40.636110118843597 ], [ -73.748459060335804, 40.635965391948602 ], [ -73.748435125059501, 40.6359336102187 ], [ -73.748431835545006, 40.635841467803999 ], [ -73.748452087940095, 40.635644387823298 ], [ -73.748497773939604, 40.635521996071198 ], [ -73.748529734169907, 40.635464914374502 ], [ -73.748556145353504, 40.635419809764997 ], [ -73.748571736453101, 40.635406315870902 ], [ -73.748648886493996, 40.635388489554899 ], [ -73.748690497934902, 40.635375883130401 ], [ -73.7487178384077, 40.635344358927803 ], [ -73.748732768524206, 40.635283878147 ], [ -73.748758655691304, 40.635242391647402 ], [ -73.748797712565107, 40.635209281896202 ], [ -73.748956106502803, 40.635135218532497 ], [ -73.749036648473194, 40.635089484298199 ], [ -73.749105550079605, 40.635070457754303 ], [ -73.749184276765106, 40.635049061455902 ], [ -73.749248918854605, 40.635030224894699 ], [ -73.749292194232495, 40.635002921189603 ], [ -73.749322430064495, 40.634976707299302 ], [ -73.749355831292206, 40.634955506912704 ], [ -73.749435227200607, 40.634933103375303 ], [ -73.749512920300106, 40.634930096966201 ], [ -73.749652308424501, 40.6348920364984 ], [ -73.749765696766005, 40.634866842824501 ], [ -73.749870286512802, 40.634840020948602 ], [ -73.749915949834204, 40.6348249443 ], [ -73.749938120449499, 40.634809307088702 ], [ -73.749963703347802, 40.634786272332903 ], [ -73.7500667006355, 40.634758194032003 ], [ -73.750136167871503, 40.634744392165203 ], [ -73.7502703814299, 40.634751252557102 ], [ -73.750408458638901, 40.634729571514498 ], [ -73.7504856697213, 40.634717603770603 ], [ -73.750592194896498, 40.634677156934103 ], [ -73.750697431784999, 40.634636225726801 ], [ -73.750753502443203, 40.6346058487498 ], [ -73.750773521249997, 40.6345849663983 ], [ -73.750785308206801, 40.634567707282898 ], [ -73.750793785195498, 40.634551670322203 ], [ -73.750830958355806, 40.634524778839904 ], [ -73.750964976322294, 40.634443879643101 ], [ -73.7510969100708, 40.634365948417397 ], [ -73.751151861265001, 40.634341929573502 ], [ -73.751228278948403, 40.634301603110799 ], [ -73.751292252434894, 40.6342882239014 ], [ -73.751305596912204, 40.634288044190498 ], [ -73.751348653838406, 40.634252853470201 ], [ -73.751408233774896, 40.634218815039702 ], [ -73.751494815485998, 40.634176976475899 ], [ -73.751517851426897, 40.634145530257101 ], [ -73.751533641083, 40.634109237501796 ], [ -73.751550774159199, 40.634070983534102 ], [ -73.751575118511298, 40.634056419540798 ], [ -73.751638535260597, 40.634048496704402 ], [ -73.751840085872999, 40.633978353137003 ], [ -73.751916456091294, 40.633963761958903 ], [ -73.752025217469907, 40.6339279035614 ], [ -73.752079901314104, 40.633894981695697 ], [ -73.752127581142503, 40.633857928176603 ], [ -73.752169866946005, 40.633824952736099 ], [ -73.752194366013399, 40.633806682360401 ], [ -73.752266698901593, 40.6337873138636 ], [ -73.752337314986903, 40.633770369289998 ], [ -73.752392466039794, 40.633725066027203 ], [ -73.752438948274204, 40.633685029454597 ], [ -73.752496714801893, 40.633664069920698 ], [ -73.7525871457553, 40.633631975788497 ], [ -73.752641598795506, 40.633620364891001 ], [ -73.752741549403098, 40.633626138153403 ], [ -73.7529452787727, 40.633631139065699 ], [ -73.7530547052895, 40.633611878918003 ], [ -73.753192568562099, 40.633580385741702 ], [ -73.753403278864099, 40.6335416986431 ], [ -73.753485340117606, 40.633522540724698 ], [ -73.753501361480502, 40.6335045713734 ], [ -73.753508258726498, 40.633486645116498 ], [ -73.753521864436294, 40.6334639171086 ], [ -73.753528261190496, 40.633458371529798 ], [ -73.753552936012696, 40.633451501440099 ], [ -73.753601658393805, 40.633444455709999 ], [ -73.753680360443695, 40.633420777550903 ], [ -73.753748170770095, 40.6333926140382 ], [ -73.7537675184753, 40.633380427344697 ], [ -73.753767466243403, 40.633365320449698 ], [ -73.7537534930307, 40.6333488755064 ], [ -73.753758763467104, 40.633339085661902 ], [ -73.753788303513403, 40.633324175992399 ], [ -73.753871054385598, 40.633288933786702 ], [ -73.753950528354693, 40.633253591028001 ], [ -73.754100180065507, 40.633188901776101 ], [ -73.754108531186304, 40.633184679469998 ], [ -73.754144783205106, 40.633168075096599 ], [ -73.754175618328006, 40.633156561904599 ], [ -73.754218207551702, 40.6331417711583 ], [ -73.754272420900605, 40.633129495896299 ], [ -73.754300974355203, 40.633118503668904 ], [ -73.754337941600198, 40.633103638879 ], [ -73.754352046765305, 40.633096985937101 ], [ -73.754382064982707, 40.6330880163841 ], [ -73.754414506352205, 40.633085121248698 ], [ -73.754447940640304, 40.633087705258703 ], [ -73.754504614111099, 40.633081478088897 ], [ -73.754548537038403, 40.633073049813603 ], [ -73.754577704861404, 40.633066651978702 ], [ -73.754598685957106, 40.633054047630701 ], [ -73.754607551856196, 40.633041501858202 ], [ -73.754624023931399, 40.633019553989897 ], [ -73.754642577005896, 40.632983764099102 ], [ -73.754671423891693, 40.632956624093197 ], [ -73.754725640230603, 40.632923667137099 ], [ -73.754764920001506, 40.632902268476101 ], [ -73.754792366300293, 40.632890737839297 ], [ -73.754832393715006, 40.6328792088932 ], [ -73.754904267130399, 40.6328704612922 ], [ -73.754929567006698, 40.632866100990398 ], [ -73.754975526066303, 40.6328584959426 ], [ -73.754989731199899, 40.632855249005303 ], [ -73.755000805248798, 40.632852582082201 ], [ -73.755047710777404, 40.632845625685199 ], [ -73.755076340422093, 40.632840169097101 ], [ -73.755107687322095, 40.632830708643901 ], [ -73.755127641734603, 40.632822543716003 ], [ -73.755143468930498, 40.6328105798137 ], [ -73.755167609262401, 40.632791167836999 ], [ -73.755181089585307, 40.632780187690003 ], [ -73.755203895449995, 40.632751329742597 ], [ -73.755216543395903, 40.632741500588097 ], [ -73.755233314474296, 40.632737061249202 ], [ -73.755261998965807, 40.6327365996165 ], [ -73.755283925236299, 40.632741669314299 ], [ -73.755295442878193, 40.632744795966097 ], [ -73.7553116925083, 40.632745351563599 ], [ -73.755328971116697, 40.632750027050101 ], [ -73.755340319633703, 40.632760538529801 ], [ -73.755358416826894, 40.632778200276199 ], [ -73.755386453326295, 40.632787207997801 ], [ -73.755420503787903, 40.6327874171362 ], [ -73.755462466851398, 40.6327818772385 ], [ -73.755501500963206, 40.632769222831001 ], [ -73.755525827627096, 40.6327581010258 ], [ -73.755555898358907, 40.6327329084151 ], [ -73.7555988436755, 40.632704669001299 ], [ -73.755615320913407, 40.632682220257003 ], [ -73.755615947111906, 40.632658641007197 ], [ -73.755618202163703, 40.6326327030567 ], [ -73.755642218042397, 40.632617737277599 ], [ -73.755662301535907, 40.632604191491502 ], [ -73.755681581988995, 40.632593278058103 ], [ -73.7556989454405, 40.6325950167139 ], [ -73.755752233992496, 40.632585822836099 ], [ -73.755773343130599, 40.632577906684702 ], [ -73.755784437347103, 40.632568926221403 ], [ -73.755796960375207, 40.632563515321998 ], [ -73.755820521888893, 40.632564773581798 ], [ -73.755848978224904, 40.632557531241702 ], [ -73.755860408890399, 40.632565076236503 ], [ -73.755876306263104, 40.632563271021702 ], [ -73.755897263969999, 40.632547090977802 ], [ -73.755926834049603, 40.6325410587013 ], [ -73.755977964562206, 40.632540672009497 ], [ -73.756004118562402, 40.632532518914097 ], [ -73.756037708389499, 40.632520647530399 ], [ -73.756061072543503, 40.632516578896897 ], [ -73.756077492486398, 40.632509750560502 ], [ -73.756106429329293, 40.632498996422498 ], [ -73.756132459519407, 40.632495289596903 ], [ -73.756159237754204, 40.632493341063601 ], [ -73.756176009908003, 40.632488873947302 ], [ -73.756205853740099, 40.632486685970903 ], [ -73.756226748970704, 40.632487581154301 ], [ -73.756262910102507, 40.632481945904502 ], [ -73.756289420925995, 40.632474699833899 ], [ -73.756316811413498, 40.632463337919901 ], [ -73.756332201504307, 40.632452361685502 ], [ -73.756341033249797, 40.632440988411801 ], [ -73.756347528603001, 40.632428703183102 ], [ -73.756358224263096, 40.6324203245902 ], [ -73.756371854342206, 40.632417581197103 ], [ -73.756388296629297, 40.632424917294898 ], [ -73.756395161982297, 40.632429159943896 ], [ -73.756401319760997, 40.632430133602703 ], [ -73.756429026605105, 40.6324211323169 ], [ -73.756449818003205, 40.632410826233603 ], [ -73.756490399342994, 40.632398777370803 ], [ -73.756555057298499, 40.632384445455202 ], [ -73.756608430476604, 40.632372288102601 ], [ -73.756645917051401, 40.632358996435499 ], [ -73.756667199361203, 40.632349613600603 ], [ -73.756705502552805, 40.632340802034399 ], [ -73.756741413542898, 40.632299632981699 ], [ -73.7567936094554, 40.632272585229899 ], [ -73.756862166402897, 40.632270639790697 ], [ -73.756951563710103, 40.632264652997002 ], [ -73.7569765205685, 40.632258253861799 ], [ -73.757002131052801, 40.6322409581568 ], [ -73.757014860238797, 40.632228164043603 ], [ -73.757039191189406, 40.632215559796201 ], [ -73.757071545597796, 40.632206925516101 ], [ -73.757120187893193, 40.6321973631783 ], [ -73.757133294612601, 40.632199614814603 ], [ -73.757142465821303, 40.6322047679527 ], [ -73.757149626936595, 40.6321972338744 ], [ -73.757160286495804, 40.632188827656002 ], [ -73.757168514730296, 40.632185414034502 ], [ -73.757174122701102, 40.632178726885599 ], [ -73.757181327340902, 40.632169684296301 ], [ -73.757194160318406, 40.632168118863497 ], [ -73.757219081938402, 40.632161718428698 ], [ -73.7572534208728, 40.632151632961097 ], [ -73.757302902128899, 40.632139437919697 ], [ -73.757347334844397, 40.632128908333101 ], [ -73.757389464596699, 40.632116009864603 ], [ -73.757425645577399, 40.632094727896302 ], [ -73.757455545738907, 40.632076920124199 ], [ -73.757474641156605, 40.632057742954501 ], [ -73.757485252540306, 40.632022517180097 ], [ -73.757499946275502, 40.631994136213699 ], [ -73.757531139812201, 40.6319574430632 ], [ -73.757550358435196, 40.631933875031102 ], [ -73.757574420463996, 40.631915943510499 ], [ -73.757641043030802, 40.631886022843702 ], [ -73.757663429745904, 40.631873387393902 ], [ -73.757682710320395, 40.631862473625503 ], [ -73.7577082790243, 40.631846660309101 ], [ -73.757736939673194, 40.631832060215103 ], [ -73.757768414109293, 40.631827515284698 ], [ -73.757815778113297, 40.631822645302599 ], [ -73.7578640484505, 40.631826340970598 ], [ -73.757905129821793, 40.631824916697603 ], [ -73.757961479503606, 40.631816936630997 ], [ -73.758000427829501, 40.631807216308097 ], [ -73.758044900017694, 40.631795230035898 ], [ -73.758090361425303, 40.631788846330899 ], [ -73.7581426872473, 40.631786731452998 ], [ -73.758187266899199, 40.631784462551501 ], [ -73.758221922601095, 40.631776739121101 ], [ -73.758268427610602, 40.631760337280198 ], [ -73.758318161267397, 40.631737820352697 ], [ -73.758375676435406, 40.631715401510696 ], [ -73.758409783240893, 40.631700018270202 ], [ -73.758436499029898, 40.631685385938198 ], [ -73.758461413930704, 40.631650684166999 ], [ -73.7584869134934, 40.631623642721301 ], [ -73.758517754009503, 40.631584588074404 ], [ -73.758548257479902, 40.631558819122098 ], [ -73.758569322435207, 40.631552357691803 ], [ -73.758624474513894, 40.631546130157602 ], [ -73.758685749909006, 40.631540903703502 ], [ -73.758743520084593, 40.631537949097698 ], [ -73.758782259381704, 40.631537069763503 ], [ -73.758851801387195, 40.631526946260102 ], [ -73.758974316876902, 40.631505239225099 ], [ -73.759010918528105, 40.631497545435899 ], [ -73.759043200846804, 40.631477709946701 ], [ -73.759073662964795, 40.631453397267997 ], [ -73.759102413205596, 40.631434376762101 ], [ -73.759131239361295, 40.631413875281901 ], [ -73.759160580239097, 40.631401060947603 ], [ -73.759188596754996, 40.631395903940103 ], [ -73.759225114057799, 40.6313911478669 ], [ -73.759259411105305, 40.6313825433419 ], [ -73.759291173038307, 40.631367702918702 ], [ -73.7593124034005, 40.631355338637597 ], [ -73.759324425259706, 40.631339305117599 ], [ -73.759334217001594, 40.631320876620798 ], [ -73.759350418871406, 40.6312945858215 ], [ -73.759377929803193, 40.631248989663597 ], [ -73.759408261322207, 40.631200820455597 ], [ -73.759430179142697, 40.6311775579696 ], [ -73.759453442761398, 40.6311608063045 ], [ -73.7594847650345, 40.631148024512697 ], [ -73.759533489017699, 40.631135497063298 ], [ -73.759561318134203, 40.631122075019498 ], [ -73.759591842844202, 40.631110444299601 ], [ -73.759620317689695, 40.631087580972199 ], [ -73.759686835477396, 40.6310464573926 ], [ -73.759804737212406, 40.630994598132801 ], [ -73.759834429683096, 40.6309841453511 ], [ -73.759869708941196, 40.630982626000801 ], [ -73.759889882118003, 40.630994444432702 ], [ -73.759906359279299, 40.631001753631701 ], [ -73.759932221873996, 40.631003947987999 ], [ -73.759948593764506, 40.631000055451899 ], [ -73.759980548009096, 40.630991995986903 ], [ -73.760013380349307, 40.630979820476497 ], [ -73.760062557921501, 40.630951098360597 ], [ -73.760091981202194, 40.6309353183577 ], [ -73.760111077880396, 40.630918485994897 ], [ -73.760124511091306, 40.630906638373901 ], [ -73.760164150510803, 40.630885982450202 ], [ -73.760194132217805, 40.630865198146502 ], [ -73.760215761156502, 40.630852277997697 ], [ -73.760255717696893, 40.6308339826886 ], [ -73.760277262338505, 40.630825485795199 ], [ -73.760318928748902, 40.630801920710297 ], [ -73.760346004452998, 40.630788187312099 ], [ -73.760375863535302, 40.630771824640497 ], [ -73.760418959768003, 40.630751832380398 ], [ -73.760444251409893, 40.630732165375598 ], [ -73.760461912201293, 40.630709407132997 ], [ -73.760507518271794, 40.630682967008603 ], [ -73.760532963372199, 40.6306715660305 ], [ -73.760571432964895, 40.630666832862197 ], [ -73.760615502336904, 40.630669578286998 ], [ -73.760681463035098, 40.630678846446401 ], [ -73.760701091682293, 40.630682973171702 ], [ -73.760721359953493, 40.630679139731399 ], [ -73.7607554185129, 40.630679369255397 ], [ -73.760768527827096, 40.630681645110201 ], [ -73.760779775934694, 40.630680925185999 ], [ -73.760790394093505, 40.630673996823198 ], [ -73.760800859037403, 40.630658832736898 ], [ -73.760824791736795, 40.6306467961249 ], [ -73.760855405890396, 40.630630762084202 ], [ -73.760886812629295, 40.630615004766703 ], [ -73.760914202257993, 40.630603634050402 ], [ -73.760943459785395, 40.630595231473997 ], [ -73.760970091482605, 40.630585011937299 ], [ -73.761000542696195, 40.630574854781003 ], [ -73.761028055651096, 40.630559061856303 ], [ -73.7610586293208, 40.630544483506696 ], [ -73.761098060575804, 40.630532695828101 ], [ -73.761132043379206, 40.630521693418601 ], [ -73.761169642220395, 40.630519621789198 ], [ -73.761210211868303, 40.630523185300802 ], [ -73.761233483382497, 40.630526963333701 ], [ -73.761258976990504, 40.630533791993003 ], [ -73.761289222424395, 40.630531596999198 ], [ -73.761314560060498, 40.630519755860902 ], [ -73.761348483864396, 40.630505870588799 ], [ -73.761391518874603, 40.630493400739198 ], [ -73.761438762115105, 40.630495768793203 ], [ -73.7614971503275, 40.630483933529099 ], [ -73.761519562758195, 40.630474226129003 ], [ -73.761548448800298, 40.630457256186801 ], [ -73.761586206022898, 40.630450352870596 ], [ -73.761630557385701, 40.630454829906299 ], [ -73.761679658989905, 40.630450279739897 ], [ -73.761711185009702, 40.630441991067002 ], [ -73.761741352625094, 40.630418954984698 ], [ -73.761767609448498, 40.630391051940101 ], [ -73.761787547045898, 40.630366156685099 ], [ -73.761807769924204, 40.630353371703201 ], [ -73.761843751821203, 40.630349072050102 ], [ -73.761889877623105, 40.630350970365299 ], [ -73.761922390180999, 40.630349658758597 ], [ -73.761969389809593, 40.6303376921188 ], [ -73.761985485537593, 40.630330939666699 ], [ -73.762022636202403, 40.630299734161397 ], [ -73.762026027672306, 40.630275906457001 ], [ -73.762045757070894, 40.630259659592198 ], [ -73.762065724473501, 40.630259916692303 ], [ -73.762084328662098, 40.630268408047201 ], [ -73.762098355574494, 40.630277276418198 ], [ -73.762116998692505, 40.630285767848299 ], [ -73.762150134031103, 40.630281409103198 ], [ -73.762195443603702, 40.630267681660399 ], [ -73.762210466949497, 40.630258318360703 ], [ -73.762223429222502, 40.630239396770101 ], [ -73.762258147973995, 40.630190777355502 ], [ -73.7622773845236, 40.630171071125197 ], [ -73.762295376746707, 40.630157401916897 ], [ -73.762341925091306, 40.630139778236298 ], [ -73.762387736238907, 40.6301043332601 ], [ -73.762435201252103, 40.630070646719503 ], [ -73.762528169242401, 40.630041905797299 ], [ -73.762593913034394, 40.630006716510998 ], [ -73.762650991636207, 40.629975767056003 ], [ -73.762701296068698, 40.629944311725701 ], [ -73.762754540853706, 40.629906352923399 ], [ -73.762810088329601, 40.6298693040074 ], [ -73.762860270643102, 40.629842159386399 ], [ -73.762902084747694, 40.629806238219501 ], [ -73.762956516585405, 40.629768748340403 ], [ -73.763023709403697, 40.629718817376897 ], [ -73.7630892624247, 40.6296671470568 ], [ -73.763108344454807, 40.629662055287604 ], [ -73.7631251864387, 40.6296561051712 ], [ -73.763128104336502, 40.629655370703198 ], [ -73.763157348914305, 40.629684933691301 ], [ -73.763161917478698, 40.629686194210798 ], [ -73.763166636006503, 40.6296870832915 ], [ -73.763171450209796, 40.629687593952902 ], [ -73.763173197357702, 40.629687681986397 ], [ -73.763209109115905, 40.629682448624202 ], [ -73.763219510340505, 40.629680335219398 ], [ -73.763229663048904, 40.6296776135055 ], [ -73.763239511548406, 40.629674300456202 ], [ -73.763248991559294, 40.6296704163776 ], [ -73.763258047816507, 40.629665981762201 ], [ -73.763266626114998, 40.629661028161401 ], [ -73.763314166060198, 40.629637309906499 ], [ -73.763358669030495, 40.629616769442698 ], [ -73.763371075889907, 40.6296106751333 ], [ -73.763384031305307, 40.629605281386098 ], [ -73.763397462842903, 40.629600613683998 ], [ -73.763408650323797, 40.629597397359497 ], [ -73.763420221540301, 40.629595102899501 ], [ -73.763432048198794, 40.629593758184697 ], [ -73.763442833334295, 40.629592449690101 ], [ -73.763453725122702, 40.6295918215827 ], [ -73.763464647458505, 40.629591880742197 ], [ -73.763475526247007, 40.629592625005898 ], [ -73.763486288715995, 40.629594051375904 ], [ -73.763503997510895, 40.6295933588829 ], [ -73.7635217300124, 40.629593546802298 ], [ -73.763539408815902, 40.629594616315103 ], [ -73.763573361466896, 40.629595103955403 ], [ -73.763579341154298, 40.629594910357902 ], [ -73.763591377365401, 40.629592323660603 ], [ -73.763603176358103, 40.629589166204603 ], [ -73.763614689942202, 40.629585447607703 ], [ -73.763620643355196, 40.6295833595331 ], [ -73.7636262071006, 40.629580719485702 ], [ -73.763631292414104, 40.629577569500498 ], [ -73.763633666756206, 40.629575277555404 ], [ -73.763635367842895, 40.629572662569899 ], [ -73.763636323153094, 40.6295698368072 ], [ -73.763636497076504, 40.6295669211503 ], [ -73.763635876637096, 40.629564040549198 ], [ -73.763620292222498, 40.629528283227799 ], [ -73.763619241968499, 40.629525321663898 ], [ -73.7636201027656, 40.6295223606785 ], [ -73.763621697775903, 40.629519584646999 ], [ -73.763623968377601, 40.629517092626401 ], [ -73.7636268275795, 40.6295149849552 ], [ -73.763630166706406, 40.629513337803402 ], [ -73.763633861958198, 40.6295122140749 ], [ -73.763637773565506, 40.629511653354399 ], [ -73.763681519359594, 40.629502453275997 ], [ -73.763735389247003, 40.629493876588299 ], [ -73.763795561445505, 40.629476388035997 ], [ -73.763808897551002, 40.629469530314701 ], [ -73.763822723684001, 40.629463260453399 ], [ -73.763836993594396, 40.629457599298199 ], [ -73.763871986647899, 40.6294472848572 ], [ -73.763926599701193, 40.629431680245503 ], [ -73.763985836067903, 40.629413473819596 ], [ -73.764044090091701, 40.629397463833897 ], [ -73.764066975859905, 40.629391054387703 ], [ -73.764089467197294, 40.629383883377301 ], [ -73.764111522494503, 40.629375964957397 ], [ -73.764133097062398, 40.629367313611702 ], [ -73.764168871676105, 40.629353963880597 ], [ -73.764204959399805, 40.629341111002198 ], [ -73.764241347918897, 40.629328755453599 ], [ -73.764277994018897, 40.629316930316598 ], [ -73.764314917144802, 40.629305608993803 ], [ -73.7643285358848, 40.629301568628897 ], [ -73.764341822945099, 40.629296930172998 ], [ -73.764354731642499, 40.629291712461601 ], [ -73.764367223003205, 40.629285930660103 ], [ -73.764379251438797, 40.629279604946099 ], [ -73.764415882221499, 40.629257216510602 ], [ -73.7644206927298, 40.629254469505497 ], [ -73.764425968344398, 40.629252270771303 ], [ -73.764431599187006, 40.629250663975398 ], [ -73.764437472774205, 40.629249683398498 ], [ -73.764443470960202, 40.6292493477292 ], [ -73.764449468172003, 40.6292496619036 ], [ -73.764459090474801, 40.629250593478297 ], [ -73.764468786545507, 40.629250809853303 ], [ -73.764478464912997, 40.629250310338598 ], [ -73.764488033646799, 40.629249099771897 ], [ -73.764497403664095, 40.629247186012002 ], [ -73.764500717288996, 40.629243284173697 ], [ -73.764504674777001, 40.629239747192699 ], [ -73.764509204896697, 40.6292366338932 ], [ -73.764514232683993, 40.629234001584102 ], [ -73.764519670032598, 40.629231893140101 ], [ -73.764525423138593, 40.629230345895401 ], [ -73.764531392525001, 40.629229384775797 ], [ -73.7645374749913, 40.629229030510899 ], [ -73.764544480260497, 40.629231188059002 ], [ -73.7645510782108, 40.629233993613497 ], [ -73.764557165642898, 40.629237405248297 ], [ -73.764562644901304, 40.629241367813798 ], [ -73.764567434403006, 40.629245820330098 ], [ -73.764571457207893, 40.629250694622698 ], [ -73.764580063913201, 40.629257405710398 ], [ -73.764589341431304, 40.629263574706002 ], [ -73.764599233161604, 40.629269164637002 ], [ -73.764609672821706, 40.6292741403539 ], [ -73.764620598735604, 40.629278469899702 ], [ -73.764631939976795, 40.629282125654299 ], [ -73.764698730983596, 40.629311925934402 ], [ -73.764714392066793, 40.629318725496702 ], [ -73.764729537430298, 40.6293261730099 ], [ -73.764744122739401, 40.629334245097098 ], [ -73.764758099927604, 40.629342916530597 ], [ -73.764791408350305, 40.629364446180098 ], [ -73.764825449864603, 40.629385299998397 ], [ -73.764860198344493, 40.629405466372098 ], [ -73.764876213319596, 40.629412500506902 ], [ -73.764892610583601, 40.629419001337801 ], [ -73.764909359174894, 40.6294249567393 ], [ -73.764926431214505, 40.629430353251898 ], [ -73.764936649469703, 40.6294322774432 ], [ -73.7649470509553, 40.629433497045099 ], [ -73.764957553025994, 40.629434002674301 ], [ -73.764968073673103, 40.629433791482803 ], [ -73.764978528234494, 40.629432864805302 ], [ -73.764988830932793, 40.629431228497502 ], [ -73.7649964226176, 40.629428158293102 ], [ -73.765003592921303, 40.629424547112698 ], [ -73.765010280368003, 40.629420431016797 ], [ -73.765016416007995, 40.629415845380997 ], [ -73.765021949335605, 40.629410833157102 ], [ -73.765026828953296, 40.629405440813301 ], [ -73.765031005872203, 40.629399717670601 ], [ -73.765034446486396, 40.629393715762198 ], [ -73.765036749684498, 40.629388944041999 ], [ -73.765038265878502, 40.629383991624699 ], [ -73.765038973908204, 40.629378935530603 ], [ -73.765038859220297, 40.6293738497777 ], [ -73.765037925709294, 40.629368814955797 ], [ -73.765036188507693, 40.6293639048084 ], [ -73.765033672414603, 40.629359195612203 ], [ -73.765030416987699, 40.629354756134802 ], [ -73.765026469915298, 40.6293506566685 ], [ -73.765020302545196, 40.629344583525402 ], [ -73.7650135374966, 40.629338891797197 ], [ -73.765006217531194, 40.629333614574598 ], [ -73.764998386520801, 40.629328781934802 ], [ -73.764990088993201, 40.629324424961702 ], [ -73.764981373458795, 40.629320567710998 ], [ -73.764972295021707, 40.629317235089601 ], [ -73.764962905517095, 40.629314443621197 ], [ -73.764951087832401, 40.629310641007301 ], [ -73.764939659183895, 40.629306199058199 ], [ -73.764928682603696, 40.629301139346602 ], [ -73.764918212305503, 40.629295489961002 ], [ -73.764908305138903, 40.629289279665102 ], [ -73.764863646320407, 40.629262820072299 ], [ -73.764854121641505, 40.629256084177001 ], [ -73.764844060758193, 40.629249819114101 ], [ -73.764833507355107, 40.629244045579 ], [ -73.764824908736898, 40.6292384648468 ], [ -73.764815687650895, 40.629233498678303 ], [ -73.7648059180665, 40.629229184751303 ], [ -73.764795677032495, 40.629225560414604 ], [ -73.764785046472895, 40.629222652305401 ], [ -73.764774860121193, 40.629219048349697 ], [ -73.764765169750802, 40.629214720341302 ], [ -73.764756067799198, 40.629209706665897 ], [ -73.764747634359694, 40.6292040543958 ], [ -73.764744458101106, 40.629201491400003 ], [ -73.764741888059703, 40.629198557897197 ], [ -73.764740002430202, 40.629195340492402 ], [ -73.764738848622997, 40.629191925727703 ], [ -73.764738462571998, 40.629188412184 ], [ -73.764738853818301, 40.629184900230698 ], [ -73.764740012342301, 40.629181487517002 ], [ -73.764744263565703, 40.629176333801198 ], [ -73.764749116821307, 40.629171497444702 ], [ -73.764754533687906, 40.629167024104397 ], [ -73.764760465011506, 40.629162947520598 ], [ -73.764766863174003, 40.629159302441899 ], [ -73.764773675291707, 40.629156120255402 ], [ -73.764780840356593, 40.629153429148801 ], [ -73.764800344515507, 40.629148711217901 ], [ -73.764819460277295, 40.629143140435303 ], [ -73.764838118528502, 40.6291367360934 ], [ -73.764907774748195, 40.629112003460499 ], [ -73.764935137569907, 40.629098883229197 ], [ -73.764962989677201, 40.629086373965798 ], [ -73.764991307722795, 40.629074487014101 ], [ -73.765020065497595, 40.629063234549797 ], [ -73.765049246042807, 40.629052624579302 ], [ -73.765078816130995, 40.629042664238298 ], [ -73.765102261418093, 40.629035843607497 ], [ -73.765125417716106, 40.629028475566002 ], [ -73.765148265429602, 40.629020567277699 ], [ -73.765170785622999, 40.629012125740402 ], [ -73.765192950996706, 40.629003160447702 ], [ -73.765214744155102, 40.628993678232902 ], [ -73.765236141530707, 40.628983690272598 ], [ -73.765257129022103, 40.628973204579701 ], [ -73.765295664518106, 40.628955921354297 ], [ -73.765333824788399, 40.628938160226902 ], [ -73.765371598160996, 40.6289199261997 ], [ -73.765471860411594, 40.628860530713297 ], [ -73.765538669021794, 40.628827096450401 ], [ -73.7655928926537, 40.628789574744097 ], [ -73.765649026411694, 40.628750602583999 ], [ -73.765682988436495, 40.6287293875438 ], [ -73.765729947306298, 40.628698570733903 ], [ -73.7657769312017, 40.6286706354594 ], [ -73.765813182709906, 40.628653210703803 ], [ -73.765851742026001, 40.628635186191197 ], [ -73.765896412381196, 40.628619482494699 ], [ -73.765941469678793, 40.628606108728 ], [ -73.765974302644594, 40.628598250255401 ], [ -73.766074312479205, 40.628563653591499 ], [ -73.766121679227993, 40.628539530916299 ], [ -73.766194202465201, 40.628498811661999 ], [ -73.766399997651305, 40.628358382245402 ], [ -73.766462977677705, 40.628298766902198 ], [ -73.766496971792805, 40.628258624061097 ], [ -73.766531345516796, 40.628213541374699 ], [ -73.766672236099595, 40.628009108611799 ], [ -73.766685941831895, 40.627992143427598 ], [ -73.766698995316503, 40.627974882569298 ], [ -73.766711386830394, 40.627957339922297 ], [ -73.766723107737604, 40.627939532892299 ], [ -73.766734145682307, 40.627921473684097 ], [ -73.766744491374993, 40.627903178026799 ], [ -73.766754137503696, 40.627884661988602 ], [ -73.766763078954398, 40.627865941977099 ], [ -73.766771300505894, 40.627847032201601 ], [ -73.766778800568005, 40.627827947401599 ], [ -73.7668467745181, 40.627673505824198 ], [ -73.766851338950801, 40.627665417887201 ], [ -73.766855144913194, 40.627657105095402 ], [ -73.766858174228602, 40.6276486094619 ], [ -73.766860412022893, 40.627639971666198 ], [ -73.766861848247899, 40.627631235748197 ], [ -73.7668624732963, 40.6276224454135 ], [ -73.766862284381801, 40.627613643041499 ], [ -73.766861286852503, 40.627604871362998 ], [ -73.766862503700807, 40.627599326600603 ], [ -73.766864427726901, 40.627593897359603 ], [ -73.766867038507201, 40.627588639218303 ], [ -73.766870307736099, 40.627583598189901 ], [ -73.766874209287096, 40.627578825820201 ], [ -73.766878702985096, 40.6275743669256 ], [ -73.766883746472502, 40.627570261627298 ], [ -73.766889290786494, 40.627566552545701 ], [ -73.766895285237595, 40.627563273084 ], [ -73.766915684024397, 40.627560918268998 ], [ -73.766935925132898, 40.627557876930702 ], [ -73.766955968305595, 40.627554154348601 ], [ -73.766975775922305, 40.6275497561425 ], [ -73.766995308799906, 40.627544694797997 ], [ -73.767001428001194, 40.627536037558201 ], [ -73.767006727668601, 40.627527074424201 ], [ -73.767011180181001, 40.627517844374303 ], [ -73.767014764471, 40.627508398629899 ], [ -73.767017461029397, 40.627498783054598 ], [ -73.767019256055406, 40.627489045868899 ], [ -73.767020141236699, 40.627479237817397 ], [ -73.767017533079795, 40.627457545865397 ], [ -73.767015921403399, 40.6274357983024 ], [ -73.767015308753301, 40.627414021435797 ], [ -73.767015697457097, 40.627392241069998 ], [ -73.767017084782907, 40.627370483668798 ], [ -73.767016486905007, 40.627362804757297 ], [ -73.767016714063303, 40.6273551142827 ], [ -73.767017763889697, 40.627347460656402 ], [ -73.767019633330804, 40.627339899659397 ], [ -73.767022303522793, 40.627332481009603 ], [ -73.767025761104904, 40.627325252760699 ], [ -73.767029984578201, 40.627318263620303 ], [ -73.767034939253705, 40.627311561598702 ], [ -73.767040599478307, 40.627305188693903 ], [ -73.767046921116901, 40.6272991903841 ], [ -73.767053865556505, 40.627293604955398 ], [ -73.767061385386199, 40.627288471513303 ], [ -73.767070589984201, 40.627275640664998 ], [ -73.767078983664305, 40.6272624925478 ], [ -73.767086558400095, 40.627249058976403 ], [ -73.767093290351497, 40.627235366707197 ], [ -73.767099166212702, 40.6272214482142 ], [ -73.767104174889198, 40.627207332457502 ], [ -73.767124991853095, 40.627148238960103 ], [ -73.767146513638806, 40.627089294144398 ], [ -73.767168736725296, 40.627030498337902 ], [ -73.767213917509295, 40.6269571307406 ], [ -73.767259922146394, 40.626884060649601 ], [ -73.767306742701194, 40.626811293073899 ], [ -73.767354375422798, 40.6267388311879 ], [ -73.767402818301207, 40.626666683362998 ], [ -73.767414443055401, 40.6266403853461 ], [ -73.767426835792605, 40.626614289749298 ], [ -73.767439990072006, 40.6265884148197 ], [ -73.767453899275907, 40.626562766407503 ], [ -73.767468543384993, 40.626537347319697 ], [ -73.767483928019502, 40.626512185042401 ], [ -73.767500047211897, 40.626487288274603 ], [ -73.767516888158895, 40.626462671230101 ], [ -73.767722520758895, 40.626198863652597 ], [ -73.767759046385606, 40.626121591167703 ], [ -73.7677736324855, 40.626020646525603 ], [ -73.767773681029098, 40.626004419901797 ], [ -73.767770428987703, 40.625966837010203 ], [ -73.767770483474294, 40.625948902604499 ], [ -73.767775014063901, 40.625933539265802 ], [ -73.767778396877404, 40.625926712075199 ], [ -73.767782900616396, 40.625919886646003 ], [ -73.767852399869895, 40.625835202216898 ], [ -73.767934835150896, 40.6257348342981 ], [ -73.768143146641293, 40.625471317838397 ], [ -73.768155526614606, 40.625457677102403 ], [ -73.768170150287403, 40.625443185484798 ], [ -73.768234230046701, 40.625391210046303 ], [ -73.7682578503386, 40.6253690494705 ], [ -73.768269104851996, 40.625356260015501 ], [ -73.768278117092095, 40.625343466040199 ], [ -73.768283764721303, 40.625331518844803 ], [ -73.768288293518097, 40.6253187158323 ], [ -73.768291748627306, 40.625292243110799 ], [ -73.768294156727904, 40.625244415493803 ], [ -73.7682953460655, 40.6252247710567 ], [ -73.768302282289099, 40.625164139251901 ], [ -73.7683068288584, 40.625146212222297 ], [ -73.768312487448597, 40.625130847784199 ], [ -73.768327150215001, 40.625105253051402 ], [ -73.768347422791507, 40.625077961156002 ], [ -73.768367687997397, 40.625053231770899 ], [ -73.768419451830397, 40.624996960086101 ], [ -73.768443087501197, 40.624969674947998 ], [ -73.768459975324205, 40.624949208061402 ], [ -73.768501607155002, 40.624904875517302 ], [ -73.7685155936055, 40.624887926592201 ], [ -73.7685647740375, 40.624809483666503 ], [ -73.768605454396905, 40.624740965807398 ], [ -73.768618516158895, 40.624671075404102 ], [ -73.768624961506205, 40.624593569201998 ], [ -73.768623138017503, 40.624581923751101 ], [ -73.768622062502502, 40.624570224353299 ], [ -73.768621736402906, 40.624558498989003 ], [ -73.768622164020499, 40.624546775141503 ], [ -73.768636866143794, 40.624501177030702 ], [ -73.768659298169496, 40.624457444390202 ], [ -73.768689071724793, 40.624416334348297 ], [ -73.768725671338501, 40.624378558627797 ], [ -73.768754247324196, 40.6243659678643 ], [ -73.768775267657404, 40.624346575087003 ], [ -73.768786093674294, 40.624322814660701 ], [ -73.768785366403094, 40.624297669216503 ], [ -73.7687824698627, 40.624230949354697 ], [ -73.768781074492395, 40.624194535327703 ], [ -73.768807717068299, 40.624164286091499 ], [ -73.7688234332836, 40.624140945073798 ], [ -73.768830519678204, 40.624115273168101 ], [ -73.768828475113907, 40.624089085885402 ], [ -73.768817444191995, 40.624064235182097 ], [ -73.768806912583401, 40.624038718723902 ], [ -73.768806729975907, 40.624011970584498 ], [ -73.7688169126139, 40.623986372025499 ], [ -73.768836553974893, 40.623964201964299 ], [ -73.768844121812904, 40.623947538964302 ], [ -73.768836669500203, 40.623930845763702 ], [ -73.768758848794405, 40.623828235685302 ], [ -73.768753256495202, 40.623792418143303 ], [ -73.768771596262098, 40.62375916485 ], [ -73.768668966395893, 40.6235969394112 ], [ -73.768641202803494, 40.6234872819863 ], [ -73.768644495591502, 40.623439635557801 ], [ -73.768585427317504, 40.623321601202399 ], [ -73.768554627155396, 40.623197476272402 ], [ -73.768554456286395, 40.623195456361998 ], [ -73.7685538954061, 40.623179350300397 ], [ -73.7685541392608, 40.623163238822599 ], [ -73.768555190841099, 40.623147147064003 ], [ -73.768557046110203, 40.623131097632999 ], [ -73.768559703011604, 40.623115112806801 ], [ -73.768565823785394, 40.623094475962098 ], [ -73.768572710308305, 40.623073979037798 ], [ -73.768580360096806, 40.623053640624398 ], [ -73.7685887643039, 40.6230334756142 ], [ -73.7685979178151, 40.623013500414601 ], [ -73.768607813537301, 40.622993731428899 ], [ -73.768618441738795, 40.622974185055398 ], [ -73.768628329035806, 40.622934389925803 ], [ -73.768637491107299, 40.622894494660997 ], [ -73.768645927269603, 40.622854506631001 ], [ -73.768653635960902, 40.622814432701503 ], [ -73.768660615829802, 40.622774282586597 ], [ -73.768664498559701, 40.6227571869915 ], [ -73.768669184262606, 40.622740211622698 ], [ -73.768674662545706, 40.622723373379898 ], [ -73.768680930687694, 40.6227066960464 ], [ -73.768687977841296, 40.622690200709101 ], [ -73.768695796465096, 40.622673906283502 ], [ -73.768704374380803, 40.622657837371698 ], [ -73.768713702950507, 40.622642012049397 ], [ -73.768723767588298, 40.622626451730802 ], [ -73.768734558328006, 40.622611177169198 ], [ -73.768746060380806, 40.622596204920299 ], [ -73.768753106224594, 40.622585029638898 ], [ -73.768760848547402, 40.622574123637399 ], [ -73.768769268559794, 40.622563516028102 ], [ -73.768778349479604, 40.622553227550597 ], [ -73.768788066154798, 40.622543283451101 ], [ -73.768798401134006, 40.622533707316101 ], [ -73.768809325546499, 40.622524518855798 ], [ -73.768820817760201, 40.622515742653199 ], [ -73.768832850894299, 40.622507395239701 ], [ -73.768845393208906, 40.622499499502702 ], [ -73.768858421784799, 40.622492070808804 ], [ -73.7688719024748, 40.622485128857399 ], [ -73.768885805771404, 40.622478686824103 ], [ -73.769114413633702, 40.6223084546845 ], [ -73.769151342041496, 40.6222849015058 ], [ -73.769187656256705, 40.6222608004338 ], [ -73.769223343267697, 40.622236162834902 ], [ -73.769258388095295, 40.622210996888597 ], [ -73.769292781914103, 40.622185311456903 ], [ -73.769326506, 40.622159116889399 ], [ -73.769340611934496, 40.622148402035897 ], [ -73.769354146135001, 40.622137265534903 ], [ -73.769367085659994, 40.6221257292869 ], [ -73.769379410454604, 40.622113806989297 ], [ -73.769391102634202, 40.622101520552803 ], [ -73.769402141031307, 40.622088887525599 ], [ -73.7694125106256, 40.622075928149002 ], [ -73.769422191767802, 40.622062666005199 ], [ -73.769431171425495, 40.6220491186589 ], [ -73.769439435226403, 40.6220353097032 ], [ -73.769440462393106, 40.622032010931903 ], [ -73.769442256209103, 40.622028907864603 ], [ -73.769444761565197, 40.622026105599403 ], [ -73.769447890860505, 40.622023695263799 ], [ -73.769451543779894, 40.622021757070797 ], [ -73.769455596091802, 40.622020357112902 ], [ -73.769459915061901, 40.622019540691902 ], [ -73.769464355924001, 40.622019335494699 ], [ -73.769468773110304, 40.622019746757999 ], [ -73.769473018039605, 40.622020760948999 ], [ -73.769476951864704, 40.622022347131399 ], [ -73.769480443296004, 40.6220244505949 ], [ -73.769483373850207, 40.622027000907302 ], [ -73.769490955018298, 40.622094856626298 ], [ -73.769492592766198, 40.622102120465698 ], [ -73.769495014769007, 40.622109257382398 ], [ -73.769498206037994, 40.622116214742299 ], [ -73.769502144521297, 40.622122947938102 ], [ -73.769506800925598, 40.622129408159999 ], [ -73.769512144840704, 40.622135551789498 ], [ -73.769516249377901, 40.622133037026202 ], [ -73.769519799860802, 40.622130075356303 ], [ -73.769522716901605, 40.622126735307702 ], [ -73.769524930536406, 40.6221230941388 ], [ -73.769526388354905, 40.6221192395301 ], [ -73.769527055535505, 40.622115259197003 ], [ -73.769526919437595, 40.622111248270897 ], [ -73.769525979298095, 40.6221073003993 ], [ -73.769524259646403, 40.6221035069347 ], [ -73.769527837358794, 40.622083489656099 ], [ -73.7695323102148, 40.622063576867298 ], [ -73.769537672419901, 40.622043791005702 ], [ -73.769543919484505, 40.622024158531701 ], [ -73.769551042768001, 40.622004698358502 ], [ -73.769559034268397, 40.621985435432101 ], [ -73.769567884453494, 40.621966392182003 ], [ -73.769577584018407, 40.621947588860301 ], [ -73.769577513769406, 40.621938068192499 ], [ -73.769578275647802, 40.621928563935199 ], [ -73.769579865991503, 40.621919117795798 ], [ -73.769582280025105, 40.6219097755001 ], [ -73.769585502663702, 40.621900575884801 ], [ -73.769589524310405, 40.6218915601427 ], [ -73.769594323276294, 40.6218827694426 ], [ -73.769599881404005, 40.621874240939398 ], [ -73.769606171955303, 40.621866013613896 ], [ -73.769613169520497, 40.621858123768803 ], [ -73.769630927249395, 40.621848499777698 ], [ -73.769648112711295, 40.6218382901273 ], [ -73.769664687811897, 40.621827511494402 ], [ -73.7696806243342, 40.6218161854339 ], [ -73.769695886802893, 40.621804334324104 ], [ -73.769710450070704, 40.621791982239003 ], [ -73.769716007482401, 40.621784929327497 ], [ -73.769720817331901, 40.621777565324003 ], [ -73.769724851539905, 40.621769935740403 ], [ -73.769728085319102, 40.621762087770399 ], [ -73.769730497617005, 40.621754069452699 ], [ -73.769732073305903, 40.621745932188702 ], [ -73.769732802539295, 40.62173772605 ], [ -73.769732681846307, 40.621729501288399 ], [ -73.7697317114946, 40.621721307828203 ], [ -73.769729896576393, 40.621713199289097 ], [ -73.769727248353504, 40.621705225282099 ], [ -73.769731113308694, 40.6216710700973 ], [ -73.769746678706596, 40.6216419466381 ], [ -73.769791318803698, 40.621613630090501 ], [ -73.769795458191197, 40.6216093492922 ], [ -73.769798974675993, 40.621604758824901 ], [ -73.769801826976007, 40.621599907356902 ], [ -73.769803985655201, 40.621594851286901 ], [ -73.769805422807806, 40.621589649529298 ], [ -73.769806124822495, 40.621584360021998 ], [ -73.769806081813002, 40.6215790443961 ], [ -73.769805295336198, 40.621573761290001 ], [ -73.769803772873601, 40.621568572704497 ], [ -73.769801533128302, 40.621563538149999 ], [ -73.769814688342194, 40.621542701721999 ], [ -73.769806529273595, 40.621523887415499 ], [ -73.7698066013063, 40.621503000666401 ], [ -73.769803911165596, 40.6214883743203 ], [ -73.769806723763807, 40.6214674925561 ], [ -73.769820494924005, 40.621448721490097 ], [ -73.769823357933205, 40.621413219369401 ], [ -73.7698169483496, 40.621385598195801 ], [ -73.769616241191898, 40.621155215829198 ], [ -73.769667607178803, 40.621029559634998 ], [ -73.769730533218905, 40.620917225725599 ], [ -73.769808467690098, 40.6208049206613 ], [ -73.769914069358606, 40.620648830990497 ], [ -73.769989639820395, 40.620496493102998 ], [ -73.770113033588501, 40.6202584757526 ], [ -73.770176192878196, 40.620077522015002 ], [ -73.770181413594997, 40.620014630352998 ], [ -73.770166712722798, 40.619925013941803 ], [ -73.770124768456299, 40.6198809440574 ], [ -73.770169516580907, 40.619837338507402 ], [ -73.770189659058602, 40.619799256787701 ], [ -73.770247931982297, 40.6198261097854 ], [ -73.770394694297295, 40.619824445423298 ], [ -73.770527245200697, 40.619832334016401 ], [ -73.770712268769898, 40.619857483310298 ], [ -73.770877189198202, 40.619909277162002 ], [ -73.771094555030899, 40.6199859541561 ], [ -73.771241926229493, 40.620049149602302 ], [ -73.7714066841272, 40.6201485954359 ], [ -73.771482089278294, 40.620207334235502 ], [ -73.771546357615406, 40.6202742396909 ], [ -73.771624968742202, 40.6203656995717 ], [ -73.771655914792305, 40.620424673760198 ], [ -73.771711398752799, 40.620677509913698 ], [ -73.771718362432097, 40.620969925846403 ], [ -73.771565195835095, 40.621368773915897 ], [ -73.771477460371102, 40.621606519405603 ], [ -73.771412056457706, 40.621690574059301 ], [ -73.771307001029996, 40.621784354795501 ], [ -73.771239630268695, 40.621898560389099 ], [ -73.771144921614194, 40.622050662789697 ], [ -73.771072548561506, 40.622145010116 ], [ -73.771042487130899, 40.622219754960099 ], [ -73.771029988266605, 40.622276155967299 ], [ -73.770974451665296, 40.622346210660901 ], [ -73.770916367910601, 40.622412135511397 ], [ -73.770905008008, 40.6224557304839 ], [ -73.770926322080598, 40.622515280724997 ], [ -73.770908722508196, 40.622579656338203 ], [ -73.770952365301099, 40.622660552926803 ], [ -73.770929800056805, 40.622710443609897 ], [ -73.770891581761902, 40.622763812499898 ], [ -73.770868766863003, 40.622834590065601 ], [ -73.770834070231103, 40.622919798542497 ], [ -73.770812656616101, 40.622957994262698 ], [ -73.770840717666999, 40.622997100454803 ], [ -73.770891816877196, 40.623012446465502 ], [ -73.770912824908606, 40.6230863262209 ], [ -73.770887136775499, 40.623166943092301 ], [ -73.770839751133394, 40.623211438929502 ], [ -73.770822064232405, 40.623291244976798 ], [ -73.770861380333699, 40.623338785916701 ], [ -73.770926027427805, 40.623375148329401 ], [ -73.770970120151702, 40.623348852651603 ], [ -73.770986745643995, 40.623332021094498 ], [ -73.771019292972696, 40.623328559432203 ], [ -73.771069778022493, 40.623344331674403 ], [ -73.771093416492903, 40.623336771235699 ], [ -73.771104142273998, 40.623311270333197 ], [ -73.771087828770305, 40.623289840501201 ], [ -73.771084739145493, 40.623263887739199 ], [ -73.771101327445606, 40.623238781146902 ], [ -73.771147599210295, 40.623232915419997 ], [ -73.771173758347999, 40.623252311266 ], [ -73.771253318564106, 40.623293025099002 ], [ -73.771295785612494, 40.623292590749699 ], [ -73.771358878670696, 40.623305904490799 ], [ -73.771420140407301, 40.6232895114359 ], [ -73.771440204650503, 40.623292863717097 ], [ -73.771457575965997, 40.623301219936501 ], [ -73.771556472703793, 40.623370465219999 ], [ -73.7716042946697, 40.623414758663998 ], [ -73.771656593285996, 40.623489947693599 ], [ -73.7717289709705, 40.623593275594203 ], [ -73.771788789189202, 40.623512328412502 ], [ -73.771689177512897, 40.6234660052856 ], [ -73.771700452160999, 40.623447235741899 ], [ -73.771803419028799, 40.623496127377699 ], [ -73.771807922786095, 40.623490157027497 ], [ -73.771974551428102, 40.623280363802202 ], [ -73.771871581850505, 40.623232325874802 ], [ -73.771882861581503, 40.623211849534101 ], [ -73.771988066623194, 40.623261599176701 ], [ -73.772146837267698, 40.623054352642498 ], [ -73.772032682494597, 40.6229994603395 ], [ -73.772074336334001, 40.622947437281503 ], [ -73.772150414999004, 40.6229849712564 ], [ -73.772189608511795, 40.623004041227098 ], [ -73.772725551270995, 40.6223166461589 ], [ -73.773086996637701, 40.621845007267197 ], [ -73.773474744159998, 40.621352272661397 ], [ -73.773638660563606, 40.621143970874002 ], [ -73.774116032742597, 40.620530766588203 ], [ -73.774561864011005, 40.619960205376302 ], [ -73.775034591539395, 40.619351424806297 ], [ -73.775120280831899, 40.619242093574201 ], [ -73.775181828983804, 40.619272963978197 ], [ -73.775159311821099, 40.619301962166098 ], [ -73.775120145578995, 40.619282239886601 ], [ -73.775065978736095, 40.619351486224701 ], [ -73.774954650740497, 40.619494602468897 ], [ -73.775007251346196, 40.6195194761575 ], [ -73.774995984055494, 40.619536536071898 ], [ -73.774941137825394, 40.619512512716902 ], [ -73.774767774823601, 40.619730840087499 ], [ -73.774821496586895, 40.619755716056801 ], [ -73.774810223445598, 40.619774484238498 ], [ -73.774757626250505, 40.619748757407798 ], [ -73.774584255388106, 40.619968792277803 ], [ -73.774635744060305, 40.619991100252101 ], [ -73.774623358426197, 40.620007306050198 ], [ -73.774572993679399, 40.619984144869299 ], [ -73.774399618931994, 40.620205033012397 ], [ -73.774452228549606, 40.6202273444406 ], [ -73.774439845059902, 40.620242694315301 ], [ -73.774387241866194, 40.620218675099601 ], [ -73.774216102003095, 40.620441275143399 ], [ -73.774270956736004, 40.620462738003702 ], [ -73.774258577368997, 40.620477233634404 ], [ -73.774204843676898, 40.620455774142897 ], [ -73.774030346778702, 40.620675806459502 ], [ -73.774085200954303, 40.620698122968598 ], [ -73.774072808619295, 40.620716035315297 ], [ -73.774017958860199, 40.620692865749398 ], [ -73.773846833912401, 40.620910340710701 ], [ -73.773898315039801, 40.620935212699301 ], [ -73.7738870501164, 40.620951419448701 ], [ -73.773834451475906, 40.620925690521702 ], [ -73.773662197814602, 40.621144871951799 ], [ -73.773718163092695, 40.621169752848701 ], [ -73.773703527084706, 40.621188514971003 ], [ -73.7736498045833, 40.6211636389855 ], [ -73.773502041495107, 40.621352155733497 ], [ -73.773478674329994, 40.621381967614603 ], [ -73.773532397601301, 40.621406844183397 ], [ -73.773522247118507, 40.621424762561603 ], [ -73.773467402768105, 40.621399883778999 ], [ -73.773294034970405, 40.621616499424199 ], [ -73.773351116438107, 40.621643090996102 ], [ -73.773337602653797, 40.6216610022243 ], [ -73.773285000982597, 40.6216361277773 ], [ -73.773110508879498, 40.621853594990199 ], [ -73.773164231733602, 40.6218784717285 ], [ -73.773152967132404, 40.621894678405702 ], [ -73.773099243609906, 40.6218698016608 ], [ -73.772926982851303, 40.6220898361954 ], [ -73.772982950012306, 40.622113863720799 ], [ -73.772966071648895, 40.622132621320297 ], [ -73.772914589945401, 40.622107748917301 ], [ -73.772745689629204, 40.622328643377003 ], [ -73.772794930861494, 40.6223526566922 ], [ -73.772782551698896, 40.622367153335603 ], [ -73.772729942320098, 40.622343987588899 ], [ -73.772558808061206, 40.622561461096097 ], [ -73.772610289982097, 40.622586333657303 ], [ -73.772597901347893, 40.622603392288198 ], [ -73.772547538253605, 40.622579376669897 ], [ -73.772374157925498, 40.622797698012398 ], [ -73.772426761706001, 40.6228225745514 ], [ -73.772413253263693, 40.622838776210799 ], [ -73.772362890062297, 40.622814759339498 ], [ -73.772210875938399, 40.623013479418901 ], [ -73.772404504699693, 40.623103549240298 ], [ -73.772363969925195, 40.623155572957401 ], [ -73.772170347558401, 40.623063794784301 ], [ -73.772155712956405, 40.623081702478203 ], [ -73.772005973943394, 40.623270176007097 ], [ -73.772156012353193, 40.623335042115102 ], [ -73.772186192088, 40.623348262190198 ], [ -73.772171550937202, 40.623367878169397 ], [ -73.772154971813606, 40.623361099241599 ], [ -73.771998060233301, 40.623289806478503 ], [ -73.771822446610699, 40.623504706962599 ], [ -73.771820196522299, 40.623507265025502 ], [ -73.771825791522303, 40.623509838658897 ], [ -73.772000413110902, 40.623585351493901 ], [ -73.771989132689299, 40.623605829016697 ], [ -73.771857064546396, 40.623544067493597 ], [ -73.7718145359608, 40.623523482692498 ], [ -73.771740343278495, 40.623613973136997 ], [ -73.771861698359899, 40.623772853576803 ], [ -73.772556730861893, 40.624457173871399 ], [ -73.772662856577597, 40.6245791507828 ], [ -73.7730028756027, 40.624847710213402 ], [ -73.773236741750907, 40.625002410266802 ], [ -73.773370731000895, 40.625074441677697 ], [ -73.773441099174505, 40.625035798507497 ], [ -73.773488052160801, 40.625067475994101 ], [ -73.773487534222397, 40.625093366124801 ], [ -73.773486972962402, 40.625121396021797 ], [ -73.773495984923997, 40.625150817179701 ], [ -73.773580342011101, 40.625169578258998 ], [ -73.773644783892394, 40.6252168388516 ], [ -73.7736258654963, 40.625245090097501 ], [ -73.773660521528697, 40.625267376903501 ], [ -73.773685005430906, 40.625339749510601 ], [ -73.774076633159098, 40.625791730252203 ], [ -73.776543669442106, 40.627659972926502 ], [ -73.779470347702599, 40.627323752647598 ], [ -73.781363330198005, 40.624850993089197 ], [ -73.784196204272007, 40.620900916008502 ], [ -73.789559516678494, 40.622800241206903 ], [ -73.789401434819297, 40.622882773844999 ], [ -73.789242422695494, 40.622954531255999 ], [ -73.789164078793803, 40.623007997473501 ], [ -73.789022997941402, 40.6231238918879 ], [ -73.788975659415001, 40.623260806749698 ], [ -73.788825171778498, 40.623400870354601 ], [ -73.7884316555471, 40.623647636649103 ], [ -73.788229934871197, 40.623773375579098 ], [ -73.7859419560086, 40.625855252693803 ], [ -73.785364580255603, 40.626714904040199 ], [ -73.784981333550704, 40.626553233396798 ], [ -73.784880259923796, 40.6266397179119 ], [ -73.783632161704205, 40.628150769413502 ], [ -73.783285530345196, 40.628962596633301 ], [ -73.783368365023605, 40.629455958478502 ], [ -73.783491129791997, 40.630173363666898 ], [ -73.783778659151395, 40.630642363678 ], [ -73.784349014388397, 40.631381569089399 ], [ -73.785013277112895, 40.631736437381598 ], [ -73.785704311169695, 40.6321032377313 ], [ -73.785709090806705, 40.632102772867 ], [ -73.785941120502997, 40.632080154906603 ], [ -73.786496429188901, 40.632238019594901 ], [ -73.786908040345907, 40.632270148969297 ], [ -73.787431975217103, 40.632584785360002 ], [ -73.7878010976154, 40.633032438650702 ], [ -73.788324768427799, 40.633433327982701 ], [ -73.789228394028399, 40.633955502782896 ], [ -73.789285942389796, 40.633976225096902 ], [ -73.789337162920106, 40.634005015347903 ], [ -73.789380131614806, 40.634040792088797 ], [ -73.789413234425496, 40.634082211436898 ], [ -73.789435227889101, 40.634127717553497 ], [ -73.789445285838397, 40.634175601085097 ], [ -73.789443030438406, 40.6342240633712 ], [ -73.789428546383107, 40.634271284007603 ], [ -73.789498005172206, 40.634278028249803 ], [ -73.7895358436501, 40.634204511228802 ], [ -73.7895972536393, 40.634140895330702 ], [ -73.789678093932295, 40.634091470457598 ], [ -73.789772913087404, 40.634059569539303 ], [ -73.790057402291097, 40.6340155980795 ], [ -73.790345017572605, 40.633985673999703 ], [ -73.790505473139007, 40.633951703279799 ], [ -73.7906580818169, 40.633900911962002 ], [ -73.790749937037305, 40.6338601729178 ], [ -73.790781539041902, 40.633857320946902 ], [ -73.790811284673197, 40.6338659366751 ], [ -73.790832417283198, 40.633884063060798 ], [ -73.790840136640995, 40.633907582738402 ], [ -73.790785389048906, 40.634011161555698 ], [ -73.7907057446496, 40.6341048986828 ], [ -73.790685954614801, 40.634119126418597 ], [ -73.790672377301306, 40.634137091474599 ], [ -73.790666798879897, 40.634173514700898 ], [ -73.790675067590001, 40.634194163470497 ], [ -73.790725223506598, 40.6342490037716 ], [ -73.790794217855904, 40.634290292210203 ], [ -73.793566717438907, 40.633110187552198 ], [ -73.793567460580107, 40.633109871586399 ], [ -73.795780863150696, 40.632166724007902 ], [ -73.798038895349293, 40.631204487452102 ], [ -73.797969672013494, 40.631109555103102 ], [ -73.798120099280695, 40.6310457568717 ], [ -73.798277531234902, 40.631260427013103 ], [ -73.798124856876001, 40.631325929295699 ], [ -73.798056749360299, 40.631232706248802 ], [ -73.795820015766296, 40.632185944459003 ], [ -73.793651549140407, 40.633110022523397 ], [ -73.793650803800602, 40.6331103384858 ], [ -73.791196235021204, 40.634156468135998 ], [ -73.790812487379, 40.634318604018198 ], [ -73.791082702682402, 40.634240882848601 ], [ -73.791210753574504, 40.6343008186021 ], [ -73.791310152921099, 40.634409549162903 ], [ -73.791309745580804, 40.6345398076203 ], [ -73.791252259656602, 40.634697100330101 ], [ -73.791230360137902, 40.6348653126703 ], [ -73.791748454556298, 40.635501269462701 ], [ -73.791883547511006, 40.635588353893702 ], [ -73.791975978450907, 40.635648223802903 ], [ -73.792224555797006, 40.6358983370489 ], [ -73.792870878730497, 40.636017969570602 ], [ -73.793086134838205, 40.636073189862898 ], [ -73.7932266929121, 40.636090480739497 ], [ -73.793306885598398, 40.636100346456999 ], [ -73.793435067781402, 40.636094939612903 ], [ -73.793591714638694, 40.636181760363399 ], [ -73.793741237560496, 40.636279432209101 ], [ -73.793912124224406, 40.636371680369301 ], [ -73.7939472099889, 40.6363944569963 ], [ -73.794104368999299, 40.636496481552697 ], [ -73.794261019450602, 40.636572452380499 ], [ -73.794431921860195, 40.636610450048799 ], [ -73.794451508623695, 40.636607208363301 ], [ -73.794595717170594, 40.636583346402098 ], [ -73.794745250603498, 40.636637616221201 ], [ -73.794873406894993, 40.636762407573599 ], [ -73.794959730387504, 40.636821612988697 ], [ -73.795158215996395, 40.6369577429573 ], [ -73.795435914747998, 40.6371096781562 ], [ -73.795585462723494, 40.6371096969972 ], [ -73.795799085723104, 40.637191097421002 ], [ -73.795912996956901, 40.637332160863302 ], [ -73.796083893663607, 40.6374135562817 ], [ -73.796347362549398, 40.637516661500001 ], [ -73.796617945259499, 40.637668592112398 ], [ -73.796689150004994, 40.637717425568702 ], [ -73.796817332310397, 40.637728289216597 ], [ -73.796909908333902, 40.637744574069202 ], [ -73.796952613002006, 40.637863929435703 ], [ -73.797066541286199, 40.637939891837803 ], [ -73.797258805830495, 40.638015862768 ], [ -73.7975009289474, 40.638043013788902 ], [ -73.797650477739197, 40.638048454864602 ], [ -73.797864108119697, 40.638119001769397 ], [ -73.798020762410601, 40.638222092066499 ], [ -73.798234390142397, 40.638314338635404 ], [ -73.798383939281905, 40.638314352828999 ], [ -73.798498383215204, 40.638314365125801 ], [ -73.798526369469698, 40.638314367590198 ], [ -73.798553476290294, 40.638337603599297 ], [ -73.798640296852398, 40.638412028112398 ], [ -73.798747115927299, 40.638428312800499 ], [ -73.798772734519105, 40.638430090218499 ], [ -73.798903787210406, 40.638439177402297 ], [ -73.799088953857506, 40.638379520180997 ], [ -73.7992384976572, 40.638428358726202 ], [ -73.799736954199702, 40.638732202632902 ], [ -73.8001570989518, 40.638900413240101 ], [ -73.800431193961003, 40.6391296305721 ], [ -73.800449047737203, 40.639144560740498 ], [ -73.801773581225007, 40.639768533150601 ], [ -73.802977082046795, 40.640278558943301 ], [ -73.804660681457094, 40.6409134593207 ], [ -73.805660776590798, 40.641610233053598 ], [ -73.805804976926296, 40.641577913568199 ], [ -73.806085491029293, 40.641611949156797 ], [ -73.806220656960605, 40.6416608102924 ], [ -73.806422985942902, 40.6417339507165 ], [ -73.806703387168, 40.641784434095598 ], [ -73.807470857127399, 40.6421878314843 ], [ -73.808647068260498, 40.642823177439702 ], [ -73.809185567848601, 40.643028232043903 ], [ -73.810025811921903, 40.643322232324898 ], [ -73.810118487725802, 40.643344786664699 ], [ -73.810758875593095, 40.643500640873803 ], [ -73.811146212424902, 40.643705082253597 ], [ -73.811475357669195, 40.6439970274077 ], [ -73.812034719102101, 40.644311824779898 ], [ -73.812782764221694, 40.6445140575739 ], [ -73.813225279040097, 40.644567776848298 ], [ -73.813644984394401, 40.644699199853001 ], [ -73.814001303822494, 40.644885567767503 ], [ -73.8144487157806, 40.645095468258802 ], [ -73.814944080780407, 40.645341244563397 ], [ -73.815332138597498, 40.645486372775501 ], [ -73.815652424423703, 40.645638272299998 ], [ -73.815932174671403, 40.645613160864599 ], [ -73.815968509033496, 40.6456766247871 ], [ -73.816180483866006, 40.645793944086599 ], [ -73.816710253403897, 40.645884681026601 ], [ -73.8172856708795, 40.6459574101981 ], [ -73.818304553958399, 40.646275914393101 ], [ -73.818819806986895, 40.646600765166603 ], [ -73.819086253704697, 40.646961824830903 ], [ -73.819355550870995, 40.6473120006073 ], [ -73.819649266429707, 40.647650597243803 ], [ -73.8199665447478, 40.6479766279435 ], [ -73.820306461481195, 40.6482891425172 ], [ -73.820492974110095, 40.648395291447798 ], [ -73.820670872590298, 40.648509697526201 ], [ -73.820839527684001, 40.648631956120099 ], [ -73.820998342835793, 40.648761634822499 ], [ -73.821146756282801, 40.648898274979899 ], [ -73.821284243041305, 40.649041393314597 ], [ -73.821410316764798, 40.649190483632999 ], [ -73.821524531464107, 40.649345018616103 ], [ -73.821937682361593, 40.6498232303883 ], [ -73.822152817839907, 40.650143540267798 ], [ -73.822141996987398, 40.6505945824603 ], [ -73.822202317962507, 40.650909073665098 ], [ -73.822330727817899, 40.651414556978501 ], [ -73.822512344382801, 40.651962674163201 ], [ -73.822598747038299, 40.6524107420516 ], [ -73.822607112898297, 40.652794357875997 ], [ -73.822962054129704, 40.653433449450397 ], [ -73.823219880510393, 40.654124807988801 ], [ -73.823380616393806, 40.654858905149901 ], [ -73.823466990806097, 40.655321267053601 ], [ -73.823422601091195, 40.656033746787799 ], [ -73.822862653879, 40.657679228733599 ], [ -73.822469042467105, 40.659168118688399 ], [ -73.822411422037803, 40.659272626510202 ], [ -73.822338267218797, 40.659371336845403 ], [ -73.822250566224696, 40.6594629161726 ], [ -73.822149503795202, 40.6595461273007 ], [ -73.821714434949399, 40.659878357281002 ], [ -73.821612641374998, 40.659943538069903 ], [ -73.821643594338795, 40.659990394519397 ], [ -73.821671013332207, 40.659984871735297 ], [ -73.821694669819195, 40.660019690327097 ], [ -73.821676375101504, 40.660029400395501 ], [ -73.821692780699607, 40.6600433392315 ], [ -73.821608648712299, 40.660077990707201 ], [ -73.821574085400997, 40.660022285995097 ], [ -73.821594199913307, 40.660015360240102 ], [ -73.821570322017294, 40.659966946350998 ], [ -73.821536910900207, 40.6599806355377 ], [ -73.821604848783196, 40.6600888706446 ], [ -73.821764086272196, 40.660036223233597 ], [ -73.821771550761596, 40.660052675035303 ], [ -73.821716590805806, 40.660071888974997 ], [ -73.821747888485007, 40.660126619096197 ], [ -73.821608388721899, 40.660169290120002 ], [ -73.821513179552596, 40.659990358086397 ], [ -73.819702126915999, 40.660732339501699 ], [ -73.819743218622193, 40.660797154478402 ], [ -73.819770652919203, 40.660786067379 ], [ -73.819792481896002, 40.660820883496598 ], [ -73.819772362537094, 40.660829199414898 ], [ -73.819785084479705, 40.660854262836899 ], [ -73.819715584814602, 40.660881978897798 ], [ -73.819675556202498, 40.660820700260899 ], [ -73.819699329176601, 40.660812389583597 ], [ -73.819658638566395, 40.660750171743402 ], [ -73.819013307053396, 40.661014775539499 ], [ -73.818859234458102, 40.661071922827801 ], [ -73.818696700996696, 40.661113303857903 ], [ -73.818603961754405, 40.661109632070001 ], [ -73.818512619083194, 40.6610968819218 ], [ -73.818424198969097, 40.661075266419303 ], [ -73.818340178569798, 40.661045146674901 ], [ -73.817645408401802, 40.660957285238702 ], [ -73.817639819954096, 40.661001139680103 ], [ -73.817681840040805, 40.661001206287501 ], [ -73.817681821028401, 40.6610081627082 ], [ -73.817696437907898, 40.661008185874202 ], [ -73.817694534616805, 40.661036008326001 ], [ -73.817676264774704, 40.6610359793698 ], [ -73.817674350066596, 40.6610679756065 ], [ -73.817506299340593, 40.661056579034501 ], [ -73.817515598578794, 40.660996769047202 ], [ -73.8175649191611, 40.660999629925797 ], [ -73.817568656229895, 40.660944987070998 ], [ -73.817181068147207, 40.660884863783899 ], [ -73.816986662972894, 40.660836412672097 ], [ -73.816859002074807, 40.660801976090497 ], [ -73.816728477228693, 40.660774461339003 ], [ -73.816595734714099, 40.660754004653 ], [ -73.816461431788397, 40.660740707321096 ], [ -73.816140931571695, 40.660723507149399 ], [ -73.816134967913897, 40.660792835296498 ], [ -73.816175150446796, 40.660797072650901 ], [ -73.816176869019699, 40.660836031624598 ], [ -73.816162257991706, 40.660834617286 ], [ -73.816162208149905, 40.660852703074802 ], [ -73.815983188411806, 40.660844069392802 ], [ -73.815997972787002, 40.6607828771429 ], [ -73.816043642939306, 40.660784341846302 ], [ -73.816053414886696, 40.660719827022596 ], [ -73.815462730490395, 40.660671838611002 ], [ -73.815306791888602, 40.660641292458003 ], [ -73.8151537400813, 40.660603209178802 ], [ -73.814682872002606, 40.660523467588199 ], [ -73.814672138682994, 40.660587361565 ], [ -73.814703184159697, 40.660591584712797 ], [ -73.814699427102397, 40.660629143231397 ], [ -73.814679333999095, 40.6606277203758 ], [ -73.814677421732796, 40.660658324408899 ], [ -73.814571501642803, 40.660642850492899 ], [ -73.814589948373794, 40.6605788816764 ], [ -73.814615525271506, 40.660578922899397 ], [ -73.814626723768797, 40.660514926479898 ], [ -73.8140907851554, 40.660428144248797 ], [ -73.813884806153993, 40.660377788505897 ], [ -73.813762519399006, 40.6603592515781 ], [ -73.813750987040507, 40.660355640593401 ], [ -73.813583720180105, 40.660318654775097 ], [ -73.813253182123503, 40.660240169479003 ], [ -73.813093663939995, 40.6602022913751 ], [ -73.812622638584102, 40.660165302726099 ], [ -73.8126021548415, 40.660168308323797 ], [ -73.812308801593602, 40.660211362983603 ], [ -73.812003012990601, 40.660214313207298 ], [ -73.811991895603796, 40.660214622220302 ], [ -73.811933968428605, 40.660200401191503 ], [ -73.811573837191602, 40.660226233254399 ], [ -73.8115393827822, 40.660239806257302 ], [ -73.811500208834602, 40.660234490721699 ], [ -73.8114397214745, 40.660262463661503 ], [ -73.811424442154703, 40.660315434907403 ], [ -73.811296292317095, 40.660382691651897 ], [ -73.811245735900698, 40.660552892518503 ], [ -73.8113025736304, 40.660636326828602 ], [ -73.811333933229506, 40.660641036731299 ], [ -73.8113778256985, 40.660656105712903 ], [ -73.811414688108897, 40.660679691751803 ], [ -73.8114417454304, 40.660710019278298 ], [ -73.811456960756502, 40.660744805217398 ], [ -73.811515866552696, 40.660775395284602 ], [ -73.811722561229899, 40.660811355525198 ], [ -73.812010420810594, 40.660889761903299 ], [ -73.812220648374804, 40.660899904686602 ], [ -73.812830498833307, 40.661018080071997 ], [ -73.812862196754807, 40.661010432538802 ], [ -73.812887012377701, 40.661020843253901 ], [ -73.814085183584297, 40.661267446386397 ], [ -73.8141259351748, 40.661258104682403 ], [ -73.814138356593602, 40.6612607279774 ], [ -73.814149582221702, 40.661275399995397 ], [ -73.814946949974996, 40.661423432204202 ], [ -73.815094835853699, 40.661463504424802 ], [ -73.815290240758202, 40.6614968398884 ], [ -73.815766919867499, 40.661574113548397 ], [ -73.816221780753196, 40.661642945809099 ], [ -73.8165746106379, 40.661696339048099 ], [ -73.816871697334605, 40.661742906660201 ], [ -73.816903273200893, 40.661757641460397 ], [ -73.816999323071002, 40.661766554531603 ], [ -73.817077182399998, 40.661794350211402 ], [ -73.817165327660405, 40.6618015159845 ], [ -73.817194783044599, 40.661790417299201 ], [ -73.817212889980198, 40.661787029330497 ], [ -73.817247904915504, 40.661793166915999 ], [ -73.817271537971394, 40.661813042672797 ], [ -73.817359558254594, 40.661843453504602 ], [ -73.817470216191296, 40.661868769801401 ], [ -73.817596671287802, 40.661900162168301 ], [ -73.817694930489097, 40.661918550888302 ], [ -73.817715318929501, 40.661911728438 ], [ -73.817753762031799, 40.6619109883965 ], [ -73.817757110942907, 40.661918746582302 ], [ -73.817774028160898, 40.661926548879002 ], [ -73.817919747857005, 40.661949392275801 ], [ -73.818018046027802, 40.661960893687798 ], [ -73.818081305942002, 40.661970563138503 ], [ -73.818170647943106, 40.661965678709002 ], [ -73.818303982499003, 40.661979012226297 ], [ -73.818376221912899, 40.6620007622668 ], [ -73.818455174970694, 40.662035448679703 ], [ -73.818485131237495, 40.662057150675501 ], [ -73.818498534266197, 40.662059652584702 ], [ -73.818508857467506, 40.662113378313897 ], [ -73.818673229205601, 40.662141029934098 ], [ -73.818734494308799, 40.662056599192503 ], [ -73.818745826239095, 40.662058640456699 ], [ -73.818739376623, 40.662080015463303 ], [ -73.818787881606696, 40.662062404569099 ], [ -73.818843064520806, 40.662019604212503 ], [ -73.819004741886999, 40.661935037067501 ], [ -73.819765103720897, 40.661681766827598 ], [ -73.820053755710603, 40.661594770406701 ], [ -73.820153445676596, 40.661545135356903 ], [ -73.820168439890494, 40.661512217015897 ], [ -73.820202410468994, 40.661487075686601 ], [ -73.820280025789003, 40.661479573091903 ], [ -73.821315676575395, 40.661055685909702 ], [ -73.821341355350796, 40.661041166402597 ], [ -73.821489115759505, 40.660970407976002 ], [ -73.821530962023203, 40.660958435083998 ], [ -73.821575498547602, 40.660955505483201 ], [ -73.821685116052606, 40.660906811351701 ], [ -73.821803496320399, 40.660871990323201 ], [ -73.821920842109193, 40.660834988323998 ], [ -73.822034815548406, 40.660792309001103 ], [ -73.822144943580199, 40.660744129501502 ], [ -73.822250769111093, 40.660690649801403 ], [ -73.822333547303302, 40.660623111612203 ], [ -73.822723003558494, 40.660524787107299 ], [ -73.822815723209899, 40.660493398433097 ], [ -73.823007499462705, 40.660413110301398 ], [ -73.823183733554799, 40.660314301885997 ], [ -73.823341360295402, 40.660198691776102 ], [ -73.823477638175405, 40.660068290785397 ], [ -73.824022666417505, 40.658601912103101 ], [ -73.824053549315195, 40.658534148795901 ], [ -73.824074525595407, 40.658464221571101 ], [ -73.8240853441459, 40.658392967649398 ], [ -73.824085875471795, 40.658321240133297 ], [ -73.824077617968797, 40.658294041487899 ], [ -73.824078844706307, 40.658169454286799 ], [ -73.824121006581905, 40.658040257876202 ], [ -73.8241863382422, 40.657916778138301 ], [ -73.8242371275431, 40.657856037665198 ], [ -73.824265495670701, 40.6577873446425 ], [ -73.824108672932397, 40.6577585915973 ], [ -73.824105075486301, 40.657770806460803 ], [ -73.824042691490206, 40.657763922123401 ], [ -73.824060678260693, 40.657704205966901 ], [ -73.824112361193897, 40.657712432085297 ], [ -73.824106966048703, 40.6577300756407 ], [ -73.824269147396905, 40.657754763587903 ], [ -73.824299322693705, 40.657630829801903 ], [ -73.824303310166101, 40.657504820065803 ], [ -73.824312751828103, 40.6574609311362 ], [ -73.824331433242506, 40.657394130036202 ], [ -73.824358763942101, 40.657329079499299 ], [ -73.824394471739694, 40.657266427306404 ], [ -73.824438201030802, 40.657206797353702 ], [ -73.824853076909804, 40.655907918161802 ], [ -73.824923301675994, 40.655675041499499 ], [ -73.824930796700201, 40.655449783848297 ], [ -73.824856806657806, 40.655166268572103 ], [ -73.824512177925001, 40.654031481797098 ], [ -73.824437440774005, 40.653900323396797 ], [ -73.824297771783804, 40.6534783849701 ], [ -73.824227720484998, 40.653181265046797 ], [ -73.824153015258204, 40.652871992636001 ], [ -73.824137274074303, 40.652651367281599 ], [ -73.823931995623497, 40.6521983541491 ], [ -73.823854597552597, 40.651890876473303 ], [ -73.823808566055604, 40.651552472426502 ], [ -73.823643893629296, 40.651125729757503 ], [ -73.823476661110803, 40.650484546440197 ], [ -73.823455916206299, 40.650048492715499 ], [ -73.823467385087795, 40.649782251041003 ], [ -73.823423385697794, 40.649472250667699 ], [ -73.823327386250199, 40.649191250355003 ], [ -73.823182386104406, 40.649165250727997 ], [ -73.822908562987905, 40.6481016961054 ], [ -73.822962520895601, 40.648054437424001 ], [ -73.823033681251104, 40.648023057129699 ], [ -73.823114355500195, 40.648010945713501 ], [ -73.823195827181493, 40.648019411754802 ], [ -73.823389750202907, 40.648313878145999 ], [ -73.823439532343698, 40.648389468626497 ], [ -73.823494440606595, 40.6484568069516 ], [ -73.823562160239504, 40.648525058583203 ], [ -73.823638063851405, 40.648588117280099 ], [ -73.823743703148295, 40.648679657584601 ], [ -73.823834713404594, 40.6487799000585 ], [ -73.823905033600994, 40.648874970357397 ], [ -73.8239346737478, 40.648929596001302 ], [ -73.823945432129605, 40.648988132122398 ], [ -73.823936624696799, 40.649046857091001 ], [ -73.823908811362898, 40.649102037261102 ], [ -73.823909610074793, 40.649134638299898 ], [ -73.823922921467599, 40.649165628692799 ], [ -73.823947575899595, 40.649192285347397 ], [ -73.823981407021606, 40.649212265968799 ], [ -73.824022951756106, 40.649243079286499 ], [ -73.824071702804204, 40.649266995358097 ], [ -73.824125718397994, 40.649283061596698 ], [ -73.824182847075207, 40.649290638076799 ], [ -73.824451755143201, 40.6493363192684 ], [ -73.824588989609396, 40.649491399495503 ], [ -73.824724579393902, 40.649498389111898 ], [ -73.824745266776205, 40.649442526384902 ], [ -73.824790259112902, 40.649414354299303 ], [ -73.824838683094995, 40.649395099404103 ], [ -73.824891168188202, 40.6493835661011 ], [ -73.824945616554999, 40.649380215377697 ], [ -73.824999851887597, 40.649385181162998 ], [ -73.825070453371893, 40.649416511183503 ], [ -73.825132581137694, 40.649456934380403 ], [ -73.825184240694895, 40.649505153057198 ], [ -73.825223773601294, 40.649559619257801 ], [ -73.825342417710601, 40.649673626483498 ], [ -73.825455046589497, 40.649669031948697 ], [ -73.825521001259204, 40.649569061983499 ], [ -73.825580288856898, 40.649519617100403 ], [ -73.825656340416302, 40.6494860221704 ], [ -73.825742129819105, 40.649471380894902 ], [ -73.825829731330799, 40.649477045921103 ], [ -73.825897492802099, 40.649497479626802 ], [ -73.825951685386798, 40.649534594311604 ], [ -73.825985536520093, 40.649583751691203 ], [ -73.825994815714196, 40.649638808474599 ], [ -73.826029250361501, 40.649667599104603 ], [ -73.826055135520306, 40.649701185801497 ], [ -73.826071354975696, 40.649738120263798 ], [ -73.826077209306206, 40.649776809827202 ], [ -73.826105004456707, 40.650026999892198 ], [ -73.826116474363502, 40.650062007896302 ], [ -73.826146217731605, 40.650090091321303 ], [ -73.826192112776098, 40.650089642211299 ], [ -73.826235794873199, 40.650078909309102 ], [ -73.826273382397503, 40.650058846349097 ], [ -73.826301535299393, 40.650031236141501 ], [ -73.826265484279901, 40.649962781643502 ], [ -73.826216537990007, 40.649899140592503 ], [ -73.8262138136039, 40.649858208961398 ], [ -73.826201232092004, 40.649818360796303 ], [ -73.826154223240394, 40.649791717689602 ], [ -73.826126826128103, 40.649752266871701 ], [ -73.8261243660735, 40.649707676655296 ], [ -73.826147321205397, 40.649666614316402 ], [ -73.826169637047599, 40.649641307479499 ], [ -73.826181506979907, 40.649612194001698 ], [ -73.8261819374315, 40.649581710856502 ], [ -73.826170892386401, 40.649552409663499 ], [ -73.826177863147194, 40.649522625382502 ], [ -73.826196122156801, 40.649495757428198 ], [ -73.826224025106498, 40.649474225366703 ], [ -73.826259059219794, 40.649459968243399 ], [ -73.826319866716503, 40.649453998471301 ], [ -73.826372921870004, 40.649430595347397 ], [ -73.826400488047099, 40.649365510634098 ], [ -73.8264087428702, 40.649297412791 ], [ -73.826397288522102, 40.649229584080402 ], [ -73.826366677150105, 40.649165293783 ], [ -73.826371750873605, 40.649109900917203 ], [ -73.826361665632206, 40.6490549072984 ], [ -73.826336858024405, 40.649002693448601 ], [ -73.826298401933499, 40.648955519555798 ], [ -73.826242876160904, 40.648655224361903 ], [ -73.826221723444903, 40.648369277632497 ], [ -73.8263938155538, 40.648332598640501 ], [ -73.826720822757395, 40.649587069579198 ], [ -73.826897620640395, 40.650357959391997 ], [ -73.827014631433698, 40.650868150132901 ], [ -73.8271264866206, 40.6513339370604 ], [ -73.827243313722505, 40.651820413895798 ], [ -73.827362176804996, 40.6523153700821 ], [ -73.827479458682504, 40.652803729651602 ], [ -73.827597804711004, 40.653296517441198 ], [ -73.827708223207793, 40.653756287736698 ], [ -73.827826462944401, 40.654248612861899 ], [ -73.828073199027799, 40.655275954032803 ], [ -73.8282806443232, 40.656041784898903 ], [ -73.828600812394697, 40.6572052247068 ], [ -73.829315590207102, 40.658906908745699 ], [ -73.829914745789495, 40.659673920814498 ], [ -73.830032708807195, 40.659902261002799 ], [ -73.830295141163006, 40.6604102437934 ], [ -73.831079100092893, 40.662064476296898 ], [ -73.831858769291003, 40.663662183474102 ], [ -73.832479072856302, 40.664976466397697 ], [ -73.832706729196602, 40.665414025773401 ], [ -73.832554256020103, 40.665378607586398 ], [ -73.832255698707797, 40.665309253332701 ], [ -73.830032957930698, 40.6645901407691 ], [ -73.829390030112904, 40.6643729027804 ], [ -73.829101724327103, 40.664258991146703 ], [ -73.827898976982894, 40.6639145605618 ], [ -73.827134523912505, 40.663763621062003 ], [ -73.826874927428705, 40.663712361023201 ], [ -73.826295897000193, 40.663646587158198 ], [ -73.825713667926095, 40.663601393089799 ], [ -73.825036063271995, 40.6635883878768 ], [ -73.824861996729894, 40.663585042821197 ], [ -73.824271444001695, 40.663584816843901 ] ] ] ] } }
]
}
