{
"type": "FeatureCollection",
"name": "lga_airport",
"crs": { "type": "name", "properties": { "name": "urn:ogc:def:crs:OGC:1.3:CRS84" } },
"features": [
{ "type": "Feature", "properties": { "OBJECTID": 234, "BoroCode": 4, "BoroName": "Queens", "CountyFIPS": "081", "NTA2020": "QN8081", "NTAName": "LaGuardia Airport", "NTAAbbrev": "LGA", "NTAType": 8, "CDTA2020": "QN80", "CDTAName": "QN80 LaGuardia Airport (JIA 80 Approximation)", "Shape__Area": 30591951.895050049, "Shape__Length": 40422.837901198938 }, "geometry": { "type": "MultiPolygon", "coordinates": [ [ [ [ -73.8697822211887, 40.7853462087037 ], [ -73.869236326122007, 40.785978190938799 ], [ -73.869182544145801, 40.7859517650881 ], [ -73.869694666371402, 40.785304438627499 ], [ -73.869871483620003, 40.785094181890997 ], [ -73.869438925621296, 40.783646674368299 ], [ -73.868727981711402, 40.783739973354301 ], [ -73.868724763110805, 40.783750438690603 ], [ -73.868718909967996, 40.783762422659798 ], [ -73.868718786799903, 40.7837626289109 ], [ -73.868718664293993, 40.783762834660102 ], [ -73.868718059367595, 40.783763807796703 ], [ -73.868717388330296, 40.783764888409301 ], [ -73.868716866162302, 40.783765694282103 ], [ -73.868716732202401, 40.783765896667802 ], [ -73.868716598904598, 40.783766098551702 ], [ -73.868716463401796, 40.783766300935604 ], [ -73.868716328562599, 40.783766502147699 ], [ -73.868716192399603, 40.783766704028302 ], [ -73.868716056237702, 40.783766905406303 ], [ -73.868715918754603, 40.783767106112798 ], [ -73.868715781711103, 40.783767307489803 ], [ -73.868714363697094, 40.783769307301398 ], [ -73.868713786035599, 40.783770089489899 ], [ -73.8687123611316, 40.783771894964097 ], [ -73.868710714614906, 40.7837739812935 ], [ -73.868710558426201, 40.783774167738997 ], [ -73.868710402017101, 40.783774354184203 ], [ -73.868710079924597, 40.783774735942899 ], [ -73.868709916895995, 40.783774926233598 ], [ -73.868709754752203, 40.783775114850101 ], [ -73.868708431600197, 40.783776621239703 ], [ -73.868708263067901, 40.783776808341102 ], [ -73.868708095198102, 40.783776994773298 ], [ -73.868707925124397, 40.7837771812029 ], [ -73.868707755712805, 40.783777367130703 ], [ -73.868707584759704, 40.783777552386702 ], [ -73.868707413365598, 40.7837777378097 ], [ -73.868707241750002, 40.783777923735002 ], [ -73.868707070358099, 40.783778107985299 ], [ -73.868706897423493, 40.783778292233798 ], [ -73.868706724268506, 40.783778476482098 ], [ -73.868706549129797, 40.783778660728103 ], [ -73.868706374876098, 40.783778843299899 ], [ -73.868706199739805, 40.783779026373303 ], [ -73.868706024603199, 40.783779209614202 ], [ -73.868705671468405, 40.783779574249898 ], [ -73.868705316132903, 40.783779937207797 ], [ -73.868704597534901, 40.783780659429198 ], [ -73.868704415791996, 40.783780839814497 ], [ -73.868704229964294, 40.7837810239646 ], [ -73.868704047452098, 40.783781203260297 ], [ -73.868703870350402, 40.783781377117499 ], [ -73.868703498267806, 40.783781738464903 ], [ -73.868702762513706, 40.783782442992702 ], [ -73.868702378307106, 40.7837828054152 ], [ -73.868701628684605, 40.783783501467099 ], [ -73.868700871139694, 40.7837841914791 ], [ -73.868700677950301, 40.7837843646479 ], [ -73.868700485642094, 40.783784537985298 ], [ -73.868699709370702, 40.783785224290298 ], [ -73.868699306451802, 40.783785575802398 ], [ -73.868699115482599, 40.783785740764898 ], [ -73.868698924293895, 40.783785905224597 ], [ -73.868698726263005, 40.783786074702299 ], [ -73.868698528012999, 40.783786243509702 ], [ -73.868698130852906, 40.783786580620998 ], [ -73.868697717806697, 40.783786926593102 ], [ -73.868696108290806, 40.783788243352497 ], [ -73.868695278294695, 40.783788903043501 ], [ -73.868694453401403, 40.783789545652802 ], [ -73.868691477841693, 40.783791766163397 ], [ -73.868690609134106, 40.783792386023002 ], [ -73.8686875090265, 40.783794506378896 ], [ -73.868687250827406, 40.783794675620399 ], [ -73.868682910125202, 40.783797398408197 ], [ -73.868681033141399, 40.7837984991734 ], [ -73.868680061416498, 40.783799053580701 ], [ -73.868679110237395, 40.783799583301303 ], [ -73.868678152018305, 40.783800106480399 ], [ -73.8686778989522, 40.783800243395497 ], [ -73.868677647210305, 40.783800379306797 ], [ -73.868677163593205, 40.783800635572298 ], [ -73.868676872363594, 40.783800790034 ], [ -73.868675695334602, 40.7838014021711 ], [ -73.868673207785505, 40.783802646814998 ], [ -73.868668632877601, 40.783804771269303 ], [ -73.868668167214594, 40.783804975789799 ], [ -73.868648730248196, 40.783811837930401 ], [ -73.868628022221898, 40.783816030272902 ], [ -73.868606670640204, 40.783817426045097 ], [ -73.868585324442805, 40.783815981592497 ], [ -73.868564632394296, 40.783811742049203 ], [ -73.868545222597902, 40.783804835618902 ], [ -73.868527686628596, 40.783795472551503 ], [ -73.868512555524902, 40.7837839372418 ], [ -73.8685053924698, 40.783776749931903 ], [ -73.868503335971198, 40.783774390334401 ], [ -73.868496406215797, 40.783765023448503 ], [ -73.868494639447206, 40.7837621532287 ], [ -73.868494157973004, 40.783761324265697 ], [ -73.868491700180201, 40.783756708144303 ], [ -73.868491670544699, 40.783756648303999 ], [ -73.868490663128995, 40.783754517235401 ], [ -73.868490468923298, 40.783754088818597 ], [ -73.868489733503907, 40.783752391113801 ], [ -73.868489555822407, 40.783751965563802 ], [ -73.868488547069106, 40.783749395911897 ], [ -73.868488524054499, 40.783749331555903 ], [ -73.868487625703906, 40.7837467702388 ], [ -73.868487613434198, 40.783746733536702 ], [ -73.868487470592996, 40.783746299147602 ], [ -73.868486801809297, 40.783744116867602 ], [ -73.868486552948397, 40.783743240425302 ], [ -73.868486413118603, 40.783742731993399 ], [ -73.868486197211098, 40.783741909364402 ], [ -73.8684861801502, 40.7837418435074 ], [ -73.868486076274905, 40.783741431611197 ], [ -73.868485974381898, 40.783741020387403 ], [ -73.868485851311206, 40.783740507451498 ], [ -73.868485747501794, 40.783740062217802 ], [ -73.868485452613598, 40.783738721342303 ], [ -73.868485282999103, 40.783737893907897 ], [ -73.868485099328794, 40.783736929756699 ], [ -73.8684850243298, 40.783736515715603 ], [ -73.8684849515368, 40.783736100671902 ], [ -73.8684848644005, 40.783735582918702 ], [ -73.868484797336805, 40.783735168384197 ], [ -73.868484733141699, 40.783734752177601 ], [ -73.868484678963299, 40.783734397464301 ], [ -73.868484627650105, 40.783734042754297 ], [ -73.868484577660297, 40.783733687543197 ], [ -73.868484539434306, 40.783733402036198 ], [ -73.868484530094804, 40.783733332334897 ], [ -73.868484372179793, 40.783732049244598 ], [ -73.86848426809, 40.783731076472797 ], [ -73.868484224240902, 40.783730625109101 ], [ -73.868484076839295, 40.783728817340901 ], [ -73.868484047979095, 40.783728364989102 ], [ -73.868483997753501, 40.783727459624103 ], [ -73.868483976387793, 40.7837270067783 ], [ -73.8684839585475, 40.783726554439198 ], [ -73.868483945485394, 40.783726137788399 ], [ -73.868483934188802, 40.783725719966903 ], [ -73.868483913224594, 40.783723836454001 ], [ -73.868483953178796, 40.783721573230302 ], [ -73.868483985900696, 40.7837207399958 ], [ -73.868484007731794, 40.783720287701897 ], [ -73.868484056301696, 40.783719464872199 ], [ -73.868484506755905, 40.783714797623603 ], [ -73.868484629753397, 40.7837138969794 ], [ -73.868484763107503, 40.783712997352197 ], [ -73.868485235666995, 40.783710305421899 ], [ -73.868485401277596, 40.783709477699901 ], [ -73.868485914935206, 40.783707179333902 ], [ -73.868486022705795, 40.783706734844202 ], [ -73.868486366292302, 40.783705402403498 ], [ -73.868486485522595, 40.783704958429503 ], [ -73.868486733455001, 40.7837040731727 ], [ -73.868486973543099, 40.783703253912002 ], [ -73.868487126175694, 40.783702747991697 ], [ -73.868487382567906, 40.783701931430002 ], [ -73.868488952181195, 40.783697496643697 ], [ -73.868489270041195, 40.783696691711398 ], [ -73.868489470255696, 40.783696197907297 ], [ -73.868490013887694, 40.783694903555599 ], [ -73.868490554300706, 40.783693676713 ], [ -73.868491175165801, 40.783692334704803 ], [ -73.868491762501804, 40.783691118804903 ], [ -73.868493325543497, 40.783688114008598 ], [ -73.8684937566331, 40.783687336679598 ], [ -73.868494024246601, 40.783686864395598 ], [ -73.868494502383996, 40.783686034852401 ], [ -73.868494990872094, 40.783685209341698 ], [ -73.868495239411303, 40.783684797847599 ], [ -73.868495965955304, 40.783683623987898 ], [ -73.868496000004896, 40.783683569078399 ], [ -73.868496485497701, 40.783682809401803 ], [ -73.868497050541805, 40.783681944274797 ], [ -73.868497829945198, 40.783680788568198 ], [ -73.868497865975101, 40.783680735336198 ], [ -73.868499237815897, 40.783678793605901 ], [ -73.868499276047501, 40.783678741549103 ], [ -73.868499857693095, 40.783677951660003 ], [ -73.8685004492486, 40.7836771658028 ], [ -73.868501050931798, 40.783676385318103 ], [ -73.868501622756298, 40.783675658072298 ], [ -73.868501662748002, 40.783675607525197 ], [ -73.868502243378302, 40.7836748853152 ], [ -73.868502283147293, 40.783674835940602 ], [ -73.868502598854306, 40.783674451494797 ], [ -73.868503234450401, 40.783673685288299 ], [ -73.868503556542194, 40.783673304200299 ], [ -73.868504166020998, 40.783672593917601 ], [ -73.868504207329494, 40.783672546219897 ], [ -73.868504866703304, 40.783671792772601 ], [ -73.868505537528193, 40.783671044196502 ], [ -73.868506560387303, 40.783669930481402 ], [ -73.868506905595893, 40.783669561984198 ], [ -73.868507194919403, 40.783669256580303 ], [ -73.868507253666394, 40.783669195165501 ], [ -73.868507515599205, 40.783668920890001 ], [ -73.868507779074406, 40.783668646783902 ], [ -73.868508311531798, 40.783668100085698 ], [ -73.868508983982096, 40.783667421201997 ], [ -73.868509754452006, 40.783666659672598 ], [ -73.868510444735804, 40.783665990190698 ], [ -73.868510489782494, 40.783665946852999 ], [ -73.868510845731905, 40.783665608020002 ], [ -73.868511563360201, 40.783664930863097 ], [ -73.868511986636904, 40.783664538331301 ], [ -73.868513862023505, 40.783662850808902 ], [ -73.868514251920601, 40.783662508664101 ], [ -73.868514692365395, 40.783662127711104 ], [ -73.868515437681197, 40.783661492299601 ], [ -73.868515466600797, 40.783661468208898 ], [ -73.868515856469799, 40.783661140303799 ], [ -73.868516642811798, 40.783660488521598 ], [ -73.868517094916101, 40.783660118471097 ], [ -73.868519108531601, 40.783658522240202 ], [ -73.868519157093601, 40.783658484434802 ], [ -73.868520369341098, 40.783657559736902 ], [ -73.868521697856707, 40.783656574862498 ], [ -73.868523390916494, 40.783655363071901 ], [ -73.868524260918207, 40.783654757454599 ], [ -73.8685247036357, 40.783654453230803 ], [ -73.868524924768906, 40.783654303715302 ], [ -73.868525147669899, 40.783654151856503 ], [ -73.868525394843701, 40.783653985283102 ], [ -73.8685256437807, 40.783653818711699 ], [ -73.868526491216102, 40.783653256457796 ], [ -73.868526942510599, 40.783652961625201 ], [ -73.868526992386407, 40.783652928176998 ], [ -73.868527396446495, 40.783652668470801 ], [ -73.868527852144496, 40.783652375821099 ], [ -73.868528080541196, 40.783652231172098 ], [ -73.868528309158293, 40.783652086523396 ], [ -73.8685288189088, 40.783651765958503 ], [ -73.868529693189302, 40.783651225680998 ], [ -73.868529743060805, 40.783651194410702 ], [ -73.868529949820598, 40.783651069002403 ], [ -73.868530158125495, 40.7836509424233 ], [ -73.868530623718598, 40.783650661343998 ], [ -73.868530675132803, 40.7836506300754 ], [ -73.868530882551795, 40.783650505673101 ], [ -73.868531092837003, 40.783650380771398 ], [ -73.868531562831393, 40.783650103047798 ], [ -73.8685316135835, 40.783650072280999 ], [ -73.868532507220806, 40.783649551290999 ], [ -73.868532558631699, 40.783649521697598 ], [ -73.868533460190406, 40.783649007250197 ], [ -73.8685335113787, 40.783648978829198 ], [ -73.868533724079597, 40.783648858286 ], [ -73.868533939425205, 40.7836487377458 ], [ -73.868534178818905, 40.7836486046685 ], [ -73.868534418876095, 40.783648470419401 ], [ -73.868534659591205, 40.783648337846302 ], [ -73.868534901851405, 40.783648204102299 ], [ -73.868535142564198, 40.783648072701801 ], [ -73.868535385483199, 40.783647940131203 ], [ -73.868535871315999, 40.783647677670402 ], [ -73.868536358466599, 40.783647417556502 ], [ -73.868536847378294, 40.783647158449703 ], [ -73.868537092272305, 40.783647030236999 ], [ -73.868537338048895, 40.783646901522701 ], [ -73.868537829818194, 40.783646646272302 ], [ -73.868538323566696, 40.783646393201899 ], [ -73.868538818634306, 40.783646141808298 ], [ -73.868539316123005, 40.7836458920927 ], [ -73.868539814929804, 40.783645644556501 ], [ -73.868540365796804, 40.783645373458498 ], [ -73.868541319263798, 40.783644912343298 ], [ -73.868541571415605, 40.783644791844999 ], [ -73.868541824449096, 40.783644671347801 ], [ -73.868542331172904, 40.783644432531801 ], [ -73.868542838773607, 40.783644196062298 ], [ -73.868543092460698, 40.783644079418899 ], [ -73.868543347693802, 40.783643961102001 ], [ -73.868543857932096, 40.783643728321003 ], [ -73.868544371030794, 40.783643497888598 ], [ -73.868544627800105, 40.783643382923898 ], [ -73.8685448850092, 40.783643268462399 ], [ -73.868545141776494, 40.783643154502897 ], [ -73.868545399645399, 40.783643040712199 ], [ -73.868545916480301, 40.783642815644903 ], [ -73.868546175227905, 40.783642703362901 ], [ -73.868546434855702, 40.783642591751999 ], [ -73.868546693599896, 40.7836424811453 ], [ -73.868546954548094, 40.783642370541003 ], [ -73.868547214613798, 40.783642260438398 ], [ -73.868547475559595, 40.783642151006802 ], [ -73.868547735182204, 40.783642042076302 ], [ -73.868547996788294, 40.783641933148097 ], [ -73.868548259054506, 40.783641824723198 ], [ -73.868548521540205, 40.7836417168011 ], [ -73.868548808508095, 40.783641599693098 ], [ -73.868549098341205, 40.783641482588301 ], [ -73.868549334574595, 40.783641387368299 ], [ -73.868549572351995, 40.783641291479803 ], [ -73.868550098633506, 40.783641081835597 ], [ -73.868550629761401, 40.783640873369599 ], [ -73.8685508944411, 40.783640770475799 ], [ -73.868551160222907, 40.783640667583299 ], [ -73.868551691563894, 40.783640462803099 ], [ -73.868552223560499, 40.7836402608716 ], [ -73.868552759080103, 40.783640060619298 ], [ -73.868553294594506, 40.783639863047398 ], [ -73.868553831650601, 40.783639665979898 ], [ -73.868554370023503, 40.783639471761802 ], [ -73.868554638877796, 40.783639375406302 ], [ -73.868554908391999, 40.783639279721598 ], [ -73.868555501011897, 40.783639070655603 ], [ -73.868555745159, 40.783638985831097 ], [ -73.8685559910693, 40.783638901008601 ], [ -73.868557077917501, 40.783638530676697 ], [ -73.868557350289606, 40.783638438680804 ], [ -73.868557623542003, 40.783638347356003 ], [ -73.868557895248301, 40.783638257704702 ], [ -73.868558169159797, 40.783638167385803 ], [ -73.868558716978299, 40.7836379890934 ], [ -73.868559265453698, 40.783637812979599 ], [ -73.868559816130102, 40.783637638376 ], [ -73.868560090693904, 40.783637552580998 ], [ -73.868560367463004, 40.783637466118499 ], [ -73.868560919452804, 40.783637296039601 ], [ -73.868561471658694, 40.7836371281387 ], [ -73.8685617484212, 40.783637045026701 ], [ -73.868562026506098, 40.783636961916201 ], [ -73.868562303265193, 40.783636880479399 ], [ -73.868562580908304, 40.783636797870898 ], [ -73.868563137289897, 40.783636636005703 ], [ -73.868563695210895, 40.783636475817602 ], [ -73.868564253788705, 40.783636317808003 ], [ -73.868564532522896, 40.783636240729102 ], [ -73.868564813023497, 40.783636161977 ], [ -73.868565372915199, 40.7836360083245 ], [ -73.868565934346293, 40.7836358563491 ], [ -73.868566214839305, 40.783635781450101 ], [ -73.868566496653401, 40.783635707222601 ], [ -73.868566956200695, 40.783635585788197 ], [ -73.868567058076906, 40.783635559100297 ], [ -73.868567339888003, 40.783635486380597 ], [ -73.868567622360302, 40.7836354136616 ], [ -73.868568188183104, 40.783635269899897 ], [ -73.868568753779996, 40.7836351289859 ], [ -73.868569321137002, 40.7836349895816 ], [ -73.868569888930196, 40.7836348525232 ], [ -73.868570172273095, 40.783634785333597 ], [ -73.868570458263207, 40.783634716974298 ], [ -73.8685710262681, 40.783634584271802 ], [ -73.868571597795196, 40.783634453751098 ], [ -73.868571881795006, 40.783634388739998 ], [ -73.868572168659, 40.783634324234797 ], [ -73.868573313677103, 40.783634073079703 ], [ -73.868573886730701, 40.783633950769499 ], [ -73.868574460441195, 40.783633830637903 ], [ -73.868575035470698, 40.783633712182997 ], [ -73.868575612038697, 40.783633595907702 ], [ -73.868576188602404, 40.783633481810298 ], [ -73.868576765823093, 40.783633369891398 ], [ -73.868577343700196, 40.783633260318602 ], [ -73.868577921793801, 40.783633152756401 ], [ -73.868578501205207, 40.783633047541002 ], [ -73.868578790908202, 40.783632996273603 ], [ -73.868579081935906, 40.783632943834903 ], [ -73.868579371637907, 40.783632893069999 ], [ -73.868579662220299, 40.783632842976203 ], [ -73.868580242279904, 40.783632744295097 ], [ -73.868580534182598, 40.783632695207899 ], [ -73.868580824541496, 40.783632646621598 ], [ -73.868581408340305, 40.783632551797801 ], [ -73.868581698693603, 40.783632506059398 ], [ -73.868581990592006, 40.783632459149999 ], [ -73.868582283148299, 40.783632413916699 ], [ -73.868582575043305, 40.783632368682603 ], [ -73.8685831586088, 40.783632280391998 ], [ -73.868583742389106, 40.783632194949703 ], [ -73.868584329032501, 40.783632110515697 ], [ -73.868584915451194, 40.783632028259298 ], [ -73.868585501423496, 40.7836319488502 ], [ -73.868586089376393, 40.783631870951297 ], [ -73.868586676662503, 40.783631795899403 ], [ -73.868587263944306, 40.783631723025401 ], [ -73.868587852105705, 40.783631651157499 ], [ -73.868588441583896, 40.783631582139101 ], [ -73.868588945744705, 40.783631525085198 ], [ -73.868589198594805, 40.783631497396698 ], [ -73.868589452106207, 40.7836314697091 ], [ -73.868590463279105, 40.783631362640598 ], [ -73.868590969632095, 40.783631311620098 ], [ -73.868591983209498, 40.783631214605897 ], [ -73.868592573318793, 40.783631160833004 ], [ -73.868593165627303, 40.783631109407899 ], [ -73.868593757931606, 40.783631060160701 ], [ -73.868594350231604, 40.783631013091302 ], [ -73.8685955370226, 40.783630925488502 ], [ -73.868596129971905, 40.783630884450702 ], [ -73.868596723577099, 40.783630846094098 ], [ -73.868597317397999, 40.783630810083103 ], [ -73.868597910994595, 40.783630776082099 ], [ -73.868598207240098, 40.783630760002403 ], [ -73.868598504806897, 40.783630744426802 ], [ -73.868599099276096, 40.78363071495 ], [ -73.868600883982694, 40.783630638415502 ], [ -73.868601479096, 40.783630617650701 ], [ -73.868602669310206, 40.783630582319603 ], [ -73.868603265071698, 40.783630568089102 ], [ -73.868603860167397, 40.7836305562032 ], [ -73.868604456141696, 40.783630545826 ], [ -73.868605051228798, 40.783630538295803 ], [ -73.868605647633999, 40.783630532944798 ], [ -73.868605945173798, 40.783630531106198 ], [ -73.868606243595096, 40.783630529268599 ], [ -73.868606838669294, 40.7836305282718 ], [ -73.868607433737907, 40.783630530122899 ], [ -73.868607731933594, 40.783630530965503 ], [ -73.868608030347303, 40.783630532981 ], [ -73.868608625409607, 40.783630538015103 ], [ -73.868609221787693, 40.783630546401199 ], [ -73.868609817724007, 40.783630555289299 ], [ -73.868610412772099, 40.783630567526998 ], [ -73.8686110078159, 40.783630581942496 ], [ -73.868611305335193, 40.783630590490397 ], [ -73.868611602855395, 40.783630598535801 ], [ -73.868612198552796, 40.783630616805098 ], [ -73.868612496067797, 40.783630627530897 ], [ -73.868612793583694, 40.783630637754101 ], [ -73.868613091096407, 40.783630649652501 ], [ -73.868613388611394, 40.7836306603783 ], [ -73.868613686122998, 40.783630672779303 ], [ -73.868613983854999, 40.783630685180597 ], [ -73.868614577991195, 40.783630712829499 ], [ -73.8686149731233, 40.783630733048 ], [ -73.868615171682507, 40.783630742488299 ], [ -73.868615369579203, 40.783630752597901 ], [ -73.868615766031397, 40.783630773990502 ], [ -73.868616361036203, 40.783630808174003 ], [ -73.868616954493902, 40.783630844533398 ], [ -73.868617548167805, 40.783630883070998 ], [ -73.868618141617901, 40.783630923283603 ], [ -73.868618734622899, 40.783630965673503 ], [ -73.868619919515794, 40.7836310581581 ], [ -73.868620216343501, 40.783631082117601 ], [ -73.868620511627299, 40.7836311065779 ], [ -73.8686211037313, 40.783631158850703 ], [ -73.868621399673103, 40.783631184987001 ], [ -73.868621695834307, 40.783631211626201 ], [ -73.868621990450393, 40.783631239436197 ], [ -73.868622285727596, 40.783631267247003 ], [ -73.868622582543395, 40.783631297237299 ], [ -73.868622877819703, 40.783631325550701 ], [ -73.868623271370097, 40.783631365535399 ], [ -73.868623664919497, 40.7836314060226 ], [ -73.868624058246098, 40.783631447682197 ], [ -73.868624647461203, 40.783631512013599 ], [ -73.868625825215801, 40.783631647879197 ], [ -73.868626119815701, 40.783631683897902 ], [ -73.868626414417903, 40.783631718743997 ], [ -73.868626708133903, 40.783631755934401 ], [ -73.868627001411397, 40.783631791951699 ], [ -73.868627296009294, 40.783631828975601 ], [ -73.868627588401907, 40.7836318666671 ], [ -73.868628175386903, 40.7836319442304 ], [ -73.8686284699792, 40.7836319841022 ], [ -73.868628762367507, 40.783632023971599 ], [ -73.868629056076202, 40.783632064847502 ], [ -73.868629348681694, 40.783632106392297 ], [ -73.868629933450705, 40.783632189983997 ], [ -73.868630225833797, 40.783632232533797 ], [ -73.868630518875705, 40.783632276256903 ], [ -73.868630908864105, 40.7836323343302 ], [ -73.868631103636204, 40.783632364204301 ], [ -73.868631297306294, 40.783632394077003 ], [ -73.868631686408804, 40.783632454327197 ], [ -73.868632270499504, 40.783632546629399 ], [ -73.8686328523806, 40.783632641777103 ], [ -73.868633143208996, 40.783632690355901 ], [ -73.868633433597594, 40.783632738431699 ], [ -73.868633725305202, 40.7836327881842 ], [ -73.868634015471102, 40.7836328374324 ], [ -73.868634306295206, 40.783632888189103 ], [ -73.868634596678106, 40.783632939112799 ], [ -73.868634886838706, 40.783632991041401 ], [ -73.868635176340405, 40.783633041796598 ], [ -73.868635755335902, 40.7836331473275 ], [ -73.868636334328102, 40.783633254533697 ], [ -73.868636623819796, 40.783633310314599 ], [ -73.868636912653798, 40.783633364419501 ], [ -73.868637201263994, 40.783633420199401 ], [ -73.868637489433397, 40.783633475978803 ], [ -73.868637520497401, 40.783633482045197 ], [ -73.868638642317507, 40.783633706132797 ], [ -73.868639791438497, 40.783633944658597 ], [ -73.868640078055506, 40.783634005294502 ], [ -73.868640365552807, 40.7836340666015 ], [ -73.868640395073101, 40.783634073168599 ], [ -73.8686406658246, 40.783634132278699 ], [ -73.868640937236194, 40.783634191892098 ], [ -73.868641509579803, 40.783634317686001 ], [ -73.868642081255601, 40.783634446829602 ], [ -73.868642380860905, 40.783634515186499 ], [ -73.868642650944906, 40.783634577478701 ], [ -73.868643221291705, 40.783634709971402 ], [ -73.868643250811004, 40.783634717041103 ], [ -73.8686435193476, 40.783634781677002 ], [ -73.868643789207894, 40.783634845644201 ], [ -73.868644073605793, 40.783634913983697 ], [ -73.868644356679994, 40.783634982991799 ], [ -73.868644924150104, 40.783635121344602 ], [ -73.868645206339394, 40.783635192026999 ], [ -73.868645490071799, 40.783635262543498 ], [ -73.868646055107604, 40.783635405919199 ], [ -73.868646335969302, 40.783635479280399 ], [ -73.868646618816797, 40.783635551471299 ], [ -73.868646901220202, 40.7836356253368 ], [ -73.868647182743103, 40.783635698698802 ], [ -73.868647744901807, 40.7836358481022 ], [ -73.868648025097002, 40.783635924142999 ], [ -73.868648306613196, 40.783636000855601 ], [ -73.868648585926806, 40.783636076895398 ], [ -73.868648879997707, 40.783636157642803 ], [ -73.868649425401401, 40.78363630954 ], [ -73.868649984016699, 40.783636467650602 ], [ -73.868650262661504, 40.783636547542798 ], [ -73.868650541307304, 40.783636626932399 ], [ -73.868650818407005, 40.783636707995498 ], [ -73.868651097048399, 40.783636789562898 ], [ -73.868651374808394, 40.783636871129403 ], [ -73.868651652787705, 40.783636953198602 ], [ -73.868652206979803, 40.7836371190104 ], [ -73.868652760726505, 40.783637287166997 ], [ -73.868653312706101, 40.783637457331899 ], [ -73.868653587150106, 40.7836375439203 ], [ -73.868653863580107, 40.783637629338301 ], [ -73.868654987338999, 40.783637987950897 ], [ -73.868655509122902, 40.783638158751501 ], [ -73.868656056235295, 40.783638338292199 ], [ -73.868656340580003, 40.783638433603201 ], [ -73.868656601798193, 40.7836385211817 ], [ -73.868657146037904, 40.783638704572297 ], [ -73.868658230755202, 40.783639079055298 ], [ -73.868658499892504, 40.783639174348998 ], [ -73.868658770573603, 40.783639269141901 ], [ -73.868659039709001, 40.783639365440699 ], [ -73.868659310388196, 40.7836394612387 ], [ -73.868659578860004, 40.783639558709403 ], [ -73.868659847994095, 40.7836396556784 ], [ -73.868660116464994, 40.783639753651698 ], [ -73.8686603849345, 40.783639852295103 ], [ -73.868660653403097, 40.783639951441103 ], [ -73.868660921873001, 40.783640049916997 ], [ -73.868661455940696, 40.783640250383598 ], [ -73.8686619884636, 40.783640451853501 ], [ -73.868668484480594, 40.783643117885902 ], [ -73.868686020429607, 40.783652480932098 ], [ -73.868701150872297, 40.783664016218502 ], [ -73.868713416308907, 40.783677373931901 ], [ -73.868722444849496, 40.783692147065103 ], [ -73.868722948975304, 40.783693225833403 ], [ -73.869424856996204, 40.783599589966201 ], [ -73.870481708292701, 40.782314387075203 ], [ -73.871464333188996, 40.782134675431202 ], [ -73.8723242790104, 40.781109036091998 ], [ -73.872018827806997, 40.780964026572903 ], [ -73.870229784242994, 40.781275656129701 ], [ -73.870220516729503, 40.781255601429599 ], [ -73.872029729367895, 40.780941636660401 ], [ -73.872337449808199, 40.781093327238402 ], [ -73.872558736616298, 40.7808293959393 ], [ -73.872387780188106, 40.780748801361298 ], [ -73.872181553007593, 40.780534190022998 ], [ -73.871187296441803, 40.7800098731364 ], [ -73.870196259906194, 40.779555078211501 ], [ -73.870158920810795, 40.7795062198606 ], [ -73.868256611068702, 40.778520918170898 ], [ -73.867927842908003, 40.778402521881901 ], [ -73.866330436221304, 40.777650273053403 ], [ -73.8661533945522, 40.777598954473099 ], [ -73.865762057646904, 40.777366394148999 ], [ -73.865133619132394, 40.7769747439159 ], [ -73.864712072088594, 40.776741459621697 ], [ -73.861046929171906, 40.774984147844798 ], [ -73.859180124529004, 40.774080893776897 ], [ -73.859088443319393, 40.774101978731899 ], [ -73.858926975274898, 40.774038512712899 ], [ -73.858965460660201, 40.773946791556597 ], [ -73.858843230537005, 40.773917881901802 ], [ -73.858634965703899, 40.773817108110102 ], [ -73.858402462063097, 40.773729609053099 ], [ -73.857962984210403, 40.773497479360003 ], [ -73.857737043610001, 40.7733930882154 ], [ -73.857235280409199, 40.773191902746397 ], [ -73.856901844537305, 40.773067046293498 ], [ -73.856745386927699, 40.7729873459865 ], [ -73.8565652511911, 40.772907941663398 ], [ -73.855939472926295, 40.7726450144377 ], [ -73.855512140015094, 40.772447241523302 ], [ -73.855052466464301, 40.772203663308801 ], [ -73.855049657643093, 40.772122624018003 ], [ -73.855049434473599, 40.772045351613997 ], [ -73.855055921477799, 40.771932931182903 ], [ -73.855069389683507, 40.771878503403101 ], [ -73.855087762838806, 40.771839661524602 ], [ -73.855116893798694, 40.771821507030303 ], [ -73.855182057130804, 40.7717918546211 ], [ -73.855660129425203, 40.771159012831802 ], [ -73.856425310686205, 40.770308706818497 ], [ -73.856443701254904, 40.7702944417872 ], [ -73.856464133975393, 40.770281334722803 ], [ -73.856509590872406, 40.770259524525102 ], [ -73.856533806193198, 40.770251203514597 ], [ -73.856558462907898, 40.770244810936099 ], [ -73.856583170786806, 40.770240442966099 ], [ -73.856633723852795, 40.770237096392101 ], [ -73.856686438310504, 40.770240323853898 ], [ -73.856712911598706, 40.770244376226501 ], [ -73.856738987105899, 40.770249987094097 ], [ -73.856764315294399, 40.770257081808602 ], [ -73.856788559450294, 40.770265565299702 ], [ -73.857290831431001, 40.770458001073301 ], [ -73.857341397489094, 40.770483933368801 ], [ -73.857362988372401, 40.770493103995001 ], [ -73.857383755880704, 40.770500590465801 ], [ -73.857404096561496, 40.770506536507 ], [ -73.8574241969729, 40.770510979372801 ], [ -73.857439199839206, 40.770511662176297 ], [ -73.857447449493193, 40.770510506403099 ], [ -73.857464627760507, 40.770511980774003 ], [ -73.857478320404695, 40.770510809785698 ], [ -73.8574903513462, 40.7705076890851 ], [ -73.857496404362394, 40.7705050588769 ], [ -73.857502607528801, 40.7705016657737 ], [ -73.857513548166395, 40.770494215189302 ], [ -73.857538191683105, 40.7704750363092 ], [ -73.8575508820186, 40.770467230551802 ], [ -73.857557454448397, 40.770464372644803 ], [ -73.857563932546896, 40.770462451090303 ], [ -73.857570427442496, 40.770461433190597 ], [ -73.8575737044779, 40.770461256648602 ], [ -73.857633977132707, 40.770482285604899 ], [ -73.857677326205504, 40.770506620187703 ], [ -73.857717517738607, 40.770537818912302 ], [ -73.857755036774293, 40.770576277909399 ], [ -73.857777719356605, 40.770588760451297 ], [ -73.857802062905094, 40.770604578803002 ], [ -73.857884813341101, 40.770667984559999 ], [ -73.857832027353396, 40.770448072585701 ], [ -73.857826036846205, 40.770445583968602 ], [ -73.858009987035302, 40.770229295523997 ], [ -73.858014373440795, 40.770230403249599 ], [ -73.858020380908201, 40.7702334061822 ], [ -73.858023725137201, 40.770234264014697 ], [ -73.858026515860004, 40.770234285546302 ], [ -73.858029435047001, 40.770233997648198 ], [ -73.858032306374398, 40.770233419871303 ], [ -73.858034973321793, 40.770232584857901 ], [ -73.858037273814503, 40.770231546854099 ], [ -73.858039954445601, 40.770229667836297 ], [ -73.858044174447301, 40.770224073818703 ], [ -73.858044040340701, 40.770218243251001 ], [ -73.858040245287796, 40.770211795028203 ], [ -73.857988501044403, 40.770181886532598 ], [ -73.857721399956205, 40.7703085206807 ], [ -73.857348713864596, 40.770192505061097 ], [ -73.856851308686998, 40.769550724775499 ], [ -73.856565406873997, 40.769386216470203 ], [ -73.856214080040104, 40.769204069947001 ], [ -73.856150289733407, 40.769087069145002 ], [ -73.856151139688905, 40.768995119597903 ], [ -73.856247061391798, 40.768893986326297 ], [ -73.8563143644364, 40.768886713209596 ], [ -73.856479122827494, 40.768913429528801 ], [ -73.856637063631794, 40.768948601878002 ], [ -73.856819741821695, 40.7690471188196 ], [ -73.857049306824806, 40.7691478280978 ], [ -73.857104284224505, 40.769100772768702 ], [ -73.857162988532394, 40.768999674327297 ], [ -73.8572418236743, 40.768889847235698 ], [ -73.857313948769004, 40.7687718807423 ], [ -73.857679407013805, 40.768284537851997 ], [ -73.857977446068205, 40.768123102888701 ], [ -73.858054023925504, 40.7680989287824 ], [ -73.858198446859205, 40.767951585977698 ], [ -73.858329543718298, 40.767832457905101 ], [ -73.858436476316797, 40.767713712778502 ], [ -73.858596794771998, 40.767493286546802 ], [ -73.858775170178205, 40.767358267339297 ], [ -73.858922164467401, 40.767281832285001 ], [ -73.859376509120494, 40.767083601108801 ], [ -73.859639203978304, 40.767036240369002 ], [ -73.859831687113996, 40.767040076338397 ], [ -73.859987911706696, 40.766966208603002 ], [ -73.860169194506298, 40.766950498883801 ], [ -73.860337865671994, 40.766967705505799 ], [ -73.860555971329504, 40.767008591369802 ], [ -73.860698835550195, 40.767019606465297 ], [ -73.860776094035302, 40.767002787770203 ], [ -73.860856764734294, 40.766940390175598 ], [ -73.860930247626897, 40.766950222203597 ], [ -73.860990242103497, 40.767022542339198 ], [ -73.861009027101602, 40.767067652930798 ], [ -73.861001788227995, 40.767182188376097 ], [ -73.861034862154796, 40.767265065821697 ], [ -73.861104176911098, 40.767280214674003 ], [ -73.861191389727196, 40.767215438494802 ], [ -73.861213349360597, 40.767039362028903 ], [ -73.861315267098107, 40.7669489033132 ], [ -73.861433914860399, 40.766923057099497 ], [ -73.861693177634706, 40.766925314092099 ], [ -73.861816858760307, 40.766945633621198 ], [ -73.862022829513506, 40.766921405597401 ], [ -73.862054122001993, 40.766920884200999 ], [ -73.862131170921401, 40.7669196074024 ], [ -73.862226798425596, 40.7669028740439 ], [ -73.862202003519002, 40.766848165771002 ], [ -73.862267057110998, 40.766811439282002 ], [ -73.862436261791103, 40.766897189552303 ], [ -73.862603619877206, 40.766902251857701 ], [ -73.862690047639006, 40.766884182516101 ], [ -73.862756307855904, 40.766772797415598 ], [ -73.862721620667699, 40.766678914262201 ], [ -73.862241885543597, 40.766291358416701 ], [ -73.862159262278297, 40.766200029825399 ], [ -73.862168916288397, 40.766056266081797 ], [ -73.862016336566299, 40.765899198242103 ], [ -73.861770150360499, 40.765602276314397 ], [ -73.861539847803897, 40.7653508039676 ], [ -73.861238093931107, 40.764968887790097 ], [ -73.860434783165203, 40.763877153874198 ], [ -73.860571802197697, 40.763839484529399 ], [ -73.8609383200113, 40.763736886948102 ], [ -73.861660246686199, 40.764610212542699 ], [ -73.861717643607804, 40.764677987745202 ], [ -73.862932749707497, 40.766112753553401 ], [ -73.862969267110799, 40.7661503774168 ], [ -73.863124742912504, 40.766310565586203 ], [ -73.863323626658001, 40.766512343266299 ], [ -73.863438547683003, 40.7666289325092 ], [ -73.864042106118902, 40.767215890881602 ], [ -73.864273720100201, 40.767441130318602 ], [ -73.864649035620204, 40.767775440405899 ], [ -73.864766655286502, 40.767880208661801 ], [ -73.864841367692307, 40.767946756532702 ], [ -73.865384737237605, 40.768384696211598 ], [ -73.865984899639102, 40.7688683994147 ], [ -73.86683682284, 40.769475018775097 ], [ -73.867210727297106, 40.769741255017301 ], [ -73.8680042253294, 40.770263441835503 ], [ -73.868388480463594, 40.770485326238301 ], [ -73.868832078647898, 40.770741474132002 ], [ -73.869570617937299, 40.771095040440798 ], [ -73.870112680532301, 40.771306625206201 ], [ -73.870262835716304, 40.771365234405899 ], [ -73.870705382991304, 40.771499636885501 ], [ -73.871287121578405, 40.771652455048297 ], [ -73.871847872101696, 40.771750352581599 ], [ -73.872061268224797, 40.771775656436603 ], [ -73.872597320325795, 40.771839216963599 ], [ -73.872992399635706, 40.771862813726301 ], [ -73.873833419334204, 40.771879181878397 ], [ -73.874097256270502, 40.771868544100997 ], [ -73.874411414406794, 40.771855878064798 ], [ -73.875202858402702, 40.771779572757502 ], [ -73.875528665435198, 40.771738088792098 ], [ -73.876023565962598, 40.771656203686 ], [ -73.8761121455085, 40.771638775428698 ], [ -73.876995673868905, 40.771430932785599 ], [ -73.877537534313404, 40.771261391889603 ], [ -73.878062108003604, 40.771084366710099 ], [ -73.878648833200998, 40.770850574674903 ], [ -73.878765807866699, 40.770801196957201 ], [ -73.879000264508903, 40.770689025897397 ], [ -73.879125289042506, 40.770629209191497 ], [ -73.879519642846304, 40.7704352850932 ], [ -73.879786264605102, 40.770288634237403 ], [ -73.879907751974599, 40.770221810579102 ], [ -73.880529004618396, 40.769879649040497 ], [ -73.880575751440603, 40.769853901878498 ], [ -73.881432415508698, 40.769371791437699 ], [ -73.881479960428507, 40.769345033542997 ], [ -73.882036541101201, 40.769046600114599 ], [ -73.882385076085399, 40.768865676560402 ], [ -73.883129888149, 40.768511166445499 ], [ -73.883212838721207, 40.768471683466103 ], [ -73.883690038974095, 40.7682665173215 ], [ -73.884320517895702, 40.767989932968803 ], [ -73.884664910246897, 40.767861225864401 ], [ -73.884917277845801, 40.7677689084557 ], [ -73.885210895405294, 40.767661499825202 ], [ -73.885706051714607, 40.7674973530317 ], [ -73.886227993482095, 40.767335453796697 ], [ -73.886712306867196, 40.767195786593597 ], [ -73.886802696517705, 40.7671697191197 ], [ -73.886868625348498, 40.767150707369602 ], [ -73.887647467530797, 40.766941272610097 ], [ -73.887731296149298, 40.766922706015798 ], [ -73.887819559594305, 40.767210349449002 ], [ -73.888132040948804, 40.768272464367897 ], [ -73.888179006399099, 40.7684365281252 ], [ -73.888186833401804, 40.768487675825803 ], [ -73.888190721217995, 40.768517461166098 ], [ -73.888219191942198, 40.768598259353404 ], [ -73.888266459315901, 40.7686765320502 ], [ -73.888331656638798, 40.768748547593503 ], [ -73.888412250573097, 40.768810908253798 ], [ -73.888504336614304, 40.768861079073602 ], [ -73.888603255124295, 40.768897687504897 ], [ -73.888635791515597, 40.768905078198202 ], [ -73.888701685908103, 40.768918067992402 ], [ -73.888745854837794, 40.768926450754201 ], [ -73.888689827361503, 40.768985868638097 ], [ -73.888710346449898, 40.769099795284603 ], [ -73.889041417107904, 40.770924510362903 ], [ -73.889403677302397, 40.772934990336097 ], [ -73.889414222706506, 40.772993514505302 ], [ -73.889435736484899, 40.773273663417498 ], [ -73.889456283229293, 40.773541224008298 ], [ -73.8877998523852, 40.773719569896599 ], [ -73.887680815857607, 40.773827064220498 ], [ -73.885809036581094, 40.774030497077902 ], [ -73.885811538096107, 40.774044290271299 ], [ -73.885819337394693, 40.7740872713537 ], [ -73.885829351061005, 40.774086220670704 ], [ -73.885835029342005, 40.774117513058499 ], [ -73.8857929323853, 40.7741219276934 ], [ -73.8857917576902, 40.774115459870202 ], [ -73.885683237195096, 40.774126840668899 ], [ -73.885684340049707, 40.774132918087098 ], [ -73.885670890255795, 40.774134328711497 ], [ -73.885696394544198, 40.7742748830998 ], [ -73.885703484556799, 40.774274139785199 ], [ -73.885713630130397, 40.774330044288597 ], [ -73.885675402699903, 40.774334052615501 ], [ -73.885674906272399, 40.774331323297197 ], [ -73.885651963330901, 40.774333730156897 ], [ -73.8856714903457, 40.774441343904599 ], [ -73.885627921079902, 40.7744459124822 ], [ -73.885603774701707, 40.774312836603997 ], [ -73.885647687494497, 40.774308232190897 ], [ -73.885649089409995, 40.774315963887098 ], [ -73.885669145025901, 40.774313861070098 ], [ -73.885662723482397, 40.774278478300701 ], [ -73.885669326840798, 40.774277785433 ], [ -73.885644179514799, 40.774139206018098 ], [ -73.8856399472905, 40.774139650284098 ], [ -73.8856337240166, 40.774105347411897 ], [ -73.885677282039794, 40.774100779491 ], [ -73.885678497320299, 40.774107475190597 ], [ -73.885789454804396, 40.774095838822198 ], [ -73.885788248026202, 40.774089190374497 ], [ -73.885796190986397, 40.774088357268099 ], [ -73.885788603457797, 40.774046541870199 ], [ -73.885786150683998, 40.774032984768297 ], [ -73.884316980135296, 40.774192637173101 ], [ -73.884084037796896, 40.774112752822298 ], [ -73.883917692753101, 40.774140879281802 ], [ -73.883933095966, 40.774192917554998 ], [ -73.884109776192304, 40.7741753555865 ], [ -73.884552918654805, 40.774368894542199 ], [ -73.884661239978698, 40.774488373942397 ], [ -73.884793638608301, 40.774815335911697 ], [ -73.884838837371305, 40.774961253061697 ], [ -73.8848567742791, 40.7751104844195 ], [ -73.884836609434799, 40.775229114987098 ], [ -73.8847750325357, 40.775340553481598 ], [ -73.884676650770103, 40.775405038883797 ], [ -73.884603166964297, 40.775428783612902 ], [ -73.884550239770107, 40.7754363220226 ], [ -73.884456607577405, 40.775473076782703 ], [ -73.884421298489102, 40.775464738633701 ], [ -73.884288790437196, 40.775480328602903 ], [ -73.884289718843405, 40.775491369978297 ], [ -73.884333583518497, 40.775491243308203 ], [ -73.884363984906102, 40.775501646673703 ], [ -73.884410985239597, 40.7755576333251 ], [ -73.884432765852793, 40.775664375041103 ], [ -73.884719651460301, 40.777070286035297 ], [ -73.884758857618706, 40.777262411454601 ], [ -73.884824634363198, 40.777520671027197 ], [ -73.884933392642296, 40.777913295497697 ], [ -73.884992117822094, 40.778153490826298 ], [ -73.8850339002894, 40.778308105189801 ], [ -73.8850566403231, 40.778413586230997 ], [ -73.885115405988202, 40.778483802533003 ], [ -73.885201497759496, 40.778521844766402 ], [ -73.885240557723506, 40.778567494183797 ], [ -73.885251683679599, 40.778621175263098 ], [ -73.885220173229897, 40.778669635833701 ], [ -73.885084872530101, 40.778679586699901 ], [ -73.885054331170707, 40.778783708728902 ], [ -73.885125578155197, 40.779069482393197 ], [ -73.885085520968801, 40.779360844784797 ], [ -73.885162938642097, 40.779421538399397 ], [ -73.885121102644007, 40.779519649083703 ], [ -73.885171053953201, 40.7795418428978 ], [ -73.885173133812401, 40.779535522723499 ], [ -73.885427383381199, 40.779648145889603 ], [ -73.885414286440707, 40.779668233755103 ], [ -73.885157643355399, 40.7795587331969 ], [ -73.885162606033603, 40.7795524247746 ], [ -73.885110283886206, 40.779530583747402 ], [ -73.885026386691493, 40.7795655921528 ], [ -73.885101986094597, 40.779620705056502 ], [ -73.885050717247296, 40.7796335195548 ], [ -73.885132802330503, 40.779744391742803 ], [ -73.885151150769005, 40.779736904718703 ], [ -73.885194776593707, 40.779794487851497 ], [ -73.885159963616701, 40.779806604126897 ], [ -73.885022996357904, 40.779623127764701 ], [ -73.885059223154002, 40.779608511449197 ], [ -73.885010388895097, 40.779573080832698 ], [ -73.884979838549697, 40.779752656156802 ], [ -73.884936077605403, 40.779945186095198 ], [ -73.884882551089902, 40.7799954700412 ], [ -73.884783663961898, 40.780046753811398 ], [ -73.884451739745103, 40.780162874673998 ], [ -73.883853445660307, 40.780272594149899 ], [ -73.883254127686399, 40.780273696816103 ], [ -73.883241795821505, 40.780333997200003 ], [ -73.882906325033503, 40.780356970679598 ], [ -73.882879930665496, 40.780244594030698 ], [ -73.882812573429703, 40.780227210617902 ], [ -73.882745910280207, 40.7802316974931 ], [ -73.8826417181875, 40.780294131395699 ], [ -73.882319183894097, 40.780368822761098 ], [ -73.882160410173498, 40.780376141032797 ], [ -73.882120042920604, 40.780404137156303 ], [ -73.882084346557605, 40.780459110158397 ], [ -73.882027707428804, 40.780493317025098 ], [ -73.881873418016994, 40.780506728877697 ], [ -73.881685489622896, 40.780508336151001 ], [ -73.881560134564793, 40.780554899764901 ], [ -73.881392172552594, 40.7806098824529 ], [ -73.881220560013503, 40.7806188907877 ], [ -73.880962291682195, 40.780593851293098 ], [ -73.880871451367796, 40.780581333730197 ], [ -73.880751670972998, 40.780582600308101 ], [ -73.880389586483503, 40.780627690486298 ], [ -73.880190706705804, 40.780643241512401 ], [ -73.880023817235596, 40.780652993940897 ], [ -73.879907290048195, 40.780647418772503 ], [ -73.879736080600594, 40.7806630916605 ], [ -73.879614851505593, 40.780702593080498 ], [ -73.879587880471703, 40.780706384484397 ], [ -73.879592122507702, 40.780787422859099 ], [ -73.879605493402906, 40.780787436828703 ], [ -73.879608336469005, 40.780858587221203 ], [ -73.879476098537495, 40.780865225236901 ], [ -73.879474825123197, 40.780710963045898 ], [ -73.879449462315407, 40.780708750644102 ], [ -73.879359472410002, 40.780664954756602 ], [ -73.879305503782206, 40.780767681527003 ], [ -73.879206250522699, 40.780775663488598 ], [ -73.879135120264095, 40.780686503018501 ], [ -73.878926298754493, 40.780681825794098 ], [ -73.878707037024199, 40.7805941840858 ], [ -73.879052568946307, 40.781738807208498 ], [ -73.879310095057903, 40.781861932192498 ], [ -73.878859786850001, 40.782406453166303 ], [ -73.878889724359396, 40.7824227010992 ], [ -73.878885259582503, 40.7824272137319 ], [ -73.879146516308893, 40.782552842299403 ], [ -73.879165869396203, 40.782531405928601 ], [ -73.879182200128099, 40.7825381981161 ], [ -73.879165818161695, 40.782559638777599 ], [ -73.879749190841494, 40.782844838746797 ], [ -73.8797030490162, 40.782891092622698 ], [ -73.879679296542605, 40.782880904055801 ], [ -73.879706103082796, 40.782845922900897 ], [ -73.879458207758802, 40.782723697119103 ], [ -73.879422477526703, 40.7827643153271 ], [ -73.879407637865398, 40.7827541360288 ], [ -73.879431480889707, 40.782714634008798 ], [ -73.8791479595955, 40.782576560060903 ], [ -73.879083923855703, 40.782658933187399 ], [ -73.879061657232597, 40.782648745548997 ], [ -73.879125688009097, 40.782568630673097 ], [ -73.8788688837124, 40.782445265652399 ], [ -73.878858468996299, 40.782453160065501 ], [ -73.878832879804904, 40.782438988986698 ], [ -73.878340644846304, 40.7830341953755 ], [ -73.875158959688704, 40.7815177235912 ], [ -73.874846683978504, 40.781693199063596 ], [ -73.871249972201198, 40.786046426215997 ], [ -73.8697822211887, 40.7853462087037 ] ] ], [ [ [ -73.872829808113394, 40.785962737130298 ], [ -73.872824038919802, 40.785972250060901 ], [ -73.872775469663793, 40.785950196850202 ], [ -73.872810610428303, 40.785911384482503 ], [ -73.872854910376105, 40.7859339264986 ], [ -73.872841889439101, 40.785951398268303 ], [ -73.872886380131604, 40.785970908607602 ], [ -73.872873369330406, 40.785983303199203 ], [ -73.872829808113394, 40.785962737130298 ] ] ] ] } }
]
}
