{
"type": "FeatureCollection",
"name": "lic_hunters_point",
"crs": { "type": "name", "properties": { "name": "urn:ogc:def:crs:OGC:1.3:CRS84" } },
"features": [
{ "type": "Feature", "properties": { "OBJECTID": 166, "BoroCode": 4, "BoroName": "Queens", "CountyFIPS": "081", "NTA2020": "QN0201", "NTAName": "Long Island City-Hunters Point", "NTAAbbrev": "LIC", "NTAType": 0, "CDTA2020": "QN02", "CDTAName": "QN02 Long Island City-Sunnyside-Woodside (CD 2 Approximation)", "Shape__Area": 27595429.634274006, "Shape__Length": 37374.736494184071 }, "geometry": { "type": "Polygon", "coordinates": [ [ [ -73.9368649852142, 40.748429529450497 ], [ -73.9366382473508, 40.748212359486097 ], [ -73.938124295162396, 40.747068220185298 ], [ -73.938821425108699, 40.746566773202296 ], [ -73.939549779582805, 40.746037736062704 ], [ -73.939966063967503, 40.745753849662798 ], [ -73.940328390032704, 40.745421408143997 ], [ -73.941848794510406, 40.744911954813603 ], [ -73.942724860860807, 40.744585127807603 ], [ -73.943428858993997, 40.744239436745097 ], [ -73.943839002086705, 40.743880079419398 ], [ -73.943996768673301, 40.7436671151955 ], [ -73.944011734118703, 40.743647719237401 ], [ -73.944197046659497, 40.742890410396598 ], [ -73.9429775706447, 40.743377194797901 ], [ -73.942112119261694, 40.743721998987702 ], [ -73.941742597727497, 40.743867416336002 ], [ -73.940317026938999, 40.7444127629443 ], [ -73.939261102096197, 40.744756132574999 ], [ -73.938259047999694, 40.745076702143997 ], [ -73.937698244482704, 40.745246839912397 ], [ -73.937262535839096, 40.745184755887401 ], [ -73.937652585837498, 40.743313399360297 ], [ -73.938019945313499, 40.741463288923299 ], [ -73.938199995350004, 40.740551496132802 ], [ -73.938625956890704, 40.7384130446803 ], [ -73.938649126224206, 40.7383341376581 ], [ -73.938666074504795, 40.738276423434797 ], [ -73.938681117171697, 40.738216565698202 ], [ -73.939656496448507, 40.738545646997402 ], [ -73.939964674582896, 40.738649620677201 ], [ -73.940651459736003, 40.738925685453196 ], [ -73.941343369874104, 40.739207973844998 ], [ -73.941463163413403, 40.739256847472099 ], [ -73.941410293343694, 40.739307834563597 ], [ -73.941351267356893, 40.739369894672997 ], [ -73.941019169740599, 40.739688036843098 ], [ -73.940779446696993, 40.739930045454699 ], [ -73.940510317246904, 40.740122205801299 ], [ -73.940363022006295, 40.740343609754902 ], [ -73.940562878915699, 40.740426587040197 ], [ -73.940283731581204, 40.740807546604003 ], [ -73.9399253303188, 40.741362694950404 ], [ -73.939657541169296, 40.741777480270798 ], [ -73.939110170273494, 40.742625300266802 ], [ -73.938671346278994, 40.7425423466116 ], [ -73.938589298512596, 40.742939147354697 ], [ -73.939308891775994, 40.743076018693799 ], [ -73.939745788116696, 40.743167777270301 ], [ -73.939757448317096, 40.743152282157503 ], [ -73.940020658976707, 40.743216536882201 ], [ -73.940150014451007, 40.7428407060534 ], [ -73.939654444287598, 40.742739351686502 ], [ -73.940049580182801, 40.742079490788399 ], [ -73.940085492078495, 40.742071509086401 ], [ -73.940143244027198, 40.741977450611699 ], [ -73.9408011581652, 40.740905932589897 ], [ -73.9411895963799, 40.7402984818509 ], [ -73.941596129822599, 40.739872390130202 ], [ -73.941651448336202, 40.739872418169 ], [ -73.941836479516098, 40.739700884633301 ], [ -73.942035101306999, 40.739665202466497 ], [ -73.942088078827098, 40.739600850892302 ], [ -73.942160807432202, 40.739559897409997 ], [ -73.942381159830603, 40.739438735818403 ], [ -73.942414649253806, 40.739431001455301 ], [ -73.942449595041694, 40.739422160460599 ], [ -73.942483079008099, 40.739419963325801 ], [ -73.942512194374103, 40.739419977862397 ], [ -73.942535489400498, 40.739416666601201 ], [ -73.9425718852941, 40.739414470893401 ], [ -73.942598098263701, 40.739403411637099 ], [ -73.942617040235206, 40.739383490290102 ], [ -73.942627243763695, 40.739366886301099 ], [ -73.942650566183403, 40.7393314642351 ], [ -73.942681155463006, 40.739310441494403 ], [ -73.942701557706201, 40.739286091963798 ], [ -73.942711770427707, 40.739259522327103 ], [ -73.942729091060201, 40.7392398609935 ], [ -73.942791886265496, 40.739201984992398 ], [ -73.942712819896002, 40.739151956642203 ], [ -73.942697313498002, 40.7391421446113 ], [ -73.942707519754094, 40.739123326754203 ], [ -73.942792499232795, 40.739077297217598 ], [ -73.942902848177397, 40.739012065251302 ], [ -73.943291698681804, 40.739016886127402 ], [ -73.943533090472499, 40.738931069200397 ], [ -73.943606977588999, 40.738932630390799 ], [ -73.9436786752091, 40.7389189609803 ], [ -73.943788325111697, 40.7388907225602 ], [ -73.943894564335494, 40.738855745381599 ], [ -73.943923301843597, 40.738844892942801 ], [ -73.943951701982499, 40.7388200116416 ], [ -73.943971386789599, 40.738790659726099 ], [ -73.944340255712405, 40.738654503391402 ], [ -73.9445939591524, 40.7385821516067 ], [ -73.944803025899304, 40.7385088419082 ], [ -73.945240051324504, 40.738365087183602 ], [ -73.945295634762601, 40.738323122089803 ], [ -73.945359910106802, 40.7382777489142 ], [ -73.945483796568496, 40.738215294794301 ], [ -73.946012783362306, 40.738129077715001 ], [ -73.947152302994994, 40.737908386726701 ], [ -73.950337694305205, 40.739015249330599 ], [ -73.950394624233596, 40.7390358238288 ], [ -73.950726114641597, 40.739138768046601 ], [ -73.951361741000497, 40.739323237549897 ], [ -73.951382147143505, 40.739344740810203 ], [ -73.951923514730098, 40.739495569453702 ], [ -73.952198160483704, 40.739544518390503 ], [ -73.952216806673604, 40.739511720268801 ], [ -73.952298640853797, 40.739526892045298 ], [ -73.952434985704102, 40.739552198015502 ], [ -73.952499486770506, 40.739566902964597 ], [ -73.952567917396806, 40.739584041476803 ], [ -73.952603812699294, 40.739592287161599 ], [ -73.952635438916701, 40.739599552390402 ], [ -73.952700258424699, 40.739614442977199 ], [ -73.952755562091795, 40.739627963781501 ], [ -73.952832777289899, 40.739644259228399 ], [ -73.952917960028103, 40.739660376617202 ], [ -73.953017173706101, 40.739677436810197 ], [ -73.953319784491498, 40.739726862208499 ], [ -73.9534159780723, 40.739744533477698 ], [ -73.953501574959105, 40.739762191007301 ], [ -73.953672918840795, 40.739802602424 ], [ -73.953754952595006, 40.739821267343302 ], [ -73.953778675436595, 40.739825481778901 ], [ -73.953800221515706, 40.739828129299703 ], [ -73.953810272640595, 40.739828556502701 ], [ -73.953821460883603, 40.739828092752902 ], [ -73.953860249646098, 40.739823380201003 ], [ -73.9538754988574, 40.739822333405598 ], [ -73.953997750595207, 40.739822354825698 ], [ -73.954046814671997, 40.7398203213762 ], [ -73.954162395086499, 40.739811533766698 ], [ -73.954214785080296, 40.739808996979903 ], [ -73.954343976036299, 40.739807112162502 ], [ -73.954454826321793, 40.739808542667603 ], [ -73.954575749305207, 40.739813012282298 ], [ -73.954675490198497, 40.739819796524799 ], [ -73.954743539811105, 40.739824163223403 ], [ -73.954785651542394, 40.739824179763197 ], [ -73.954798107167505, 40.739822978629803 ], [ -73.954811653240398, 40.739820507067598 ], [ -73.9548584027293, 40.739807971977001 ], [ -73.954877288469604, 40.739804044517498 ], [ -73.954915414475806, 40.739798250972797 ], [ -73.954941096586694, 40.739795532185703 ], [ -73.954987744675506, 40.7397928408542 ], [ -73.955024577238603, 40.739791449361697 ], [ -73.955061409799001, 40.739790059532702 ], [ -73.955205069781599, 40.739787071541997 ], [ -73.955230241741106, 40.739785055767797 ], [ -73.955292071620093, 40.739776353670301 ], [ -73.9553205937206, 40.739773834587197 ], [ -73.9553677976714, 40.739773150283703 ], [ -73.955413223362797, 40.739775346559099 ], [ -73.955420349911805, 40.739776213921502 ], [ -73.955428162992604, 40.739777729876302 ], [ -73.955461153798296, 40.739786054293802 ], [ -73.9554690846402, 40.739787354014801 ], [ -73.955476401014806, 40.739787942013201 ], [ -73.955495852197899, 40.739787824388699 ], [ -73.955515518011694, 40.739786229093497 ], [ -73.955516524836995, 40.739786148232 ], [ -73.955538678838906, 40.7397828970578 ], [ -73.955552734129995, 40.739780048000497 ], [ -73.955563058285094, 40.739777962092397 ], [ -73.955569465521194, 40.7397761458977 ], [ -73.955576286073494, 40.739773482848598 ], [ -73.955603583904505, 40.739760202164803 ], [ -73.955609896730195, 40.739757934615298 ], [ -73.955615935070099, 40.739756405918698 ], [ -73.955625727527803, 40.7397549873928 ], [ -73.955636714085102, 40.739754388362599 ], [ -73.955680707733904, 40.739755864454999 ], [ -73.955690629967904, 40.739755696390603 ], [ -73.955699438312706, 40.7397549800856 ], [ -73.955876853308496, 40.739730049565601 ], [ -73.955982159259307, 40.7397195725529 ], [ -73.956120408887799, 40.739713420464298 ], [ -73.956150518423598, 40.739710019083901 ], [ -73.956216363817404, 40.739700192744003 ], [ -73.956244045851093, 40.739697276745403 ], [ -73.956367369073803, 40.739688597416396 ], [ -73.956543330430094, 40.739677164596401 ], [ -73.956560000601797, 40.739675144653297 ], [ -73.956578223471098, 40.739671549372197 ], [ -73.956636257832997, 40.739655866307203 ], [ -73.956657264400704, 40.739650993500099 ], [ -73.956737934625394, 40.739635642728601 ], [ -73.956800144734402, 40.739625625217002 ], [ -73.956824973395399, 40.739622987442502 ], [ -73.956851966614195, 40.739621818507501 ], [ -73.956881659418698, 40.739622063494501 ], [ -73.956916525214595, 40.739623751303597 ], [ -73.956920443889402, 40.739624149136901 ], [ -73.956924467872696, 40.739624844033798 ], [ -73.956932991179499, 40.739627197784202 ], [ -73.956958711690007, 40.739637770273802 ], [ -73.956967316056605, 40.739640799350902 ], [ -73.956975057586206, 40.739642639002597 ], [ -73.956978751750896, 40.739643153683502 ], [ -73.956982374508698, 40.739643397614898 ], [ -73.957021963935702, 40.7396432142111 ], [ -73.957063226741397, 40.7396400961875 ], [ -73.957106052342496, 40.739634061091301 ], [ -73.957150325530904, 40.739625125798099 ], [ -73.957176008678701, 40.739618148326798 ], [ -73.957231368136704, 40.739600383456803 ], [ -73.957254848884702, 40.739594232395397 ], [ -73.957285126591401, 40.739588408851503 ], [ -73.957366801668002, 40.739575363678 ], [ -73.957416142231196, 40.739564845358402 ], [ -73.957467509015402, 40.739551681853897 ], [ -73.957521600320007, 40.739535699359401 ], [ -73.957580110180302, 40.7395164044597 ], [ -73.957585936669304, 40.739514030243399 ], [ -73.957591419307604, 40.739511024493297 ], [ -73.957596644003999, 40.739507369818099 ], [ -73.957601653967004, 40.739503004249102 ], [ -73.957611001961396, 40.739492454196501 ], [ -73.957635992679002, 40.739458585364098 ], [ -73.957640837767798, 40.7394537163159 ], [ -73.9576458132276, 40.739449566506302 ], [ -73.957651012495205, 40.739446056729598 ], [ -73.957656471936204, 40.739443149305799 ], [ -73.957693111367902, 40.739428484944298 ], [ -73.957791207079794, 40.739397858745498 ], [ -73.957814417109304, 40.739389474343703 ], [ -73.957834489100605, 40.739380936171898 ], [ -73.957873181391093, 40.739360733578899 ], [ -73.957961878357494, 40.739308175929601 ], [ -73.957986582502699, 40.739295614599797 ], [ -73.958009922808401, 40.739285564658402 ], [ -73.958038638479294, 40.739276299521798 ], [ -73.958107778261095, 40.739258872459601 ], [ -73.958124558613605, 40.739253367613202 ], [ -73.958139099986695, 40.739247375621296 ], [ -73.958256556456604, 40.739191892963497 ], [ -73.958368490473703, 40.739141595309697 ], [ -73.958468258834401, 40.739103315191002 ], [ -73.958585749026099, 40.739049425217203 ], [ -73.958684039913507, 40.739006524336403 ], [ -73.9587871975463, 40.738962868731399 ], [ -73.958814220429403, 40.738952414865501 ], [ -73.958876484531601, 40.738930455470502 ], [ -73.958903921569004, 40.738919460956097 ], [ -73.958926304208205, 40.738908654105103 ], [ -73.958986123555704, 40.738876535982001 ], [ -73.959029881817102, 40.7388563172128 ], [ -73.959137681358101, 40.738809483962903 ], [ -73.959186128269906, 40.738787322485997 ], [ -73.959207410392906, 40.738775181679898 ], [ -73.959252298874802, 40.7387440941121 ], [ -73.9592637989888, 40.738737506853198 ], [ -73.959274896327699, 40.738732260667199 ], [ -73.959395516688005, 40.738685621012898 ], [ -73.959533252390997, 40.738626595819802 ], [ -73.959637389558495, 40.738584533306799 ], [ -73.959725638622004, 40.738543861812403 ], [ -73.959784138732203, 40.7385199737205 ], [ -73.959838430567302, 40.738502234696597 ], [ -73.959855481830303, 40.738498359556502 ], [ -73.959874934143201, 40.738495726956401 ], [ -73.959933018879298, 40.738492902579303 ], [ -73.959954423549604, 40.738493422654599 ], [ -73.960006535102494, 40.738499510579601 ], [ -73.9600191074272, 40.738500361455799 ], [ -73.960030413799004, 40.7385004278674 ], [ -73.9600431641977, 40.738499253240697 ], [ -73.960056059180701, 40.738496438243899 ], [ -73.960069014374298, 40.7384920126675 ], [ -73.960081898269195, 40.738486011143699 ], [ -73.960094665493401, 40.738478433489497 ], [ -73.960106983144797, 40.738469459010297 ], [ -73.960118568300103, 40.738459296513803 ], [ -73.960129028053601, 40.738448287115503 ], [ -73.960132287035705, 40.738443902066699 ], [ -73.960134893714496, 40.738439032138103 ], [ -73.960136886001393, 40.738433628927702 ], [ -73.960138298527198, 40.7384276058363 ], [ -73.960139920741597, 40.738388055585702 ], [ -73.960142000342003, 40.738375125275397 ], [ -73.960144087580304, 40.738369308139902 ], [ -73.960146907401693, 40.738364158347999 ], [ -73.960150520852594, 40.738359612093397 ], [ -73.960154952197598, 40.738355606897002 ], [ -73.9601619151764, 40.738351043037802 ], [ -73.9601706078017, 40.738346769262002 ], [ -73.960201894174503, 40.738335253756397 ], [ -73.960212587509005, 40.738330628695699 ], [ -73.960221801083605, 40.7383251291376 ], [ -73.960225472177797, 40.738322149607697 ], [ -73.960228588812996, 40.738318963493697 ], [ -73.960271925150295, 40.738268198843798 ], [ -73.960286875978795, 40.738252255316198 ], [ -73.960727239279095, 40.738088433120801 ], [ -73.961710537507599, 40.738227181597502 ], [ -73.961955852498406, 40.738249145194999 ], [ -73.962101425083304, 40.738268454708098 ], [ -73.962135482142401, 40.738274148741503 ], [ -73.962165597296902, 40.738280497838502 ], [ -73.962166492208098, 40.738280801187798 ], [ -73.962167272103002, 40.738281187927498 ], [ -73.9621676104952, 40.7382814120215 ], [ -73.962167912751099, 40.738281664080503 ], [ -73.962168199798697, 40.738281935902698 ], [ -73.962168437056206, 40.738282233005002 ], [ -73.962168845893999, 40.738282903915099 ], [ -73.962169126942598, 40.738283656033502 ], [ -73.962169293178803, 40.738284520189502 ], [ -73.962169344614495, 40.7382854759446 ], [ -73.962169174641403, 40.738287314323898 ], [ -73.962168654490895, 40.738289513775101 ], [ -73.9621654025987, 40.738299504653199 ], [ -73.962157948295001, 40.738327119941196 ], [ -73.962132903362999, 40.7384011086355 ], [ -73.962127976598296, 40.7384236776835 ], [ -73.9621261239039, 40.738444168236697 ], [ -73.962126271741795, 40.738446789571299 ], [ -73.962126807237894, 40.738449370826999 ], [ -73.962127741182798, 40.7384519150229 ], [ -73.962129061023703, 40.7384544198095 ], [ -73.9621328971445, 40.738459333615701 ], [ -73.962138388018801, 40.738464188661503 ], [ -73.962144646328099, 40.738468494472599 ], [ -73.962152511888206, 40.738473005026201 ], [ -73.962183616698795, 40.738488293653504 ], [ -73.962266056585406, 40.738531647716997 ], [ -73.962353452289904, 40.738572815781197 ], [ -73.962400029455395, 40.738591498633298 ], [ -73.962426818785303, 40.738605320599703 ], [ -73.962452292338995, 40.738620360885498 ], [ -73.962476187014303, 40.738636452884798 ], [ -73.962498281769996, 40.738653440224297 ], [ -73.962518349188002, 40.738671147598403 ], [ -73.962536282060299, 40.738689479148199 ], [ -73.962551959980502, 40.7387083088556 ], [ -73.962565285657305, 40.738727530310797 ], [ -73.962593288531394, 40.738776472200897 ], [ -73.9626096336969, 40.738803802072297 ], [ -73.962621595193397, 40.739040925187801 ], [ -73.962432226898201, 40.739679743779099 ], [ -73.962210601051893, 40.740014438764902 ], [ -73.961791919291798, 40.7400213942025 ], [ -73.961537993660698, 40.740168086925202 ], [ -73.961433010076604, 40.740304954045399 ], [ -73.961411707852093, 40.740331884985103 ], [ -73.961286611100505, 40.740357548253002 ], [ -73.961248415966395, 40.740431860497701 ], [ -73.961248258705893, 40.740432995101003 ], [ -73.9612625152551, 40.7404550584303 ], [ -73.961317319569105, 40.740478903456697 ], [ -73.961506801712602, 40.740538530776298 ], [ -73.961721338616499, 40.740607698699101 ], [ -73.961827825816599, 40.740639897597198 ], [ -73.9619389369592, 40.740803142246797 ], [ -73.961889498610901, 40.740990433278803 ], [ -73.961805410961404, 40.741105936967003 ], [ -73.961653953378004, 40.741141020605603 ], [ -73.961460373714601, 40.741145768691403 ], [ -73.961220064403705, 40.741116123647501 ], [ -73.961119139752995, 40.741545541266397 ], [ -73.961075022109995, 40.741634191697798 ], [ -73.961075361552702, 40.741702768389402 ], [ -73.961110447398099, 40.741802335119999 ], [ -73.961271404034406, 40.741839352870102 ], [ -73.961292346880398, 40.741802210272503 ], [ -73.961365703448493, 40.741818330666 ], [ -73.961366301805299, 40.741845461556899 ], [ -73.9613547709003, 40.741871139846701 ], [ -73.961339837977803, 40.741879938344901 ], [ -73.961109580906097, 40.741836289067599 ], [ -73.961174214427501, 40.741894597812497 ], [ -73.961553967733707, 40.742001525086202 ], [ -73.961191733857802, 40.742653119079101 ], [ -73.961115130761499, 40.742756812980303 ], [ -73.961096922491294, 40.742790211078301 ], [ -73.960973119759004, 40.742762318112099 ], [ -73.960935933962901, 40.742838023887003 ], [ -73.960647457642096, 40.743400970248103 ], [ -73.960598701658299, 40.743440247356503 ], [ -73.960543956216199, 40.743474657974403 ], [ -73.960484055014405, 40.7435036780697 ], [ -73.960419910271497, 40.743526865700403 ], [ -73.960352498833601, 40.743543867746098 ], [ -73.960282847297293, 40.743554425284998 ], [ -73.960212016375394, 40.743558377538001 ], [ -73.960141084742503, 40.743555664316702 ], [ -73.959776143544403, 40.743512947737898 ], [ -73.959721250850393, 40.7437013095415 ], [ -73.959757298747903, 40.743707113526099 ], [ -73.959707419173796, 40.743866914170297 ], [ -73.959758707490195, 40.7438830147929 ], [ -73.960017124950994, 40.743928373911402 ], [ -73.960023397646694, 40.743915570210802 ], [ -73.959933006318806, 40.7438080236061 ], [ -73.959934579911305, 40.7437970044409 ], [ -73.959948287971997, 40.743792839981303 ], [ -73.960075072681803, 40.743938222445102 ], [ -73.960125189463994, 40.743947472012799 ], [ -73.960130289226697, 40.743934667900398 ], [ -73.960036376631095, 40.743821461622296 ], [ -73.960043430748399, 40.743811338109801 ], [ -73.960059094105702, 40.7438119390984 ], [ -73.960179222938294, 40.743956127859299 ], [ -73.960217984656197, 40.7439656716572 ], [ -73.960214055164798, 40.743989198195699 ], [ -73.960510309250395, 40.744050256767402 ], [ -73.960522345653104, 40.744028004187399 ], [ -73.960570003776198, 40.744037930697601 ], [ -73.960518761863995, 40.744113605210202 ], [ -73.960120954896496, 40.744037936422501 ], [ -73.960107462081695, 40.744066973941202 ], [ -73.959924423544095, 40.7440353062306 ], [ -73.959934550622094, 40.744002852538799 ], [ -73.959633685786301, 40.7439428960407 ], [ -73.959555448574093, 40.744023760846098 ], [ -73.959363417567403, 40.744222240227899 ], [ -73.959405117664701, 40.744234338938803 ], [ -73.959392501586393, 40.744291588444597 ], [ -73.959461567244105, 40.744300783999797 ], [ -73.959470567653398, 40.744276016897402 ], [ -73.959714240306994, 40.744323081611597 ], [ -73.959729987884401, 40.7442803798087 ], [ -73.960156690917401, 40.744377046798803 ], [ -73.960127445359603, 40.744452201200502 ], [ -73.960012907090402, 40.744430807253202 ], [ -73.960027536268498, 40.744382126511397 ], [ -73.959802953041105, 40.744337632779001 ], [ -73.959792829455594, 40.744364108450803 ], [ -73.959544664034297, 40.744317042995398 ], [ -73.9595255437292, 40.744363160118802 ], [ -73.959369965027193, 40.744333069555601 ], [ -73.959301151800005, 40.744332486393702 ], [ -73.959235124898598, 40.744318307240597 ], [ -73.959217406541299, 40.744334290347602 ], [ -73.959132051473901, 40.7443942924263 ], [ -73.959035476255295, 40.744443480569799 ], [ -73.958855634687694, 40.744478355416099 ], [ -73.958819851167803, 40.744517171535897 ], [ -73.958776805354603, 40.744563864141703 ], [ -73.959188675297199, 40.744629275533697 ], [ -73.959223321173397, 40.744562069893099 ], [ -73.959412775533295, 40.7445994083904 ], [ -73.959419629943497, 40.7446010240836 ], [ -73.959426232047605, 40.744603165217498 ], [ -73.959432510714095, 40.7446058078107 ], [ -73.959438402080295, 40.7446089268796 ], [ -73.959443844934995, 40.744612484876598 ], [ -73.959448780927701, 40.744616447773403 ], [ -73.959453161625007, 40.744620774006599 ], [ -73.959456934410497, 40.744625417823002 ], [ -73.959460068256206, 40.744630330294001 ], [ -73.959462524204795, 40.744635461650802 ], [ -73.959464278502097, 40.7446407547585 ], [ -73.959465313117406, 40.744646157845203 ], [ -73.959465615089997, 40.744651612942299 ], [ -73.959465186657198, 40.744657062756602 ], [ -73.959464726123102, 40.744663141620698 ], [ -73.959463483015895, 40.744669156046797 ], [ -73.959461467281798, 40.744675049414603 ], [ -73.959458702304502, 40.744680763600499 ], [ -73.959455211906501, 40.744686242994199 ], [ -73.959451029159197, 40.744691436344198 ], [ -73.959446196606507, 40.744696290559602 ], [ -73.959440760531095, 40.744700762099903 ], [ -73.959434773825905, 40.744704804076001 ], [ -73.959428293562695, 40.744708379819997 ], [ -73.959421382980494, 40.744711453168101 ], [ -73.959414108176702, 40.744713996669397 ], [ -73.959406540534602, 40.744715983377198 ], [ -73.9593987545164, 40.744717394722201 ], [ -73.959390822597697, 40.744718218668197 ], [ -73.959382822320094, 40.744718444185601 ], [ -73.959374832318602, 40.744718072474903 ], [ -73.958880634780598, 40.744632595742701 ], [ -73.958759983676103, 40.744953269607997 ], [ -73.959650446655999, 40.745142104311299 ], [ -73.959667341508293, 40.745178564950002 ], [ -73.959638186963801, 40.745211434113202 ], [ -73.959602941465803, 40.745215638226 ], [ -73.959068128017094, 40.745118609681803 ], [ -73.959077724244494, 40.745100733180102 ], [ -73.958623994450605, 40.745016080047101 ], [ -73.958495328277095, 40.744996129288999 ], [ -73.958479982327503, 40.745046356008999 ], [ -73.958472858230095, 40.745068505775002 ], [ -73.958453957937095, 40.7451272762221 ], [ -73.958625947523799, 40.745157695062602 ], [ -73.958625936009895, 40.745176236363498 ], [ -73.958738959419705, 40.7452033538422 ], [ -73.959141876431502, 40.745300028116603 ], [ -73.959192404579696, 40.745304139705901 ], [ -73.959239784944998, 40.7453181102535 ], [ -73.959280752569597, 40.7453409770565 ], [ -73.959312484386999, 40.745371164374902 ], [ -73.959340190198105, 40.745432585555498 ], [ -73.959343112154002, 40.745497482668 ], [ -73.959320995601303, 40.7455602013953 ], [ -73.959275767437504, 40.745615277202099 ], [ -73.9592359859585, 40.7456623812228 ], [ -73.959185769307894, 40.745703314841897 ], [ -73.959126736681895, 40.745736758173003 ], [ -73.959060791552901, 40.745761632849202 ], [ -73.9589688962796, 40.745783341875899 ], [ -73.958827092412207, 40.7457615924368 ], [ -73.958642964546499, 40.745737379740604 ], [ -73.958565416899404, 40.745742962157699 ], [ -73.958503709888802, 40.745773238742501 ], [ -73.958521562320897, 40.745817930622401 ], [ -73.958557555060096, 40.745855777373301 ], [ -73.9586013701051, 40.7459038399939 ], [ -73.959145152444705, 40.746008868226802 ], [ -73.958779497975101, 40.746565001641599 ], [ -73.958721799347202, 40.746654566806598 ], [ -73.958666342811497, 40.746650285387403 ], [ -73.958578877767394, 40.7467593495644 ], [ -73.958484840806406, 40.746846042700199 ], [ -73.958408369321404, 40.746895572052402 ], [ -73.958399578254401, 40.746926066357801 ], [ -73.958359443510901, 40.746982281364197 ], [ -73.958309259212299, 40.747076613982202 ], [ -73.958454602635399, 40.747106210416099 ], [ -73.957520327683696, 40.748311884648302 ], [ -73.957494875836204, 40.748344729826698 ], [ -73.957042408447705, 40.748928616570403 ], [ -73.954855376945204, 40.748049059739202 ], [ -73.954734913757704, 40.748026990809201 ], [ -73.954707046632706, 40.7480218855505 ], [ -73.954394613294397, 40.747964645722199 ], [ -73.954307351856897, 40.748003081020997 ], [ -73.954305777346207, 40.748016184966403 ], [ -73.954373911207796, 40.748024551093998 ], [ -73.954367625566903, 40.748053139464098 ], [ -73.9541530456776, 40.7480226765624 ], [ -73.954156195639897, 40.747996468676 ], [ -73.954229028138798, 40.7480072191495 ], [ -73.954236097964895, 40.7479774398196 ], [ -73.954304231526194, 40.747985209762597 ], [ -73.954366181937303, 40.747959437631501 ], [ -73.953185258639905, 40.747743077057699 ], [ -73.953055189405006, 40.748095752399699 ], [ -73.954785312963907, 40.748435952949599 ], [ -73.9563230598947, 40.749089819182899 ], [ -73.956136427155201, 40.749272891567799 ], [ -73.956013037743602, 40.749382259545399 ], [ -73.956062782082896, 40.749411142284501 ], [ -73.956070307181903, 40.749401138983899 ], [ -73.956250702026395, 40.749494843041703 ], [ -73.956223424999493, 40.749525568369798 ], [ -73.956046792962397, 40.749427576700498 ], [ -73.956057137384406, 40.749419717471298 ], [ -73.956002085659705, 40.749391968530198 ], [ -73.955761826058904, 40.749604924901298 ], [ -73.956175599049899, 40.749673360364199 ], [ -73.956200964867705, 40.749678980295599 ], [ -73.956202802807397, 40.749693898696798 ], [ -73.956122098227596, 40.749768150759799 ], [ -73.956089379873802, 40.7497769945629 ], [ -73.956063892761605, 40.749772543223301 ], [ -73.955596607260802, 40.749692233933601 ], [ -73.955465803923403, 40.749682478479301 ], [ -73.955350719687601, 40.750022122371199 ], [ -73.955216734158, 40.750000233156896 ], [ -73.955229528794007, 40.749951711497999 ], [ -73.955133825993101, 40.749934689790003 ], [ -73.955204184884494, 40.7496848028158 ], [ -73.955067960031101, 40.749640995777902 ], [ -73.954517280044698, 40.750594964585403 ], [ -73.954651438499795, 40.750839306611198 ], [ -73.954477293495003, 40.751105531269602 ], [ -73.954500015980898, 40.751234101474999 ], [ -73.953921020855205, 40.751807269015501 ], [ -73.953950401242594, 40.751831673236801 ], [ -73.953893599776606, 40.751899023656001 ], [ -73.953754563379405, 40.752009816768599 ], [ -73.953622473835296, 40.752093473614302 ], [ -73.952931143326296, 40.752771915494399 ], [ -73.952900396028795, 40.752808185728298 ], [ -73.952909340436406, 40.752868655582702 ], [ -73.952789035361604, 40.752989151246403 ], [ -73.952569358707507, 40.753175937696398 ], [ -73.952011453595304, 40.753843279623297 ], [ -73.951931620962995, 40.753893088192498 ], [ -73.951671334663502, 40.754191681444603 ], [ -73.951538326381396, 40.754338894877797 ], [ -73.951315815062202, 40.754587817144902 ], [ -73.951019360787996, 40.7550951863374 ], [ -73.950878453599202, 40.755175181338103 ], [ -73.950840604834397, 40.755226350260799 ], [ -73.950824860401596, 40.7552195443294 ], [ -73.949145923329397, 40.754493720794201 ], [ -73.948305640532894, 40.754125245960999 ], [ -73.947482312138405, 40.753770739689202 ], [ -73.947351676526296, 40.753713779827002 ], [ -73.946587852491106, 40.753380734639897 ], [ -73.946385492059207, 40.753290607425001 ], [ -73.9457604565563, 40.7530122208411 ], [ -73.945552453953297, 40.752916974928397 ], [ -73.945077345329693, 40.7527028709899 ], [ -73.9448808814481, 40.752614586216801 ], [ -73.944608314753395, 40.752502868846797 ], [ -73.944086888095498, 40.752289143604003 ], [ -73.944054083469695, 40.752321527227203 ], [ -73.944019664873096, 40.752358187500803 ], [ -73.943669247223397, 40.752209340264201 ], [ -73.9435429989326, 40.752155712484601 ], [ -73.942875403254803, 40.7518712185108 ], [ -73.9426778160813, 40.751776656561503 ], [ -73.942534408886999, 40.751717205808198 ], [ -73.942030180363901, 40.751513070506803 ], [ -73.941775965460494, 40.751400806160603 ], [ -73.9415256113449, 40.751290034696197 ], [ -73.940930675747097, 40.7510230893363 ], [ -73.940863728807599, 40.750992560201702 ], [ -73.940812354446393, 40.750969133763199 ], [ -73.9406098028537, 40.750883815489601 ], [ -73.940405488967897, 40.750791181754799 ], [ -73.940176739856199, 40.750697220223103 ], [ -73.939583459562897, 40.750454622852502 ], [ -73.938769021961903, 40.750118373865199 ], [ -73.938118576408101, 40.749840974159298 ], [ -73.937990707761898, 40.749696788482602 ], [ -73.937984507463995, 40.749632126570198 ], [ -73.938020696209193, 40.749532943572703 ], [ -73.938047294079396, 40.749461530744398 ], [ -73.937912122224304, 40.749374474679797 ], [ -73.937697906316501, 40.749166733078901 ], [ -73.937633819081398, 40.7491075474097 ], [ -73.937560183937094, 40.749039534264298 ], [ -73.937493649318696, 40.748978076706599 ], [ -73.937397966546499, 40.748924706347204 ], [ -73.9368649852142, 40.748429529450497 ] ] ] } }
]
}
