{
"type": "FeatureCollection",
"name": "park_slope",
"crs": { "type": "name", "properties": { "name": "urn:ogc:def:crs:OGC:1.3:CRS84" } },
"features": [
{ "type": "Feature", "properties": { "OBJECTID": 22, "BoroCode": 3, "BoroName": "Brooklyn", "CountyFIPS": "047", "NTA2020": "BK0602", "NTAName": "Park Slope", "NTAAbbrev": "PkSlp", "NTAType": 0, "CDTA2020": "BK06", "CDTAName": "BK06 Park Slope-Carroll Gardens (CD 6 Approximation)", "Shape__Area": 25831729.237531662, "Shape__Length": 23539.089836088715 }, "geometry": { "type": "Polygon", "coordinates": [ [ [ -73.969204242301402, 40.672803407724203 ], [ -73.969665375252902, 40.672650617667898 ], [ -73.970003880848395, 40.672639400127203 ], [ -73.970408779302304, 40.672655469203697 ], [ -73.970504059280003, 40.6724537432234 ], [ -73.970855841132604, 40.6718726148831 ], [ -73.971326698136295, 40.671256474362899 ], [ -73.971817381562403, 40.670637724635498 ], [ -73.9723186442735, 40.670037346762697 ], [ -73.972821341916301, 40.669435426584897 ], [ -73.973324278578303, 40.668833172687101 ], [ -73.973826720858696, 40.668231336932301 ], [ -73.974332370896406, 40.667629483742701 ], [ -73.974834711929702, 40.667030346544799 ], [ -73.975338582133801, 40.666427344413002 ], [ -73.975832758198393, 40.665823327971196 ], [ -73.9763352978255, 40.665221852150701 ], [ -73.976846603689296, 40.6646146299829 ], [ -73.977343966073605, 40.664020145607502 ], [ -73.977844187423798, 40.663410017165099 ], [ -73.978350888920403, 40.662807262979896 ], [ -73.978856195940295, 40.662210080761596 ], [ -73.979352036343499, 40.661603068896397 ], [ -73.979654971719995, 40.661251480945303 ], [ -73.979721311562798, 40.661273743973403 ], [ -73.979791842086399, 40.661286511913403 ], [ -73.979864241251207, 40.661289364412902 ], [ -73.979936125495001, 40.661282207560497 ], [ -73.980005128363402, 40.661265277160503 ], [ -73.980068978004397, 40.661239130402798 ], [ -73.980125572337798, 40.661204628102702 ], [ -73.980173048154199, 40.661162906159198 ], [ -73.982231779967407, 40.662149740094002 ], [ -73.984593012212599, 40.663291988864998 ], [ -73.986952457641294, 40.6644334603901 ], [ -73.989314171177597, 40.665574585537797 ], [ -73.991664269492404, 40.666712510666898 ], [ -73.991735093265106, 40.666744843311299 ], [ -73.991235437463899, 40.6673439018914 ], [ -73.990727031233902, 40.667954420821502 ], [ -73.990223962040403, 40.668556346245197 ], [ -73.989723475267297, 40.669156055776099 ], [ -73.989218294292399, 40.669761723625697 ], [ -73.989072238802606, 40.669936869482697 ], [ -73.989071517651595, 40.669937733523099 ], [ -73.988714666240995, 40.670365155214498 ], [ -73.988213548053594, 40.6709690629378 ], [ -73.987717200608301, 40.671563630104103 ], [ -73.987446404526295, 40.671888335383798 ], [ -73.987212444659505, 40.6721688658454 ], [ -73.986710493564701, 40.6727749818549 ], [ -73.9862264492441, 40.673354614474 ], [ -73.985700926247205, 40.673984277749703 ], [ -73.985203999658196, 40.674582060041999 ], [ -73.984700169428507, 40.675183879998897 ], [ -73.984204385507297, 40.675779450192898 ], [ -73.983901926683998, 40.676156903146797 ], [ -73.983475819598695, 40.676782410537001 ], [ -73.983057555387006, 40.677418031778302 ], [ -73.982817531289101, 40.677757294825803 ], [ -73.982618692327407, 40.678050680252802 ], [ -73.982190836232306, 40.6786840549426 ], [ -73.981754773961697, 40.6793214719847 ], [ -73.981325575561399, 40.6799599879242 ], [ -73.980890760798303, 40.680601600209002 ], [ -73.980462992198696, 40.681230797862398 ], [ -73.980036539146397, 40.681860877982501 ], [ -73.979618239080807, 40.682499521094798 ], [ -73.979185343245703, 40.683137089497102 ], [ -73.978761662660304, 40.683773696147099 ], [ -73.978431144850802, 40.684363864453601 ], [ -73.978390063568597, 40.684431593855102 ], [ -73.978078734288601, 40.684923192303501 ], [ -73.977458658603197, 40.684060538876601 ], [ -73.976778914441795, 40.683820563816198 ], [ -73.9759516698158, 40.683521483762398 ], [ -73.975841067201202, 40.683499210917297 ], [ -73.9748397903371, 40.683295993583002 ], [ -73.973762285622897, 40.683057660338498 ], [ -73.972786734426293, 40.682860883315001 ], [ -73.972296705092603, 40.6827638720873 ], [ -73.971865678023804, 40.682678538998999 ], [ -73.970684915966203, 40.682431165943001 ], [ -73.969670838948701, 40.682219905747203 ], [ -73.968691047616801, 40.682013509268501 ], [ -73.967533401972403, 40.681777035283098 ], [ -73.966573905429897, 40.6815730660241 ], [ -73.965511866531997, 40.6813522716295 ], [ -73.964423204997104, 40.681127330979301 ], [ -73.964360267726093, 40.681114127745197 ], [ -73.964105315429407, 40.681060643522002 ], [ -73.963293488399799, 40.680889837535801 ], [ -73.961347990234302, 40.680471775926598 ], [ -73.961411894805295, 40.680421404371501 ], [ -73.961541051859896, 40.680094506572402 ], [ -73.961681418549901, 40.679710457420803 ], [ -73.961957875821398, 40.678942095292001 ], [ -73.962229844805407, 40.678174459366602 ], [ -73.962547786483796, 40.677294868510202 ], [ -73.962865874523402, 40.6764135919042 ], [ -73.963183819789293, 40.675537755584799 ], [ -73.960074890413907, 40.674872535228999 ], [ -73.960394449589998, 40.674006852825798 ], [ -73.960711176550106, 40.673129644742197 ], [ -73.961030414213894, 40.672251434730804 ], [ -73.961265852482995, 40.671571840577997 ], [ -73.961338387297005, 40.671365021312198 ], [ -73.962572662962302, 40.671630494735901 ], [ -73.962753011939498, 40.671674529497203 ], [ -73.963255404356801, 40.671781277453697 ], [ -73.963753351974105, 40.671899485942497 ], [ -73.964246404079901, 40.672029047850998 ], [ -73.964734114219397, 40.672169845995199 ], [ -73.965067532805705, 40.672279730047897 ], [ -73.965404399090701, 40.6723833400209 ], [ -73.965744509438593, 40.6724806132775 ], [ -73.966087658249904, 40.672571491011297 ], [ -73.966433638130795, 40.672655918282203 ], [ -73.966782239882903, 40.672733844048899 ], [ -73.967133252765706, 40.672805221201003 ], [ -73.967486464578897, 40.672870006587203 ], [ -73.967779045054996, 40.672909635261398 ], [ -73.968073969989703, 40.6729374203017 ], [ -73.968370414767193, 40.672953283448102 ], [ -73.968667546752798, 40.672957180545197 ], [ -73.968775874689101, 40.672950617605103 ], [ -73.968943498403405, 40.672895741646897 ], [ -73.969204242301402, 40.672803407724203 ] ] ] } }
]
}
