{
"type": "FeatureCollection",
"name": "red_hook",
"crs": { "type": "name", "properties": { "name": "urn:ogc:def:crs:OGC:1.3:CRS84" } },
"features": [
{ "type": "Feature", "properties": { "OBJECTID": 21, "BoroCode": 3, "BoroName": "Brooklyn", "CountyFIPS": "047", "NTA2020": "BK0601", "NTAName": "Carroll Gardens-Cobble Hill-Gowanus-Red Hook", "NTAAbbrev": "CrrllGrdns", "NTAType": 0, "CDTA2020": "BK06", "CDTAName": "BK06 Park Slope-Carroll Gardens (CD 6 Approximation)", "Shape__Area": 60811447.618884802, "Shape__Length": 67164.912258530589 }, "geometry": { "type": "Polygon", "coordinates": [ [ [ -73.992365112516495, 40.689698376126202 ], [ -73.992624303661799, 40.689168801072299 ], [ -73.992686970436694, 40.689041498740401 ], [ -73.992930333073403, 40.688527674225 ], [ -73.993005959978007, 40.688372888106798 ], [ -73.993269742289598, 40.687832703780202 ], [ -73.993339672583502, 40.687687049357201 ], [ -73.993605674457598, 40.6871354818513 ], [ -73.993788812990402, 40.6867642186591 ], [ -73.9939307385483, 40.686461123308597 ], [ -73.991333939763194, 40.6854566577898 ], [ -73.989129848029805, 40.684597704535797 ], [ -73.989099575644403, 40.684643833077999 ], [ -73.989070180414799, 40.684688623317399 ], [ -73.988820704700899, 40.685068760179099 ], [ -73.988789406973396, 40.685116450899798 ], [ -73.988713002292897, 40.685232870081201 ], [ -73.988284378500296, 40.685875037364603 ], [ -73.986120562833904, 40.685032581661197 ], [ -73.983954367545095, 40.684189680766401 ], [ -73.981993879773896, 40.683426393897399 ], [ -73.979690410498407, 40.682530224751702 ], [ -73.979618239080807, 40.682499521094798 ], [ -73.980036539146397, 40.681860877982501 ], [ -73.980462992198696, 40.681230797862398 ], [ -73.980890760798303, 40.680601600209002 ], [ -73.981325575561399, 40.6799599879242 ], [ -73.981754773961697, 40.6793214719847 ], [ -73.982190836232306, 40.6786840549426 ], [ -73.982618692327407, 40.678050680252802 ], [ -73.982817531289101, 40.677757294825803 ], [ -73.983057555387006, 40.677418031778302 ], [ -73.983475819598695, 40.676782410537001 ], [ -73.983901926683998, 40.676156903146797 ], [ -73.984204385507297, 40.675779450192898 ], [ -73.984700169428507, 40.675183879998897 ], [ -73.985203999658196, 40.674582060041999 ], [ -73.985700926247205, 40.673984277749703 ], [ -73.9862264492441, 40.673354614474 ], [ -73.986710493564701, 40.6727749818549 ], [ -73.987212444659505, 40.6721688658454 ], [ -73.987446404526295, 40.671888335383798 ], [ -73.987717200608301, 40.671563630104103 ], [ -73.988213548053594, 40.6709690629378 ], [ -73.988714666240995, 40.670365155214498 ], [ -73.989071517651595, 40.669937733523099 ], [ -73.989072238802606, 40.669936869482697 ], [ -73.989218294292399, 40.669761723625697 ], [ -73.989723475267297, 40.669156055776099 ], [ -73.990223962040403, 40.668556346245197 ], [ -73.990727031233902, 40.667954420821502 ], [ -73.991235437463899, 40.6673439018914 ], [ -73.991735093265106, 40.666744843311299 ], [ -73.992236064313204, 40.666145872570397 ], [ -73.9927722479962, 40.665515529024802 ], [ -73.992828163840798, 40.665549715436001 ], [ -73.994704183058005, 40.666673458504398 ], [ -73.994859838319101, 40.666852300487001 ], [ -73.995072619387102, 40.667083979513897 ], [ -73.995852734672397, 40.667980743969402 ], [ -73.995980229255807, 40.668006254620501 ], [ -73.996167103202595, 40.668443746786501 ], [ -73.996319946432195, 40.668680800605202 ], [ -73.996482869821406, 40.668933483872102 ], [ -73.996624645502095, 40.668861505222402 ], [ -73.996731412560194, 40.6690327198245 ], [ -73.996753880827498, 40.669068749516299 ], [ -73.996839651540398, 40.669206290477 ], [ -73.996873004761795, 40.669259778861701 ], [ -73.997035138375907, 40.669515011752303 ], [ -73.997494650303196, 40.670238367593001 ], [ -73.997534697734196, 40.670301391277199 ], [ -73.997541594816894, 40.6703122343323 ], [ -73.997563751124403, 40.670347069379901 ], [ -73.997632273325806, 40.670454780687102 ], [ -73.997781863630493, 40.670705370367799 ], [ -73.997895844004105, 40.670881735304903 ], [ -73.998156561452504, 40.671285156611397 ], [ -73.998278659176805, 40.671490161515699 ], [ -73.998373445718002, 40.671649308836201 ], [ -73.998465637552201, 40.671796112923403 ], [ -73.998552349528694, 40.671934190506697 ], [ -73.998620324027499, 40.671838421694602 ], [ -73.998682526045201, 40.671747406210898 ], [ -73.998770854290399, 40.671610295682299 ], [ -73.998927356790702, 40.671423154545501 ], [ -73.9993124554736, 40.670780887944801 ], [ -73.999622842957606, 40.670135416150998 ], [ -73.999629580544195, 40.670121325569099 ], [ -73.999912264014199, 40.669506916546297 ], [ -74.000304822766594, 40.668725140454598 ], [ -74.001058085404495, 40.668953929693203 ], [ -74.001416715383598, 40.668367662195401 ], [ -74.002216512786703, 40.668586885304599 ], [ -74.002896283534, 40.667356713547598 ], [ -74.003192197602502, 40.667271447386 ], [ -74.003696065030496, 40.6674358587941 ], [ -74.003631708528502, 40.667575770971901 ], [ -74.003989865196502, 40.667673889263099 ], [ -74.004403979663707, 40.667787333952496 ], [ -74.005102557488698, 40.667983568744198 ], [ -74.005103718971597, 40.667983895372103 ], [ -74.005471617711095, 40.667959519054399 ], [ -74.005528720180294, 40.667907452325501 ], [ -74.005865107560496, 40.6680020102065 ], [ -74.005974198278395, 40.667890358109297 ], [ -74.006003689736801, 40.667898387695203 ], [ -74.006258166147106, 40.667344987948198 ], [ -74.006227968721902, 40.667342307465198 ], [ -74.006775385241596, 40.666192752415697 ], [ -74.006838212682496, 40.666209490772303 ], [ -74.006872937788103, 40.666136938200403 ], [ -74.006850853181504, 40.666124074298303 ], [ -74.006836525795293, 40.666105928934201 ], [ -74.006831962274404, 40.666085043494697 ], [ -74.0068378017627, 40.666064343130998 ], [ -74.0068532263912, 40.6660467270708 ], [ -74.006876075830405, 40.666034662561501 ], [ -74.006903149861799, 40.6660298393179 ], [ -74.006930656588594, 40.666032932866898 ], [ -74.006952096913693, 40.666044918257903 ], [ -74.006966737077207, 40.666061827172001 ], [ -74.006972754905306, 40.666081555063997 ], [ -74.006969401389, 40.666101646526698 ], [ -74.006957093911794, 40.666119600899101 ], [ -74.006937364304605, 40.666133183509203 ], [ -74.006912668190594, 40.666140703810399 ], [ -74.006886079347893, 40.6661412257953 ], [ -74.006851355500999, 40.666213063696702 ], [ -74.006901314189193, 40.666227419196801 ], [ -74.006754665975805, 40.666543060314197 ], [ -74.006308897705196, 40.667502498638697 ], [ -74.006258961947694, 40.667602948778303 ], [ -74.006047410404605, 40.668061490603897 ], [ -74.005320521201199, 40.669562533312401 ], [ -74.004755332486695, 40.6707296076424 ], [ -74.005440711088397, 40.670929716448398 ], [ -74.006029960086394, 40.669792993742902 ], [ -74.006617167216405, 40.668631403989899 ], [ -74.006804905479598, 40.668599622870801 ], [ -74.007549662419805, 40.667059993110499 ], [ -74.007797979818207, 40.667168018166599 ], [ -74.007088689059501, 40.668599605728303 ], [ -74.009855565619205, 40.668531875920202 ], [ -74.011541622828005, 40.665094166608 ], [ -74.015750177537001, 40.664576582893901 ], [ -74.016904122707302, 40.664854849457903 ], [ -74.017445909805303, 40.665276243031798 ], [ -74.017888640966206, 40.665858713064203 ], [ -74.018577500076205, 40.6704006615156 ], [ -74.018764818855502, 40.671084122267501 ], [ -74.019340919004094, 40.671633196283203 ], [ -74.018884283772096, 40.6716099140775 ], [ -74.017511820532107, 40.671042778793101 ], [ -74.016689132752106, 40.665445313506702 ], [ -74.0165768099817, 40.6650467845054 ], [ -74.0164881045134, 40.664938755601298 ], [ -74.016026966576902, 40.664871295438502 ], [ -74.015938434170707, 40.665479038494198 ], [ -74.012281126398406, 40.665740661111101 ], [ -74.010878087684702, 40.668609863327902 ], [ -74.010358283904196, 40.668651082979103 ], [ -74.010339906730806, 40.669086443124698 ], [ -74.0105612537768, 40.669198772760602 ], [ -74.010911690845404, 40.669198740048202 ], [ -74.010874887242807, 40.669718363340301 ], [ -74.011544327995395, 40.669792590523301 ], [ -74.011623178894894, 40.670122594282297 ], [ -74.011515882341101, 40.670415270774903 ], [ -74.011626722967804, 40.6705892762022 ], [ -74.014063646762907, 40.669714086105699 ], [ -74.014250717861302, 40.669736852404299 ], [ -74.014243253320004, 40.669816618221901 ], [ -74.011754952896794, 40.670666005012698 ], [ -74.011779073598305, 40.670722335775103 ], [ -74.011814050047306, 40.670775262380801 ], [ -74.011859086091505, 40.670823580049202 ], [ -74.011913156583304, 40.670866188911397 ], [ -74.011991745858595, 40.670910044245403 ], [ -74.012079765351899, 40.670941863011599 ], [ -74.012174073653796, 40.670960509596704 ], [ -74.012271304896203, 40.670965318502297 ], [ -74.012367988885401, 40.670956118098303 ], [ -74.012460674960494, 40.6709332367478 ], [ -74.012546055153393, 40.670897491088198 ], [ -74.012621082256103, 40.670850156883098 ], [ -74.013099695235397, 40.671063207879897 ], [ -74.013553435126198, 40.671265182368501 ], [ -74.013625159661402, 40.6712222604475 ], [ -74.013707793716605, 40.671192832074503 ], [ -74.013778657647194, 40.671180083784897 ], [ -74.013851382834005, 40.671177330482799 ], [ -74.013923558146303, 40.671184663451001 ], [ -74.013992790683005, 40.671201839572298 ], [ -74.014275521227503, 40.671387546669301 ], [ -74.015081513577201, 40.670693921623801 ], [ -74.015201254609394, 40.6707622754993 ], [ -74.014370655167596, 40.671463044157598 ], [ -74.014124477179706, 40.671677582189602 ], [ -74.013874186184594, 40.671889009863001 ], [ -74.014234343210305, 40.672138248651798 ], [ -74.015597893944303, 40.670978725380898 ], [ -74.015687704056802, 40.671047082802602 ], [ -74.014288670496498, 40.672249431158598 ], [ -74.014230680590401, 40.672215453144297 ], [ -74.012977326274495, 40.6733361671388 ], [ -74.013365230674196, 40.673599785390302 ], [ -74.013952542304096, 40.673119836534497 ], [ -74.015120635607403, 40.672165244082102 ], [ -74.016322448620997, 40.6729165177819 ], [ -74.014580916141099, 40.6744222656462 ], [ -74.0149653709163, 40.674685878907098 ], [ -74.015441015585594, 40.674281130675404 ], [ -74.016709101904794, 40.673202022682403 ], [ -74.018169842738502, 40.671947489067101 ], [ -74.018802397920993, 40.672259012851001 ], [ -74.017272834445706, 40.673616894127797 ], [ -74.017294274948199, 40.67363646335 ], [ -74.017753920888595, 40.674055971283998 ], [ -74.017799501840798, 40.674024147356903 ], [ -74.017816602178399, 40.674038606381103 ], [ -74.017894464681603, 40.673973512920597 ], [ -74.017881166110101, 40.673964838220101 ], [ -74.017945730778806, 40.673891068849301 ], [ -74.017982562224503, 40.673907886409097 ], [ -74.018012223204906, 40.673921429408502 ], [ -74.017959055711103, 40.673995197037499 ], [ -74.017924860108593, 40.673983632564699 ], [ -74.017837499163207, 40.674048727518901 ], [ -74.017858399410798, 40.674066078985497 ], [ -74.017803321975705, 40.674103689811503 ], [ -74.018116813961299, 40.6743509501189 ], [ -74.018146972260794, 40.6743758247218 ], [ -74.018167947174305, 40.674405673493702 ], [ -74.018178391044401, 40.674438578641798 ], [ -74.018177632832504, 40.6744724259976 ], [ -74.018046645434197, 40.674776159290602 ], [ -74.018025444465394, 40.6748610069031 ], [ -74.018031490804105, 40.674932356381298 ], [ -74.018037199828399, 40.674967065403798 ], [ -74.0180106143372, 40.675001779989103 ], [ -74.018018216764503, 40.675017688075997 ], [ -74.017925155955894, 40.675084229913601 ], [ -74.017987854793006, 40.675133392215699 ], [ -74.017835925751299, 40.675266471640299 ], [ -74.018151312029303, 40.675476128070997 ], [ -74.018196893625898, 40.675448641789004 ], [ -74.018231092574695, 40.675470330552997 ], [ -74.018299476738306, 40.675467427830597 ], [ -74.018413808433195, 40.675373698058401 ], [ -74.018321028447502, 40.6753110611631 ], [ -74.0182644742668, 40.67535847181 ], [ -74.018172159189106, 40.675299154283898 ], [ -74.018388378154796, 40.675105095095901 ], [ -74.018476672010195, 40.675161439980002 ], [ -74.018424228479503, 40.675216349930402 ], [ -74.018523083799593, 40.675276961191699 ], [ -74.0187580638285, 40.675064702589097 ], [ -74.018779440505895, 40.675054515112699 ], [ -74.018803952162102, 40.675049999094703 ], [ -74.018829081450505, 40.675051618330201 ], [ -74.018852247593799, 40.675059206523699 ], [ -74.018871071428507, 40.675071984367797 ], [ -74.018883619743306, 40.675088639577503 ], [ -74.018888603819903, 40.675107461661099 ], [ -74.018885511786394, 40.675126517587302 ], [ -74.018411763555406, 40.675527309642803 ], [ -74.018437951673505, 40.675572947125602 ], [ -74.018483821523802, 40.675608453406397 ], [ -74.018538557550499, 40.6757770392014 ], [ -74.018527644528902, 40.675817896880602 ], [ -74.018497074506797, 40.6758524899805 ], [ -74.018451476294103, 40.675875580501497 ], [ -74.018397754253996, 40.675883672131 ], [ -74.018018984579498, 40.675892626300097 ], [ -74.017970665870095, 40.675965327780297 ], [ -74.017932144788602, 40.676041345462501 ], [ -74.017903808042504, 40.676119916283497 ], [ -74.017885940112293, 40.676200251549403 ], [ -74.017878720395103, 40.676281544851498 ], [ -74.017882221402004, 40.676362980161599 ], [ -74.017896408028406, 40.676443740023103 ], [ -74.017921137905404, 40.676523013756601 ], [ -74.017974236601205, 40.676521077562903 ], [ -74.0179783002432, 40.676576165084001 ], [ -74.019110353596204, 40.6765525307217 ], [ -74.019122872487699, 40.676623833485301 ], [ -74.019770706858097, 40.6766214737412 ], [ -74.0199534294606, 40.677111259363599 ], [ -74.019084024401096, 40.677147812998797 ], [ -74.019143286335805, 40.677731383391396 ], [ -74.019190723741701, 40.677749431795903 ], [ -74.019192438288698, 40.6777515202457 ], [ -74.019220377996504, 40.677785537618 ], [ -74.019178890078706, 40.677835198089802 ], [ -74.019089088702103, 40.677839485485499 ], [ -74.019084027024206, 40.677839727900299 ], [ -74.019066865596201, 40.677858401210102 ], [ -74.019042537681798, 40.677884873114998 ], [ -74.019035324414304, 40.677885247560603 ], [ -74.018431856991597, 40.677916570487199 ], [ -74.0184311088735, 40.6779358339518 ], [ -74.018412482231298, 40.678415371004498 ], [ -74.018596492658801, 40.6784060228443 ], [ -74.018626776527398, 40.678377830734199 ], [ -74.018629321174501, 40.678377830322198 ], [ -74.018631265087606, 40.678377830007399 ], [ -74.018651363804295, 40.678393125047997 ], [ -74.018663808250807, 40.678402595215204 ], [ -74.018955508975907, 40.678389735503899 ], [ -74.018984671732895, 40.6783606899304 ], [ -74.018991403054102, 40.678361542373203 ], [ -74.019022824729603, 40.678385454110902 ], [ -74.019473839710898, 40.678366586227199 ], [ -74.019540016129497, 40.678310201756801 ], [ -74.019663453868105, 40.678393888134302 ], [ -74.019664577314202, 40.6783964504464 ], [ -74.019553531785704, 40.678490426798803 ], [ -74.019519868258101, 40.678467369810598 ], [ -74.019430094503903, 40.6784084475794 ], [ -74.019427200221898, 40.678408531496999 ], [ -74.019366465405298, 40.678410279167203 ], [ -74.019280878661206, 40.678412743636002 ], [ -74.019278168314202, 40.678415021629696 ], [ -74.019276303410393, 40.678416588661598 ], [ -74.019248350304494, 40.6784400825725 ], [ -74.019243862620399, 40.678440083323203 ], [ -74.019207954257993, 40.678416173567904 ], [ -74.019122244236002, 40.678420811109 ], [ -74.019065469784294, 40.678423883776503 ], [ -74.019034061824698, 40.678451221964004 ], [ -74.019031588380997, 40.678450907756101 ], [ -74.0190273304935, 40.678450368351001 ], [ -74.018995909932997, 40.678428166067498 ], [ -74.018991742229304, 40.678428265596999 ], [ -74.018988591806405, 40.678428341337003 ], [ -74.018852302831206, 40.678431606418201 ], [ -74.018849021329004, 40.678434266626098 ], [ -74.018825789228401, 40.678453102892398 ], [ -74.018817530027704, 40.6784597993218 ], [ -74.018813042122105, 40.678459800055798 ], [ -74.018781622529204, 40.678438451434999 ], [ -74.018776489914003, 40.6784385702123 ], [ -74.018718968099904, 40.6784399179652 ], [ -74.018634648200404, 40.678441891393497 ], [ -74.018633363425806, 40.6784430115245 ], [ -74.018603242256304, 40.678469230133203 ], [ -74.018601432350593, 40.678469230425797 ], [ -74.018596510287097, 40.678469231221499 ], [ -74.018566212129798, 40.678447881690502 ], [ -74.018512042184099, 40.678448761061503 ], [ -74.018406896509902, 40.678450469292798 ], [ -74.018419312512506, 40.678557800645997 ], [ -74.018271711757095, 40.678562467716802 ], [ -74.018284599387002, 40.678736538702999 ], [ -74.018342138665503, 40.678736921558396 ], [ -74.018384588386397, 40.678753070988797 ], [ -74.018580278375893, 40.678991328802901 ], [ -74.019441008132702, 40.678941542914799 ], [ -74.019490355614195, 40.678945252567203 ], [ -74.019531488417499, 40.678966337105699 ], [ -74.019554564840107, 40.678999751711999 ], [ -74.019554063438505, 40.679037501389999 ], [ -74.019282731773501, 40.679656390031703 ], [ -74.019069784989, 40.679768997442302 ], [ -74.018929590535294, 40.679852555100801 ], [ -74.018992504729894, 40.679913243200701 ], [ -74.017726776040902, 40.680670152363199 ], [ -74.017648801142698, 40.680610140522298 ], [ -74.017571944547697, 40.680658897817302 ], [ -74.017470738602896, 40.6806229813903 ], [ -74.016849819418695, 40.680994008771599 ], [ -74.016789789540496, 40.681030215588102 ], [ -74.015202272379597, 40.681987669967199 ], [ -74.015322047621893, 40.682118978838801 ], [ -74.015084401437903, 40.682262349415097 ], [ -74.014869277513398, 40.682391464174799 ], [ -74.012821452254002, 40.6836306669396 ], [ -74.012625731761403, 40.6834769468107 ], [ -74.012124307598896, 40.682970428188099 ], [ -74.012136265550794, 40.682914178350899 ], [ -74.014106945701201, 40.681720769398098 ], [ -74.013610081735493, 40.681230196671997 ], [ -74.013875436884703, 40.681018063211901 ], [ -74.013743515501105, 40.680925951222498 ], [ -74.013019803015794, 40.680420623820098 ], [ -74.011864262256296, 40.6814067295903 ], [ -74.0106100289712, 40.682477010561598 ], [ -74.009672533485002, 40.6832769781984 ], [ -74.010087487530996, 40.683663681588101 ], [ -74.010774571708694, 40.684366866199298 ], [ -74.011784170614007, 40.683768246004902 ], [ -74.011934047768094, 40.683895999680402 ], [ -74.010929861053, 40.684499723221997 ], [ -74.008602172081694, 40.6859178156935 ], [ -74.0085143896017, 40.685970800138499 ], [ -74.008426609182905, 40.686023783510798 ], [ -74.008165592868494, 40.686182968267602 ], [ -74.007983288194197, 40.686284073228101 ], [ -74.007935862292499, 40.686290194616298 ], [ -74.0078885691469, 40.6862540459231 ], [ -74.007828402227702, 40.686248879965099 ], [ -74.007769783818901, 40.686257387806002 ], [ -74.007718522410002, 40.6862726801577 ], [ -74.007546191439502, 40.686326495749498 ], [ -74.007021334071297, 40.686534668911797 ], [ -74.006442915368496, 40.686296741420897 ], [ -74.005883688692805, 40.6862040200838 ], [ -74.005668249288902, 40.686706330130001 ], [ -74.005631310119298, 40.686792457358102 ], [ -74.005005179815299, 40.687614236898398 ], [ -74.0045941517876, 40.688223474617999 ], [ -74.003821834902993, 40.688937896497897 ], [ -74.003410661860599, 40.689621513107198 ], [ -74.002977099891396, 40.690434828042399 ], [ -74.001964665112794, 40.690144631560997 ], [ -74.001854491070603, 40.690396239397899 ], [ -74.000963014072696, 40.690137020484002 ], [ -74.000700503887302, 40.690620110656901 ], [ -74.001327069058405, 40.6914713527148 ], [ -74.001970831870807, 40.691851461254799 ], [ -74.001819096331303, 40.692230214995703 ], [ -74.001812666480006, 40.692246265398801 ], [ -74.001799844181406, 40.692278268534601 ], [ -74.001745067021901, 40.692415002258599 ], [ -74.001701339622798, 40.692391019686497 ], [ -74.001618720556806, 40.692557323689499 ], [ -74.001048620540502, 40.6922728509645 ], [ -74.000586920529699, 40.692134115400499 ], [ -74.000624480832698, 40.692049743188299 ], [ -74.000191848585004, 40.691904699637703 ], [ -73.999916618293398, 40.691775482502202 ], [ -73.999514186542001, 40.691659703294697 ], [ -73.999366846392505, 40.6916213312563 ], [ -73.999289640701804, 40.691602212406899 ], [ -73.999203063107302, 40.691580087328802 ], [ -73.999102017738295, 40.691545226469103 ], [ -73.998939734962605, 40.691503397507198 ], [ -73.998454162622096, 40.6913782359428 ], [ -73.998031931102901, 40.691261975333497 ], [ -73.997770688355899, 40.691202950315599 ], [ -73.9962342250533, 40.690766027009403 ], [ -73.994362371718907, 40.690247732471398 ], [ -73.992365112516495, 40.689698376126202 ] ] ] } }
]
}
