{
"type": "FeatureCollection",
"name": "sunset_park",
"crs": { "type": "name", "properties": { "name": "urn:ogc:def:crs:OGC:1.3:CRS84" } },
"features": [
{ "type": "Feature", "properties": { "OBJECTID": 24, "BoroCode": 3, "BoroName": "Brooklyn", "CountyFIPS": "047", "NTA2020": "BK0702", "NTAName": "Sunset Park (West)", "NTAAbbrev": "SnstPk_W", "NTAType": 0, "CDTA2020": "BK07", "CDTAName": "BK07 Sunset Park-Windsor Terrace (CD 7 Approximation)", "Shape__Area": 50378926.304655075, "Shape__Length": 79869.467620752723 }, "geometry": { "type": "Polygon", "coordinates": [ [ [ -73.989780341876198, 40.643653130639301 ], [ -73.990497780162201, 40.643172684474699 ], [ -73.991214213337003, 40.642694133672599 ], [ -73.991929563491894, 40.642213147636497 ], [ -73.992646000513105, 40.641736533875601 ], [ -73.993363976188206, 40.641256041787699 ], [ -73.994078360428901, 40.640778644451302 ], [ -73.994332681678301, 40.640608531104199 ], [ -73.994796835932107, 40.640296730458203 ], [ -73.995511777700898, 40.639817910084801 ], [ -73.996228862429405, 40.639339435446402 ], [ -73.9969433110561, 40.6388607054513 ], [ -73.997659275422293, 40.638382383813401 ], [ -73.998375488414197, 40.637902032611699 ], [ -73.999091940451805, 40.637423568155299 ], [ -73.999808864927004, 40.636943739381799 ], [ -74.000526550319506, 40.636463914318597 ], [ -74.001241989166303, 40.635985815010102 ], [ -74.001961632730598, 40.635507656371601 ], [ -74.002673984132002, 40.6350270164642 ], [ -74.003390125013496, 40.634546597667601 ], [ -74.004107958427099, 40.634068362415697 ], [ -74.004822862448293, 40.6335882766152 ], [ -74.005566346811804, 40.633091417696299 ], [ -74.006307599143497, 40.632592329620401 ], [ -74.006406597293406, 40.632526340991703 ], [ -74.006620593442605, 40.632383698690496 ], [ -74.006808222412104, 40.632258631305199 ], [ -74.006969237643503, 40.632154094017999 ], [ -74.007024468821299, 40.632118236013703 ], [ -74.008538484938299, 40.633036402048504 ], [ -74.010743646188104, 40.634364789673697 ], [ -74.011327934184493, 40.633802737676803 ], [ -74.011909683397207, 40.633242645368703 ], [ -74.014110224971006, 40.634572238583999 ], [ -74.016291807369896, 40.635919369288402 ], [ -74.016696911389403, 40.635529715977199 ], [ -74.0167754092857, 40.635443384287498 ], [ -74.016975508280197, 40.635603811926003 ], [ -74.017077373633299, 40.635685480078102 ], [ -74.017156472757307, 40.6357448819683 ], [ -74.017329816345807, 40.6358662848533 ], [ -74.017580182400394, 40.636031681285203 ], [ -74.017921031690193, 40.636241457159997 ], [ -74.018402191443798, 40.636525240509698 ], [ -74.018926105851406, 40.636834235558602 ], [ -74.019330161135798, 40.637088862130597 ], [ -74.019506048600206, 40.637116815049801 ], [ -74.019596140488503, 40.637169695019999 ], [ -74.019714386273094, 40.637239724011401 ], [ -74.020058665800093, 40.637445479622698 ], [ -74.020294365397405, 40.637605593852598 ], [ -74.020588952127895, 40.637823401259503 ], [ -74.020860233540205, 40.638050030000898 ], [ -74.021017549112997, 40.638197844425399 ], [ -74.021054435763105, 40.638234932844497 ], [ -74.021088760582799, 40.6382718292313 ], [ -74.021130781409894, 40.638316985861998 ], [ -74.021282534351101, 40.638498349670698 ], [ -74.021411935011002, 40.638689503504899 ], [ -74.021517903907394, 40.638888853800303 ], [ -74.021599556989202, 40.6390947372713 ], [ -74.021650191501806, 40.639278279910698 ], [ -74.021682235505494, 40.639464236454501 ], [ -74.021695501226404, 40.639651515779804 ], [ -74.021689910298804, 40.639839019177501 ], [ -74.021739252523304, 40.639834585264197 ], [ -74.021853413066196, 40.639824340365003 ], [ -74.021801919749294, 40.640113308118401 ], [ -74.021796654257599, 40.640138587488401 ], [ -74.021775679661701, 40.640239341579402 ], [ -74.021726450621202, 40.640408565873102 ], [ -74.021681228432598, 40.6405387810536 ], [ -74.021652939344406, 40.6406119355117 ], [ -74.0215308372929, 40.6408785024257 ], [ -74.021346636985498, 40.641190431873298 ], [ -74.021202630901797, 40.641395182141899 ], [ -74.021161202348395, 40.6414540934474 ], [ -74.021160456910394, 40.6414551508567 ], [ -74.021145367242895, 40.641476609168897 ], [ -74.021116016192394, 40.641521821109798 ], [ -74.021161223035804, 40.641485341185202 ], [ -74.021185523180606, 40.641465723652203 ], [ -74.021249321113004, 40.641414238260502 ], [ -74.021468595637799, 40.641244431397404 ], [ -74.0216413266579, 40.641120411541301 ], [ -74.021776385982093, 40.641023439668302 ], [ -74.021852135272198, 40.640975113272503 ], [ -74.022230501625401, 40.640730297405803 ], [ -74.022232586723604, 40.640728948231001 ], [ -74.022279101783695, 40.6406988509477 ], [ -74.022316976523101, 40.640656627601999 ], [ -74.022463988758503, 40.640547140731996 ], [ -74.022591617059703, 40.640447347664598 ], [ -74.023107381664701, 40.6400035674489 ], [ -74.023219251742802, 40.6399097561033 ], [ -74.023318279879206, 40.639806023200698 ], [ -74.023402303284996, 40.639693973299501 ], [ -74.023469668011103, 40.639575576904697 ], [ -74.023483487058499, 40.639541454728899 ], [ -74.023519322135698, 40.639453015314103 ], [ -74.0235508412283, 40.639328575066301 ], [ -74.023617568743006, 40.639253920735101 ], [ -74.023927556897505, 40.638907099461598 ], [ -74.024172396540905, 40.638677612102697 ], [ -74.024249587679193, 40.638605260893698 ], [ -74.0244107568559, 40.638454195317699 ], [ -74.024539868512804, 40.638333178744702 ], [ -74.024649017321707, 40.638230317015598 ], [ -74.024755826042394, 40.638129659188003 ], [ -74.026953898114797, 40.639454306324097 ], [ -74.026862744325797, 40.639544532366401 ], [ -74.026784189293096, 40.639620345773601 ], [ -74.026643966131999, 40.639755674357701 ], [ -74.026601294713203, 40.639794802474 ], [ -74.026465801015405, 40.6399265345825 ], [ -74.0263515267537, 40.640026707176602 ], [ -74.026287570285604, 40.640082770814402 ], [ -74.026264124657303, 40.640102623271197 ], [ -74.026238437102805, 40.640134732618101 ], [ -74.026607407033893, 40.640244348155697 ], [ -74.026727848282803, 40.640280124910397 ], [ -74.026904937402804, 40.640344407675002 ], [ -74.0269579766872, 40.640363666387501 ], [ -74.027018750859398, 40.640388156009998 ], [ -74.027183404473703, 40.640454520630001 ], [ -74.027403551869796, 40.6405524271293 ], [ -74.027457814435806, 40.640578567053801 ], [ -74.027892202673897, 40.6407878226617 ], [ -74.0280023849743, 40.640837203711698 ], [ -74.028372183223894, 40.641002938764103 ], [ -74.028390652156503, 40.641011217985302 ], [ -74.028898119256894, 40.641222263873097 ], [ -74.0290568506759, 40.641733584710202 ], [ -74.029832480199303, 40.642327598765199 ], [ -74.032298566960904, 40.643589554918499 ], [ -74.032236697089104, 40.643651612073398 ], [ -74.032471140677401, 40.643794368271898 ], [ -74.032543190786797, 40.643833726295 ], [ -74.0323122951106, 40.6440474564737 ], [ -74.032270161416307, 40.644082621294103 ], [ -74.032208351152093, 40.644038170887796 ], [ -74.031980024227394, 40.643901622232001 ], [ -74.031898537571394, 40.643897591348001 ], [ -74.031599078624495, 40.644210481899897 ], [ -74.030519760904497, 40.645282667004899 ], [ -74.029082360615703, 40.644411839108301 ], [ -74.028999076423105, 40.644480203687202 ], [ -74.029155641737503, 40.644589687629697 ], [ -74.028863862986597, 40.644874266501901 ], [ -74.028823049221003, 40.644850367924903 ], [ -74.029092874170004, 40.644608830244202 ], [ -74.029087994663001, 40.644591244012503 ], [ -74.028971033838801, 40.644505703217 ], [ -74.028502614064806, 40.644185806856498 ], [ -74.028426884443604, 40.6442589669958 ], [ -74.028232794584795, 40.644446471052198 ], [ -74.028191981967097, 40.644422572920099 ], [ -74.028458662501194, 40.6441643013993 ], [ -74.028207146904506, 40.644024225022797 ], [ -74.027754433208102, 40.644514519266501 ], [ -74.027035793384698, 40.645206063388898 ], [ -74.026050934903395, 40.646269592975003 ], [ -74.029548597175307, 40.648377574123302 ], [ -74.029742234326307, 40.648494268663804 ], [ -74.029391356988697, 40.648812297642003 ], [ -74.029193282745993, 40.648694259729098 ], [ -74.0257190388635, 40.646623735020903 ], [ -74.025382943378801, 40.6469205890265 ], [ -74.025072564916101, 40.646733859152697 ], [ -74.024841024622205, 40.646952667590703 ], [ -74.024675413959102, 40.647102761739198 ], [ -74.024616321525997, 40.647159367992501 ], [ -74.024356419794003, 40.647407521085 ], [ -74.024147110878502, 40.647623344241097 ], [ -74.025130570282698, 40.648331424543002 ], [ -74.024969371867201, 40.648614205414397 ], [ -74.025540096729998, 40.649790402705698 ], [ -74.024845814411194, 40.650607881599498 ], [ -74.025207262781393, 40.650826711472099 ], [ -74.025416990255295, 40.650626940608703 ], [ -74.026052783154796, 40.651002544320697 ], [ -74.025872588785703, 40.651168779413901 ], [ -74.025929527412401, 40.651204896741902 ], [ -74.025777782738999, 40.651342221612502 ], [ -74.025692390296499, 40.6513277900684 ], [ -74.025531166485706, 40.6514867943838 ], [ -74.024912679319002, 40.6511145289303 ], [ -74.025091441925696, 40.650932246276597 ], [ -74.025078843715406, 40.6509226565232 ], [ -74.025104022779502, 40.650901549167898 ], [ -74.024773055715499, 40.650695950997701 ], [ -74.024524731248405, 40.650945797092803 ], [ -74.024489462430594, 40.650926620778499 ], [ -74.024462226669598, 40.650952852959001 ], [ -74.024290644279702, 40.6511203172523 ], [ -74.024273181103396, 40.651110754907798 ], [ -74.024241664090994, 40.651141759981797 ], [ -74.025502841519398, 40.651848094797003 ], [ -74.025417491326195, 40.651942050639299 ], [ -74.024178980333105, 40.651200016894201 ], [ -74.023824924446302, 40.651362028639397 ], [ -74.023655881855305, 40.6512644255493 ], [ -74.023595453371797, 40.6513239069806 ], [ -74.023061360698705, 40.6509825478133 ], [ -74.023026098597697, 40.651010981579098 ], [ -74.023021571346007, 40.651014631921299 ], [ -74.022852868133299, 40.651177438885803 ], [ -74.025370352577994, 40.652729680867701 ], [ -74.025228080760499, 40.652838100926402 ], [ -74.022725178098099, 40.651305566522502 ], [ -74.022623069469802, 40.651319802433498 ], [ -74.021542832916396, 40.650679866583602 ], [ -74.021346062551103, 40.650860104899401 ], [ -74.021283083860197, 40.650825586147 ], [ -74.021247973373804, 40.6508432162791 ], [ -74.021277098390399, 40.6508698220903 ], [ -74.021277055155096, 40.650899778666599 ], [ -74.021393331800994, 40.650976001724104 ], [ -74.021361048902094, 40.6510055223536 ], [ -74.021244774028204, 40.650934218563499 ], [ -74.021186663314793, 40.650985878418197 ], [ -74.021128527446393, 40.6509514563582 ], [ -74.021053753515602, 40.651106526701 ], [ -74.021346193301696, 40.6512687147032 ], [ -74.022338796722096, 40.651918849269201 ], [ -74.022253182027697, 40.6519898454113 ], [ -74.021265614731107, 40.651333953914502 ], [ -74.020984061833303, 40.651165066444896 ], [ -74.020900078261604, 40.651255519026201 ], [ -74.020921124335004, 40.651268526617201 ], [ -74.023808489623804, 40.653052972570102 ], [ -74.023595795510502, 40.653224613061603 ], [ -74.023535752164406, 40.6531046701257 ], [ -74.023333196942602, 40.652950484238502 ], [ -74.023100687173894, 40.652927682504497 ], [ -74.022943173140206, 40.652887728564799 ], [ -74.022890652743598, 40.652830617932899 ], [ -74.022853125313702, 40.652750655624303 ], [ -74.021960450857506, 40.652231025932899 ], [ -74.021870450662206, 40.6522310430841 ], [ -74.021712968758294, 40.652282482151598 ], [ -74.021622983525603, 40.652328195283602 ], [ -74.021233104309701, 40.652705268796502 ], [ -74.021188150020606, 40.652848081005601 ], [ -74.0232060977348, 40.654104361103997 ], [ -74.023063641318402, 40.654241480609997 ], [ -74.022103401704499, 40.653596198535197 ], [ -74.021938395642394, 40.653584805208602 ], [ -74.021878385587399, 40.653556256596701 ], [ -74.021630912887005, 40.653653409468902 ], [ -74.021286009825104, 40.653973352874097 ], [ -74.0212410605305, 40.654139013249903 ], [ -74.021151084657603, 40.654218999592203 ], [ -74.021826247510603, 40.6546644202298 ], [ -74.021646314165295, 40.654887227374303 ], [ -74.020896147720507, 40.654441819846802 ], [ -74.020641141253193, 40.654447577772899 ], [ -74.020603631489095, 40.654419023955498 ], [ -74.020603594437901, 40.654299068739903 ], [ -74.020476067798896, 40.654224833632597 ], [ -74.020243563233294, 40.654230587841496 ], [ -74.0200260416768, 40.654173503664097 ], [ -74.019621031092797, 40.6541735734776 ], [ -74.019418477687907, 40.654007956967 ], [ -74.019253482935895, 40.654042256625203 ], [ -74.019193479429106, 40.654030842906501 ], [ -74.019245956731794, 40.653950864375901 ], [ -74.019178438806506, 40.653893753894998 ], [ -74.019050932161804, 40.653876638961997 ], [ -74.018968429782106, 40.653876652599699 ], [ -74.018923399955895, 40.653773842088 ], [ -74.018855866339095, 40.653659609824899 ], [ -74.018773332075796, 40.653545381143203 ], [ -74.018728314879695, 40.653482554845503 ], [ -74.018623832046103, 40.653499593351 ], [ -74.018120427588002, 40.653893516030799 ], [ -74.020257340110803, 40.655126507471202 ], [ -74.020053274072396, 40.655344193514402 ], [ -74.017875520993599, 40.654069746796999 ], [ -74.017154644378195, 40.654783348993597 ], [ -74.017467783214599, 40.654935045546402 ], [ -74.017420361979902, 40.655000085341698 ], [ -74.019802266038596, 40.6564954554593 ], [ -74.019707413596294, 40.656589408647399 ], [ -74.017268607995504, 40.6552024326962 ], [ -74.016917627045601, 40.655491519736501 ], [ -74.016651928038698, 40.6553470413319 ], [ -74.016395823713907, 40.655628887674801 ], [ -74.019109887381603, 40.657377129375398 ], [ -74.018910685549898, 40.657557809578499 ], [ -74.018607143828305, 40.657854119206 ], [ -74.015855148807105, 40.656221485012097 ], [ -74.015437770827205, 40.656640641815798 ], [ -74.017743776232194, 40.658107161987999 ], [ -74.017667893033504, 40.658193884054199 ], [ -74.017867180106293, 40.658316692598397 ], [ -74.017686940715194, 40.658461238095697 ], [ -74.017487653236998, 40.658345654562098 ], [ -74.017506612997707, 40.658280619602998 ], [ -74.015048830243998, 40.656958631825603 ], [ -74.014937906938599, 40.657075147543203 ], [ -74.014422752710303, 40.657616267234502 ], [ -74.017459479826996, 40.659458442924901 ], [ -74.0166778152945, 40.659992032237497 ], [ -74.015543102303795, 40.660766601338103 ], [ -74.0140057317887, 40.659820209170299 ], [ -74.013664187694403, 40.660037026421598 ], [ -74.012469961761397, 40.659324613832098 ], [ -74.011840067682598, 40.658921082904399 ], [ -74.011423642679503, 40.659336940687602 ], [ -74.011108951034203, 40.659714520391603 ], [ -74.014023924754397, 40.661537993506698 ], [ -74.013156997112205, 40.661989843911599 ], [ -74.012655035678407, 40.661989900240798 ], [ -74.010236291015403, 40.660469433043303 ], [ -74.008601015800195, 40.659529168960802 ], [ -74.008574069900007, 40.659553673633503 ], [ -74.007782405503605, 40.660273574376902 ], [ -74.007460027453803, 40.660566722315998 ], [ -74.010373459830603, 40.662407126094998 ], [ -74.010464764147301, 40.662650366199699 ], [ -74.009552188068497, 40.663275940694703 ], [ -74.008685162289893, 40.663380259455401 ], [ -74.006162856840604, 40.661853315394502 ], [ -74.005687392920095, 40.662282986865499 ], [ -74.005536457816007, 40.6621921052392 ], [ -74.004285027353504, 40.661453140492597 ], [ -74.004186902202093, 40.661536552478502 ], [ -74.004147693737494, 40.661569882100302 ], [ -74.004249330963802, 40.6616314849906 ], [ -74.004255598389506, 40.661635284127598 ], [ -74.004263318711594, 40.661639964240599 ], [ -74.004263355452295, 40.661639992719003 ], [ -74.004280245475002, 40.661650223030101 ], [ -74.004397250365699, 40.661721140948799 ], [ -74.004513177268706, 40.6617914044256 ], [ -74.004703085027899, 40.6619016875703 ], [ -74.004724193932304, 40.661913742861401 ], [ -74.004753655285697, 40.661930566657297 ], [ -74.004763273656096, 40.661936425217903 ], [ -74.004770145273199, 40.661940611291598 ], [ -74.004953171048598, 40.662050028019301 ], [ -74.005125093739196, 40.662152804808002 ], [ -74.005128034558396, 40.662157474688897 ], [ -74.005128191654507, 40.6621577249688 ], [ -74.0051289228374, 40.662159516146097 ], [ -74.005142464801196, 40.662192686765501 ], [ -74.005267340662598, 40.662278412084397 ], [ -74.005621842050104, 40.662502173399602 ], [ -74.005786311767693, 40.662590775513799 ], [ -74.005828588805997, 40.6625983555302 ], [ -74.005858847418494, 40.662583416856897 ], [ -74.005859399586797, 40.662583143422999 ], [ -74.005860019569695, 40.662583501901501 ], [ -74.006039596613803, 40.6626871179175 ], [ -74.006201907876203, 40.662780772697303 ], [ -74.006228428034603, 40.662796074447598 ], [ -74.006228286589106, 40.662796213336001 ], [ -74.006226459455902, 40.662798003639601 ], [ -74.006091028924402, 40.662930648537198 ], [ -74.005930491193695, 40.663110404794303 ], [ -74.005929466102003, 40.663111553251802 ], [ -74.005925050507997, 40.663116497399301 ], [ -74.005459200880097, 40.662869613286603 ], [ -74.004602908805197, 40.662390915083499 ], [ -74.004226936605207, 40.662185207757801 ], [ -74.003914790485396, 40.661985773816099 ], [ -74.003899574185098, 40.661976052345203 ], [ -74.003832914371898, 40.661933462756899 ], [ -74.003809599436906, 40.661916192226997 ], [ -74.0034894556522, 40.6622488027038 ], [ -74.003894786689003, 40.662477421075103 ], [ -74.004240749928698, 40.662666210090599 ], [ -74.004367012516994, 40.662743923297199 ], [ -74.004389444472395, 40.662722567978598 ], [ -74.004467381300898, 40.662770199061903 ], [ -74.004556429909101, 40.662824619563601 ], [ -74.004556675628905, 40.662824361560702 ], [ -74.004560370666994, 40.662820505588797 ], [ -74.004560930081198, 40.662819921396299 ], [ -74.004561391383305, 40.6628194377246 ], [ -74.004563237472397, 40.662817513089202 ], [ -74.004603029769299, 40.662775969742597 ], [ -74.0045913886769, 40.662741979438898 ], [ -74.004607188088301, 40.662727131801702 ], [ -74.004545123518199, 40.662688392742602 ], [ -74.004734426277395, 40.662504750578499 ], [ -74.005239848895499, 40.6628077820248 ], [ -74.005359573924693, 40.662877376364797 ], [ -74.005157442421506, 40.663055660736397 ], [ -74.005063053363102, 40.6630002878697 ], [ -74.004981550241695, 40.663069244126198 ], [ -74.004981379533604, 40.663069389045297 ], [ -74.004979949413595, 40.663070600167401 ], [ -74.0049794122111, 40.663071054694299 ], [ -74.004976551970699, 40.663073474592998 ], [ -74.004973022756602, 40.663076459927801 ], [ -74.005193783000095, 40.663209799800697 ], [ -74.005194264544201, 40.663209367221597 ], [ -74.005198921156193, 40.663205176297403 ], [ -74.005200521316397, 40.663203734646302 ], [ -74.005201555019099, 40.663202805824099 ], [ -74.005202496548506, 40.663201957587098 ], [ -74.005245294978593, 40.663163437597497 ], [ -74.005232955441102, 40.663126716350099 ], [ -74.005250075610206, 40.663113867174701 ], [ -74.005187743220205, 40.663077848126299 ], [ -74.005381589429405, 40.662892173590599 ], [ -74.005661095146905, 40.663064100222797 ], [ -74.005998932337206, 40.663266857515602 ], [ -74.0057964638182, 40.663444398022499 ], [ -74.005701082900003, 40.663385035381602 ], [ -74.005625596957302, 40.663456535203302 ], [ -74.005623625476403, 40.663458402232102 ], [ -74.005621976929405, 40.663459963003802 ], [ -74.005614932217, 40.663466636994499 ], [ -74.005909805158296, 40.6636465303948 ], [ -74.005917829052706, 40.663649440614002 ], [ -74.005919228300598, 40.663649948821998 ], [ -74.005919919564306, 40.663650199073302 ], [ -74.005921556200406, 40.663650793043402 ], [ -74.006307118870694, 40.663871658571303 ], [ -74.006729795956801, 40.664127001251003 ], [ -74.007433960337593, 40.664550694017599 ], [ -74.007665237114495, 40.664691775274598 ], [ -74.007722781217296, 40.6647268799329 ], [ -74.007726898082893, 40.664750962309199 ], [ -74.007675792084697, 40.664799356194699 ], [ -74.007640221476706, 40.664804227262302 ], [ -74.007306607278196, 40.664605837656502 ], [ -74.007258872314694, 40.664651206425397 ], [ -74.007267548802204, 40.664681295749503 ], [ -74.007254281589098, 40.664698570566998 ], [ -74.007320229681994, 40.6647381076871 ], [ -74.007126772438795, 40.664923465446897 ], [ -74.006526141758101, 40.664555474081801 ], [ -74.006708305210495, 40.664371236735597 ], [ -74.006800570139802, 40.6644265534201 ], [ -74.006883598931907, 40.6643486198113 ], [ -74.006630824364393, 40.6641961769717 ], [ -74.006537241336801, 40.664265650500397 ], [ -74.006643003448104, 40.664328458228901 ], [ -74.0064512455384, 40.6645144537151 ], [ -74.005843021838402, 40.664146267539699 ], [ -74.006030153297601, 40.663967383358603 ], [ -74.006120792696606, 40.664018813523597 ], [ -74.0062045114705, 40.663938415022201 ], [ -74.006047530750806, 40.663848252435002 ], [ -74.005994071964906, 40.663899010025197 ], [ -74.005922832555697, 40.6638578453816 ], [ -74.005899709884801, 40.663883937886503 ], [ -74.005811439086401, 40.663882248840999 ], [ -74.005759255928595, 40.663931003627397 ], [ -74.005781188442697, 40.663996009930798 ], [ -74.005749537798394, 40.664020189161 ], [ -74.005824720713804, 40.664062810702603 ], [ -74.005758983399403, 40.6641226397754 ], [ -74.005894170127405, 40.664198564996802 ], [ -74.005750533816894, 40.664334757297503 ], [ -74.005742900747606, 40.664390076432603 ], [ -74.005771906845297, 40.664405742199499 ], [ -74.005746075835503, 40.664425886390802 ], [ -74.005836440019294, 40.664477827248596 ], [ -74.005809775291894, 40.664486531176301 ], [ -74.005850693244199, 40.664511545556202 ], [ -74.005823564001901, 40.664537007001996 ], [ -74.005642853018102, 40.664539738342498 ], [ -74.005651705033898, 40.663908584668903 ], [ -74.005650697166601, 40.663908098384603 ], [ -74.005644556239602, 40.663905137628497 ], [ -74.005643579394004, 40.663904667257803 ], [ -74.005564574735601, 40.663857288991501 ], [ -74.004301977631897, 40.663100108616 ], [ -74.004296524985307, 40.663103826937103 ], [ -74.004267669682207, 40.663123509707702 ], [ -74.004265189762094, 40.663122030359702 ], [ -74.003630069806206, 40.6627430942019 ], [ -74.003404930619894, 40.662993972820097 ], [ -74.004593831457001, 40.6637434466627 ], [ -74.0043243939961, 40.664060566876799 ], [ -74.005282767139093, 40.664665250510502 ], [ -74.004863383182695, 40.6650730690194 ], [ -74.001136639029198, 40.662909970340003 ], [ -74.000945686538103, 40.6630846388123 ], [ -74.000918678174799, 40.6630674995737 ], [ -74.0008354549269, 40.663014689007703 ], [ -74.000749300709799, 40.663092708246097 ], [ -74.000495577363793, 40.663322473984202 ], [ -74.000539250695596, 40.663341724600002 ], [ -74.000232857421196, 40.663636242584403 ], [ -74.000031685408402, 40.663829616393798 ], [ -74.000078733320905, 40.663853500839799 ], [ -74.000100580329701, 40.663864592517299 ], [ -73.999844459247598, 40.664113847009602 ], [ -73.999711526255993, 40.6642384140521 ], [ -73.999532969608893, 40.664405733073998 ], [ -74.002926079884304, 40.666470559586699 ], [ -74.002241754435204, 40.666802082657497 ], [ -74.002034335046403, 40.666795506186403 ], [ -74.002048115106902, 40.666778017865298 ], [ -74.001620944531993, 40.6667745267032 ], [ -74.001207557687096, 40.667026354795397 ], [ -74.001466153622999, 40.667177816320802 ], [ -74.000689192757605, 40.6675541996131 ], [ -73.999982937229404, 40.667458522628898 ], [ -73.999546858714695, 40.667908597794998 ], [ -73.999027453576204, 40.668451220075497 ], [ -73.999055165452901, 40.668860047241097 ], [ -73.998946645552195, 40.668982022540497 ], [ -73.999027776268306, 40.669016136460002 ], [ -73.999051884659195, 40.668929935338497 ], [ -73.999037721734297, 40.668925400240497 ], [ -73.999044691547297, 40.668888468266204 ], [ -73.999065125128396, 40.668881716220902 ], [ -73.999091835445896, 40.668739725800002 ], [ -73.999176873875598, 40.6683278731049 ], [ -73.999181326838297, 40.668304887801902 ], [ -73.999191158445697, 40.668306452414598 ], [ -73.999241934703093, 40.668314534474199 ], [ -73.999154771055601, 40.668678129109203 ], [ -73.999080796925099, 40.669046519924997 ], [ -73.998970943864194, 40.669170492334302 ], [ -73.998657250454698, 40.6695230437197 ], [ -73.9988111691558, 40.669604429125897 ], [ -73.998913045307503, 40.6696568268286 ], [ -73.9989027090039, 40.669735521120103 ], [ -73.998918292027298, 40.669812811437197 ], [ -73.998893516791895, 40.669946684421397 ], [ -73.998751358546798, 40.6705416215882 ], [ -73.998713994941198, 40.670697985171003 ], [ -73.998559688301299, 40.671343750202297 ], [ -73.998715048437603, 40.671543626689797 ], [ -73.998770854290399, 40.671610295682299 ], [ -73.998682526045201, 40.671747406210898 ], [ -73.998620324027499, 40.671838421694602 ], [ -73.998552349528694, 40.671934190506697 ], [ -73.998465637552201, 40.671796112923403 ], [ -73.998373445718002, 40.671649308836201 ], [ -73.998278659176805, 40.671490161515699 ], [ -73.998156561452504, 40.671285156611397 ], [ -73.997895844004105, 40.670881735304903 ], [ -73.997781863630493, 40.670705370367799 ], [ -73.997632273325806, 40.670454780687102 ], [ -73.997563751124403, 40.670347069379901 ], [ -73.997541594816894, 40.6703122343323 ], [ -73.997534697734196, 40.670301391277199 ], [ -73.997494650303196, 40.670238367593001 ], [ -73.997035138375907, 40.669515011752303 ], [ -73.996873004761795, 40.669259778861701 ], [ -73.996839651540398, 40.669206290477 ], [ -73.996753880827498, 40.669068749516299 ], [ -73.996731412560194, 40.6690327198245 ], [ -73.996624645502095, 40.668861505222402 ], [ -73.996482869821406, 40.668933483872102 ], [ -73.996319946432195, 40.668680800605202 ], [ -73.996167103202595, 40.668443746786501 ], [ -73.995980229255807, 40.668006254620501 ], [ -73.995852734672397, 40.667980743969402 ], [ -73.995072619387102, 40.667083979513897 ], [ -73.994859838319101, 40.666852300487001 ], [ -73.994704183058005, 40.666673458504398 ], [ -73.992828163840798, 40.665549715436001 ], [ -73.9927722479962, 40.665515529024802 ], [ -73.9927091185763, 40.6654778612331 ], [ -73.992422717484601, 40.665306964853102 ], [ -73.992163721567294, 40.665152418682901 ], [ -73.990546468077994, 40.664173408611802 ], [ -73.988318730922401, 40.662794495931799 ], [ -73.988646405902699, 40.662483238340997 ], [ -73.988717950524503, 40.6624131859868 ], [ -73.988045429752106, 40.661483682969703 ], [ -73.987297631675403, 40.660450099854998 ], [ -73.987252128441895, 40.6603872031029 ], [ -73.987353185306901, 40.660395436534301 ], [ -73.987323249312396, 40.660353823450897 ], [ -73.987311772629596, 40.660337870663803 ], [ -73.987451264853107, 40.660197819244701 ], [ -73.987842033134598, 40.659825110185501 ], [ -73.9884327921676, 40.659259458173899 ], [ -73.989014305386505, 40.658699042489303 ], [ -73.989593821160696, 40.658142307089797 ], [ -73.990189855118999, 40.657609064961903 ], [ -73.992384835724295, 40.658907262733003 ], [ -73.9929654608015, 40.658345656140497 ], [ -73.995170343809306, 40.659677768406297 ], [ -73.995754227070606, 40.659116077059998 ], [ -73.996337050238196, 40.658555461896199 ], [ -73.996919683744693, 40.657997879012797 ], [ -73.997502888172505, 40.657436718271803 ], [ -73.998092444630601, 40.656872933832702 ], [ -73.998671857139797, 40.656315106870899 ], [ -73.999258012550797, 40.655753964631202 ], [ -73.999839309242205, 40.655194403675701 ], [ -74.000414624430405, 40.654636947105502 ], [ -74.000996635475502, 40.654075479116599 ], [ -74.001176801243005, 40.653903389417799 ], [ -74.001381493538204, 40.653707873670498 ], [ -74.002167004250893, 40.6529575592524 ], [ -73.997796102976295, 40.650297134407701 ], [ -73.998224950382905, 40.649836829039899 ], [ -73.998307465409297, 40.649748259415503 ], [ -73.998150830935401, 40.649651293139897 ], [ -73.996047095170795, 40.648348899037103 ], [ -73.993930679220199, 40.647077555164998 ], [ -73.991809675396894, 40.645792212866702 ], [ -73.989060163529501, 40.644127484563299 ], [ -73.989780341876198, 40.643653130639301 ] ] ] } }
]
}
