{
"type": "FeatureCollection",
"name": "upper_west_side",
"crs": { "type": "name", "properties": { "name": "urn:ogc:def:crs:OGC:1.3:CRS84" } },
"features": [
{ "type": "Feature", "properties": { "OBJECTID": 137, "BoroCode": 1, "BoroName": "Manhattan", "CountyFIPS": "061", "NTA2020": "MN0701", "NTAName": "Upper West Side-Lincoln Square", "NTAAbbrev": "UWS_LclnSq", "NTAType": 0, "CDTA2020": "MN07", "CDTAName": "MN07 Upper West Side (CD 7 Approximation)", "Shape__Area": 15797448.735377789, "Shape__Length": 19952.420482885802 }, "geometry": { "type": "Polygon", "coordinates": [ [ [ -73.975460767615104, 40.7769069927514 ], [ -73.9759566163454, 40.7762280250031 ], [ -73.976459216852206, 40.775540807476702 ], [ -73.976913125885105, 40.774917393611297 ], [ -73.977372293000599, 40.7742892771616 ], [ -73.977827836827501, 40.7736644617313 ], [ -73.9782836443093, 40.773040147906897 ], [ -73.978723911311207, 40.7724271678211 ], [ -73.979193588621399, 40.771789534893401 ], [ -73.979653777633501, 40.771163596295999 ], [ -73.9801132593376, 40.770536637292999 ], [ -73.980565150495593, 40.769913593042801 ], [ -73.981024344439206, 40.769281101896603 ], [ -73.981680880486493, 40.768398399077299 ], [ -73.981610308089301, 40.7683635591574 ], [ -73.981548662803604, 40.7683200151601 ], [ -73.981497780379399, 40.768269062700497 ], [ -73.981459174734297, 40.768212219121402 ], [ -73.981434279434893, 40.768131283576203 ], [ -73.9814316448375, 40.7680481884369 ], [ -73.981451381552205, 40.767966434681 ], [ -73.981492658268195, 40.767889467148997 ], [ -73.981550423179996, 40.767832409072902 ], [ -73.9816210728995, 40.767784459137701 ], [ -73.981702169033397, 40.767747272159397 ], [ -73.981790912928702, 40.767722131526 ], [ -73.981872612220798, 40.767713916377197 ], [ -73.981954959231402, 40.767716379705398 ], [ -73.982035556580797, 40.7677294490015 ], [ -73.982112058861404, 40.767752744545902 ], [ -73.982364984470294, 40.767396342094301 ], [ -73.984102868826298, 40.768132429829102 ], [ -73.985218648511093, 40.7686028985148 ], [ -73.988064342369398, 40.769799068479102 ], [ -73.990430834857193, 40.770792923036502 ], [ -73.990597894574194, 40.770863078592797 ], [ -73.990670632003997, 40.770893621409499 ], [ -73.990914522738393, 40.770996027360802 ], [ -73.993657510042397, 40.772154231359202 ], [ -73.993783346323795, 40.772207359909203 ], [ -73.993418280827399, 40.7727128717139 ], [ -73.9933317774654, 40.772832643341197 ], [ -73.993326646525801, 40.7728397481389 ], [ -73.993411902658295, 40.7728871639533 ], [ -73.993592312203802, 40.772798348880499 ], [ -73.993726795308604, 40.772872468084202 ], [ -73.993788818243601, 40.772912115364598 ], [ -73.993832530292096, 40.772940056453898 ], [ -73.993888992644202, 40.772964013272301 ], [ -73.993892700718803, 40.772963463985 ], [ -73.9939640338186, 40.7729529225101 ], [ -73.994014073121505, 40.7728911147166 ], [ -73.994123506436296, 40.772932327114901 ], [ -73.994138101606893, 40.772910138760899 ], [ -73.994302790805307, 40.772978297258099 ], [ -73.994282983543698, 40.773002070166299 ], [ -73.994378001193397, 40.773047820209101 ], [ -73.994320082454905, 40.773129709396002 ], [ -73.994295478246897, 40.773164513125302 ], [ -73.995024725198306, 40.773489465245099 ], [ -73.995072537318407, 40.773422407319899 ], [ -73.995090840584893, 40.773396743687499 ], [ -73.995015412382799, 40.773366303569397 ], [ -73.995051734034206, 40.773305421821803 ], [ -73.996242100984006, 40.773798060586699 ], [ -73.996197285884506, 40.7738606248843 ], [ -73.996109917191802, 40.773824585213902 ], [ -73.996109231135407, 40.773825646297603 ], [ -73.996064617777094, 40.773895155321803 ], [ -73.996128426793604, 40.773921623335497 ], [ -73.996129954545694, 40.7739222541205 ], [ -73.9961278097974, 40.773924982872103 ], [ -73.996100256419297, 40.773960074524801 ], [ -73.996119800745205, 40.773968593188101 ], [ -73.996180909051304, 40.773995223581302 ], [ -73.996096693621695, 40.774094455689699 ], [ -73.996052701794795, 40.774077164550903 ], [ -73.995573714037107, 40.773879000120097 ], [ -73.9939383901322, 40.773187779614901 ], [ -73.993864401583295, 40.773277797740498 ], [ -73.993824793339499, 40.773390035574202 ], [ -73.993769362266605, 40.7734922632213 ], [ -73.993700757535294, 40.773570420886699 ], [ -73.993624243450299, 40.773640558959997 ], [ -73.993529275852893, 40.7737227152356 ], [ -73.993444867359898, 40.773778818459299 ], [ -73.993413204894907, 40.773810881212199 ], [ -73.993360389677903, 40.773935148969201 ], [ -73.992624111863606, 40.774982325082199 ], [ -73.992579290748793, 40.774964285402703 ], [ -73.992529191920994, 40.775010379493999 ], [ -73.992471193767599, 40.775032428612199 ], [ -73.992405285122601, 40.775026409452302 ], [ -73.992268536928293, 40.7751243029441 ], [ -73.992060532786596, 40.7755058678623 ], [ -73.992126820266293, 40.775517344220802 ], [ -73.992228315699293, 40.7754904801847 ], [ -73.992330794543093, 40.775477170110896 ], [ -73.992363204747804, 40.775510168924399 ], [ -73.992387490918105, 40.775565449089697 ], [ -73.992089132600896, 40.775992240082999 ], [ -73.992020227782206, 40.776081610017002 ], [ -73.991430979633904, 40.7768878300053 ], [ -73.990928621762293, 40.777575148375099 ], [ -73.990731860943995, 40.777568819860399 ], [ -73.990397607480105, 40.777593335313398 ], [ -73.990102713350794, 40.7780047272418 ], [ -73.989650320195807, 40.7786358298736 ], [ -73.989202406026394, 40.779260668654103 ], [ -73.989202128061194, 40.779261056784399 ], [ -73.989177225594204, 40.779295794026098 ], [ -73.989086641920295, 40.779415867699001 ], [ -73.988870064482398, 40.779701193011803 ], [ -73.988873321584407, 40.779722008357403 ], [ -73.989220470075395, 40.779706165801102 ], [ -73.989279306259604, 40.779731709363098 ], [ -73.9894105014383, 40.779745976562197 ], [ -73.989500062213196, 40.779733314474299 ], [ -73.989597940704101, 40.779706416759197 ], [ -73.989681260243799, 40.779685838726998 ], [ -73.989754150302105, 40.779679514779303 ], [ -73.989843695199994, 40.779689022734502 ], [ -73.989945749698705, 40.779704862831899 ], [ -73.990041549579104, 40.779715947257799 ], [ -73.990139425014306, 40.7797080397619 ], [ -73.990224815972098, 40.779690631764502 ], [ -73.990337287882696, 40.779670064437802 ], [ -73.990432046278102, 40.779673242592999 ], [ -73.990509093761005, 40.779676409161901 ], [ -73.990623647039897, 40.779684334447303 ], [ -73.990746517187603, 40.779679598716903 ], [ -73.9908735620035, 40.779654277664797 ], [ -73.990963119973998, 40.7796479542708 ], [ -73.991058920610598, 40.779660622641401 ], [ -73.991158877311193, 40.7796780456219 ], [ -73.991244265245996, 40.779679637599898 ], [ -73.9912567661341, 40.779659053027402 ], [ -73.9912963349759, 40.779638479211798 ], [ -73.991323415514501, 40.779640066043697 ], [ -73.991360903443294, 40.779594152826803 ], [ -73.991552507161998, 40.779583090917903 ], [ -73.991421273763095, 40.779763550310101 ], [ -73.988887591216198, 40.7798871686689 ], [ -73.988941103827401, 40.779964448589801 ], [ -73.988927550653798, 40.780067562686298 ], [ -73.988913127385302, 40.780104307827003 ], [ -73.988913107795895, 40.780130636450501 ], [ -73.988920708599395, 40.780234364546601 ], [ -73.988382497207098, 40.780989344415403 ], [ -73.988233860819093, 40.781241414639602 ], [ -73.988211867796295, 40.781233752965399 ], [ -73.988145628306, 40.781373941780302 ], [ -73.988139328695496, 40.781387551729999 ], [ -73.988128907974499, 40.781410067405602 ], [ -73.988042734999595, 40.781594231351001 ], [ -73.988101740776898, 40.781611148806299 ], [ -73.988077896092605, 40.781659205512902 ], [ -73.988019506900102, 40.781642459320501 ], [ -73.987962239759995, 40.781779257570399 ], [ -73.987921131500897, 40.781841748768301 ], [ -73.987878734148495, 40.781900321900203 ], [ -73.986476250258093, 40.783924844729498 ], [ -73.986253316555803, 40.784247035327098 ], [ -73.986115173741197, 40.784447183003003 ], [ -73.985617250335196, 40.785150133875703 ], [ -73.985467258306997, 40.785368971904198 ], [ -73.986174151571703, 40.786076723701001 ], [ -73.9864573090899, 40.785927490484603 ], [ -73.987073792456599, 40.785197910058997 ], [ -73.9871204607999, 40.785218589742797 ], [ -73.986499227726895, 40.785959474295197 ], [ -73.986166075413195, 40.786130153901397 ], [ -73.986129869088302, 40.786247272808403 ], [ -73.986072581803896, 40.786248977506197 ], [ -73.986028721358494, 40.786237235715603 ], [ -73.986099084431004, 40.786066497140901 ], [ -73.985430767597705, 40.785422213525102 ], [ -73.985082583979704, 40.785930206562497 ], [ -73.985200279542497, 40.785974823654399 ], [ -73.985171948671706, 40.786021605624903 ], [ -73.985217664971103, 40.786038773284901 ], [ -73.985256544286599, 40.785984476968103 ], [ -73.985244185678994, 40.785980843607 ], [ -73.985251075634196, 40.785971411310001 ], [ -73.985283225502101, 40.7859868924061 ], [ -73.985241479189995, 40.7860441296055 ], [ -73.985685331701106, 40.786230395409298 ], [ -73.985718975471499, 40.786184266148197 ], [ -73.985767106781097, 40.786204546340301 ], [ -73.985684318386504, 40.786318057719903 ], [ -73.985637717378395, 40.786298421651303 ], [ -73.985672169020702, 40.786251183487899 ], [ -73.985616684081194, 40.786227917206801 ], [ -73.985206565095297, 40.786055940685102 ], [ -73.985212481903801, 40.786047826354199 ], [ -73.985164086226803, 40.786029270735703 ], [ -73.985133082584198, 40.786068568497299 ], [ -73.985018410297499, 40.7860225091706 ], [ -73.984937424417296, 40.786138992148999 ], [ -73.984656524978604, 40.786543013394798 ], [ -73.985745234400298, 40.786578354410302 ], [ -73.985893718821401, 40.786434800541798 ], [ -73.985944301550902, 40.786461119405999 ], [ -73.985951008116899, 40.786495384996002 ], [ -73.985813820050595, 40.786625136919398 ], [ -73.985136656008706, 40.786595889973299 ], [ -73.984620874724101, 40.786594287947999 ], [ -73.983696662161407, 40.787923553203299 ], [ -73.982348087086095, 40.789863053592597 ], [ -73.9818879049689, 40.790524852895501 ], [ -73.981393190073703, 40.7912365186247 ], [ -73.981290819073806, 40.791383782084999 ], [ -73.980948528825195, 40.791876166542799 ], [ -73.980539124653205, 40.792465085514898 ], [ -73.980435787724502, 40.792602556017101 ], [ -73.980133670878402, 40.793002038894898 ], [ -73.980048289051794, 40.793121798702103 ], [ -73.9792896657233, 40.7941859054337 ], [ -73.978290936186795, 40.795595034041902 ], [ -73.977796199575195, 40.796292903506803 ], [ -73.976853522774903, 40.797639622424498 ], [ -73.976400964183696, 40.798281485368001 ], [ -73.9762867230327, 40.798443509618501 ], [ -73.975832001936794, 40.7991005552662 ], [ -73.975783137284594, 40.799164531147397 ], [ -73.975792845380994, 40.7992179022635 ], [ -73.975763638937593, 40.799268447937401 ], [ -73.975545302239098, 40.799536525588202 ], [ -73.975269276299798, 40.799941124068802 ], [ -73.975088124591807, 40.800197808226599 ], [ -73.974965811966399, 40.800377908827002 ], [ -73.974840688216005, 40.800566517937099 ], [ -73.974667011043095, 40.800821789464599 ], [ -73.974488668983398, 40.801065703681203 ], [ -73.974145061926095, 40.801525170227499 ], [ -73.973942427311101, 40.801817300814598 ], [ -73.973901334160601, 40.801898138498998 ], [ -73.973776216065403, 40.802054120951297 ], [ -73.973722048152993, 40.802176090308699 ], [ -73.973614668207901, 40.802305134944604 ], [ -73.973543720765406, 40.802364686321901 ], [ -73.973368154188194, 40.802638388477803 ], [ -73.973206623927894, 40.802838333452399 ], [ -73.973130034664706, 40.802982990715698 ], [ -73.973072148820606, 40.803063823672296 ], [ -73.973036672451599, 40.803082248971698 ], [ -73.972924613425405, 40.803258098111897 ], [ -73.972869516013901, 40.803329009459901 ], [ -73.972873234210894, 40.803364462936003 ], [ -73.972555741617199, 40.803806910038503 ], [ -73.972173815648105, 40.8043273524626 ], [ -73.972052398422804, 40.804538651559099 ], [ -73.9719543675631, 40.8046279851241 ], [ -73.971819937976605, 40.8047258182958 ], [ -73.971801244646599, 40.804793891093802 ], [ -73.971713450390794, 40.804939966916002 ], [ -73.971621938790605, 40.805050570063699 ], [ -73.971612577011896, 40.805104463149497 ], [ -73.971443552673094, 40.805342702567501 ], [ -73.971292276024499, 40.805536983304201 ], [ -73.971109101501497, 40.805798415505301 ], [ -73.970989122972298, 40.805751178752701 ], [ -73.9708429270962, 40.805693619577397 ], [ -73.9707650665286, 40.8056656486945 ], [ -73.970694707569294, 40.805638544763603 ], [ -73.969788662558898, 40.805308773163802 ], [ -73.968608515520899, 40.8048792256346 ], [ -73.968560576284005, 40.804861859855201 ], [ -73.968496509344206, 40.804840546117397 ], [ -73.968049935201606, 40.804691975853203 ], [ -73.966804714735702, 40.8042158367914 ], [ -73.966702510370695, 40.804176752603297 ], [ -73.966598945859701, 40.804131952822601 ], [ -73.966176392399902, 40.803953780442299 ], [ -73.966036456405007, 40.8038947742658 ], [ -73.965566427459194, 40.8036968768576 ], [ -73.965427846694695, 40.803638593883797 ], [ -73.9643442174782, 40.803182836959301 ], [ -73.9638627033966, 40.8029803138853 ], [ -73.961079378881607, 40.8018086331207 ], [ -73.959648293255199, 40.801164699083898 ], [ -73.958835252641506, 40.800825779887099 ], [ -73.958482553381998, 40.8006787533593 ], [ -73.958174408893896, 40.800590816721403 ], [ -73.958334488121096, 40.800373329229799 ], [ -73.958620231851199, 40.799985301284998 ], [ -73.959078130115898, 40.799360508919897 ], [ -73.959538028183502, 40.798726800875301 ], [ -73.960031623328206, 40.7980463825984 ], [ -73.960524156431205, 40.7973767440158 ], [ -73.960749290030805, 40.797064250642102 ], [ -73.9609811572616, 40.796746918961901 ], [ -73.961442046510797, 40.796119101459198 ], [ -73.961901294010104, 40.7954875446991 ], [ -73.962361241016893, 40.794860334557299 ], [ -73.962822936997995, 40.794245509551402 ], [ -73.9629772345031, 40.794024455307799 ], [ -73.963080749947096, 40.7938761506093 ], [ -73.963219766501993, 40.793686847015003 ], [ -73.963712446394396, 40.793017302136001 ], [ -73.963807449627595, 40.792888174865702 ], [ -73.964177425815294, 40.792370318473701 ], [ -73.964686846795203, 40.791672300089999 ], [ -73.965178495829605, 40.7909986142419 ], [ -73.965629435671104, 40.790374390636003 ], [ -73.966096446120503, 40.789742662631099 ], [ -73.966553707954901, 40.789115425551401 ], [ -73.967011211346801, 40.788485063328501 ], [ -73.967450524447401, 40.787868993543398 ], [ -73.967928404375101, 40.787229843434602 ], [ -73.968386234736897, 40.786603968694202 ], [ -73.968851809890197, 40.785982325020299 ], [ -73.9690875272439, 40.7856479683728 ], [ -73.969110946147097, 40.785611553152698 ], [ -73.969337174353896, 40.785301551941501 ], [ -73.969833696850401, 40.784619182317201 ], [ -73.970302123676205, 40.7839836855388 ], [ -73.970761572669502, 40.783348409003402 ], [ -73.971224364482595, 40.782714527399698 ], [ -73.971724497950305, 40.782029747620399 ], [ -73.973572617062402, 40.779486132216697 ], [ -73.974068124862697, 40.778813687167997 ], [ -73.974294390965298, 40.778506259332097 ], [ -73.974533756619707, 40.778176055330903 ], [ -73.974755683913898, 40.777872962667999 ], [ -73.975002562148603, 40.7775360500804 ], [ -73.975460767615104, 40.7769069927514 ] ] ] } }
]
}
