{
"type": "FeatureCollection",
"name": "upper_east_side",
"crs": { "type": "name", "properties": { "name": "urn:ogc:def:crs:OGC:1.3:CRS84" } },
"features": [
{ "type": "Feature", "properties": { "OBJECTID": 140, "BoroCode": 1, "BoroName": "Manhattan", "CountyFIPS": "061", "NTA2020": "MN0801", "NTAName": "Upper East Side-Lenox Hill-Roosevelt Island", "NTAAbbrev": "UES_LnxHl", "NTAType": 0, "CDTA2020": "MN08", "CDTAName": "MN08 Upper East Side-Roosevelt Island (CD 8 Equivalent)", "Shape__Area": 21500956.481011592, "Shape__Length": 38425.383337326151 }, "geometry": { "type": "MultiPolygon", "coordinates": [ [ [ [ -73.957520327683696, 40.748311884648302 ], [ -73.9576682399058, 40.748381744083702 ], [ -73.957727978544995, 40.748302326942898 ], [ -73.957840974659803, 40.748346268426999 ], [ -73.957689753636998, 40.748543291967302 ], [ -73.957577939842494, 40.748496790468799 ], [ -73.957637203540997, 40.748414612537204 ], [ -73.957494875836204, 40.748344729826698 ], [ -73.957520327683696, 40.748311884648302 ] ] ], [ [ [ -73.943220666941798, 40.767900913245903 ], [ -73.943815705118297, 40.767229181290297 ], [ -73.944224862880304, 40.766673247007098 ], [ -73.944841698656802, 40.765831897321704 ], [ -73.9462393120874, 40.764293283130499 ], [ -73.946573083374403, 40.763925826757998 ], [ -73.946622846673307, 40.763871040565498 ], [ -73.946826034920505, 40.763625901664 ], [ -73.947090201997199, 40.763307189444603 ], [ -73.947884116791798, 40.7623739657393 ], [ -73.947931229553703, 40.762318584394599 ], [ -73.948326028921301, 40.761854498031703 ], [ -73.948779327187594, 40.7613228387753 ], [ -73.9491488186342, 40.760889483801499 ], [ -73.949433188917993, 40.760556885098801 ], [ -73.949713700362693, 40.760337185069297 ], [ -73.950084059840904, 40.7600557380797 ], [ -73.950335021677603, 40.759865023123801 ], [ -73.951261492853902, 40.7588183837046 ], [ -73.951487696660706, 40.758674722648699 ], [ -73.951713338000204, 40.758470761450297 ], [ -73.951779654167495, 40.758410817111901 ], [ -73.952093764209593, 40.758001407488599 ], [ -73.952178068237501, 40.757839603549101 ], [ -73.952212897417297, 40.757591906892301 ], [ -73.952542227441398, 40.757103581489503 ], [ -73.953122999685704, 40.756532071647101 ], [ -73.953221533881404, 40.7564351086152 ], [ -73.953270320372496, 40.756389310890199 ], [ -73.953308394631094, 40.756352593905902 ], [ -73.953346998911698, 40.756319642438001 ], [ -73.953407264818907, 40.756266798635302 ], [ -73.954096711846404, 40.755663195561198 ], [ -73.955074704026302, 40.7548069489686 ], [ -73.955196466617906, 40.754782789880998 ], [ -73.955795587314199, 40.754169813672497 ], [ -73.956925478272296, 40.752969426382897 ], [ -73.957211470615803, 40.752723622762602 ], [ -73.957915960423705, 40.752118120313099 ], [ -73.958608993248006, 40.751621589653098 ], [ -73.958686390141295, 40.751582043077498 ], [ -73.959033921900797, 40.751394688378099 ], [ -73.9590290102241, 40.751305635440602 ], [ -73.959560195248002, 40.750822863238497 ], [ -73.959903306853207, 40.750566780767898 ], [ -73.960393141898393, 40.750264451455202 ], [ -73.960814305570594, 40.7499088821924 ], [ -73.960839074392297, 40.749888714682903 ], [ -73.9608566618531, 40.749864576543601 ], [ -73.960892491149096, 40.749822602909099 ], [ -73.960940636660894, 40.749788491046701 ], [ -73.960991070621503, 40.749761391985999 ], [ -73.961051040864604, 40.749750192098801 ], [ -73.961112243588502, 40.749756442181102 ], [ -73.961166204337999, 40.749779276813399 ], [ -73.961329891243906, 40.749609222801297 ], [ -73.961539991152804, 40.749731385033797 ], [ -73.961387997522095, 40.7498887685678 ], [ -73.961428463257604, 40.7499298780251 ], [ -73.961448569635095, 40.749978900671202 ], [ -73.961435021628404, 40.750022561408002 ], [ -73.961401676750796, 40.750059566232999 ], [ -73.961372989679205, 40.750078734477803 ], [ -73.961350956830202, 40.750102454014097 ], [ -73.961112037842994, 40.750608735280899 ], [ -73.960687015906103, 40.751210202983302 ], [ -73.960012760105698, 40.7518397829948 ], [ -73.959892054371593, 40.752105743841497 ], [ -73.959573001461905, 40.752812982268203 ], [ -73.959502236002294, 40.752964648093602 ], [ -73.959017602870503, 40.753603325997503 ], [ -73.958928147113696, 40.753570758398098 ], [ -73.958459804495206, 40.753957502634002 ], [ -73.957682164182103, 40.754830227492597 ], [ -73.956896204982897, 40.755712262353697 ], [ -73.956464923665294, 40.756196249182999 ], [ -73.955987069915196, 40.756732492064202 ], [ -73.955656566711298, 40.757103373071402 ], [ -73.9555942977928, 40.757231067043797 ], [ -73.955568682056494, 40.7572659335639 ], [ -73.955536078814205, 40.7573043013549 ], [ -73.9555056902812, 40.757341722967503 ], [ -73.955465988834504, 40.757385635116897 ], [ -73.955447325171306, 40.7574075183527 ], [ -73.955343373178096, 40.757529402505803 ], [ -73.954995495593593, 40.757937286686897 ], [ -73.953909385829604, 40.7592091421673 ], [ -73.953844383384194, 40.759247212714101 ], [ -73.953782891369002, 40.759331349573301 ], [ -73.953749040451498, 40.759372205280002 ], [ -73.953663852683604, 40.759488001493303 ], [ -73.953614157127305, 40.759510416399998 ], [ -73.953324650663205, 40.759754232131201 ], [ -73.953392841848398, 40.759805029809101 ], [ -73.953125949488395, 40.760061025940402 ], [ -73.952979316547498, 40.759970374872502 ], [ -73.952486013378902, 40.760468378128301 ], [ -73.952087756820504, 40.760870422613102 ], [ -73.951878107095297, 40.761253850586101 ], [ -73.9516264837969, 40.761687131487498 ], [ -73.950973349841405, 40.762502775571797 ], [ -73.950938783171694, 40.762578763318203 ], [ -73.950732121662995, 40.762766493558097 ], [ -73.950376914491898, 40.763182113295997 ], [ -73.949973351149296, 40.763654298641796 ], [ -73.949205193666202, 40.764277912306497 ], [ -73.949087721316104, 40.764272295751702 ], [ -73.948814586498102, 40.764619023022902 ], [ -73.947702523191296, 40.766030666194702 ], [ -73.9465541717082, 40.767376474237302 ], [ -73.945916021679906, 40.768222208379797 ], [ -73.945852555936497, 40.768256019605602 ], [ -73.945845946846106, 40.768329497636003 ], [ -73.945755045913202, 40.768309940811001 ], [ -73.945705005249707, 40.768336203702297 ], [ -73.945598017896302, 40.7684791344277 ], [ -73.945482575402707, 40.7686330488946 ], [ -73.945628643495297, 40.768701222643799 ], [ -73.945564453034294, 40.7688100455156 ], [ -73.945406350992201, 40.768740442518997 ], [ -73.945383514276202, 40.7687714725351 ], [ -73.945246535856796, 40.7687815378045 ], [ -73.945158474651095, 40.7691265873164 ], [ -73.945092090362095, 40.7692219904011 ], [ -73.944724964540995, 40.769742328584499 ], [ -73.944726217312507, 40.769794541245403 ], [ -73.944674365157098, 40.769828237772401 ], [ -73.944563047467398, 40.769894665663301 ], [ -73.944271502849304, 40.770148805050603 ], [ -73.944005671701206, 40.770302251986102 ], [ -73.943205573727198, 40.771000669748901 ], [ -73.942818541427599, 40.771419131300298 ], [ -73.942579734114901, 40.771710127381503 ], [ -73.942128178110096, 40.772042970751201 ], [ -73.941371338178996, 40.772317421149403 ], [ -73.940888503380904, 40.772380787132498 ], [ -73.940571006045005, 40.772623029876897 ], [ -73.940276040977096, 40.772955707881202 ], [ -73.940181029115095, 40.7729675860854 ], [ -73.940078087893994, 40.772934457348299 ], [ -73.940013004257295, 40.772850631529501 ], [ -73.940185943296797, 40.772573177217801 ], [ -73.940283510308902, 40.772309677349902 ], [ -73.940279098253399, 40.771721411983101 ], [ -73.940201648766106, 40.7711365757946 ], [ -73.940230134852797, 40.770860531741199 ], [ -73.940281289260597, 40.770678981049301 ], [ -73.940356765756107, 40.770504844373797 ], [ -73.940827484099401, 40.769920426637498 ], [ -73.941119218339907, 40.769422678338898 ], [ -73.941220772917404, 40.769342612867298 ], [ -73.9412611850248, 40.769317149131297 ], [ -73.941801758650399, 40.769055196293102 ], [ -73.9425694929907, 40.7685141752671 ], [ -73.942856717856102, 40.768311763895198 ], [ -73.943220666941798, 40.767900913245903 ] ] ], [ [ [ -73.958456453496296, 40.758589169233304 ], [ -73.958492631483296, 40.758554170858098 ], [ -73.958608485050704, 40.758602126468901 ], [ -73.958720517753903, 40.7586484996515 ], [ -73.958758134606796, 40.758596969578399 ], [ -73.958935921993998, 40.7583434224195 ], [ -73.959038246977201, 40.758392049581502 ], [ -73.959723239993707, 40.758671330688799 ], [ -73.961967174022206, 40.759627727901702 ], [ -73.963082173578997, 40.7600914314108 ], [ -73.963557627116202, 40.760289085771902 ], [ -73.964314974369799, 40.7606074985761 ], [ -73.966584823063997, 40.7615592029087 ], [ -73.968188317432194, 40.762235088734201 ], [ -73.969689451563696, 40.762874230424003 ], [ -73.969801728210996, 40.762921780116301 ], [ -73.969906332780795, 40.762966310220001 ], [ -73.971412857409803, 40.7635957417613 ], [ -73.973016312828506, 40.764287147085803 ], [ -73.972554963914703, 40.764905999501202 ], [ -73.972099964631497, 40.7655255191424 ], [ -73.971649183424404, 40.766150737028397 ], [ -73.971186649767205, 40.766778558364599 ], [ -73.970729214669404, 40.767401991249201 ], [ -73.970283095441502, 40.7680333014019 ], [ -73.969825993188493, 40.768654277428098 ], [ -73.969517492011207, 40.769073469124599 ], [ -73.969366286327599, 40.769278925568699 ], [ -73.968905987194901, 40.769909101178797 ], [ -73.968442999314604, 40.770524595894898 ], [ -73.967994717645595, 40.7711555001137 ], [ -73.967535424210197, 40.771784453284297 ], [ -73.9670409147881, 40.772469488267802 ], [ -73.966537609661401, 40.773148638694998 ], [ -73.966075929169094, 40.773781258842099 ], [ -73.965611125524902, 40.774415471327998 ], [ -73.965148892947795, 40.7750525026158 ], [ -73.964688796847696, 40.7756853518786 ], [ -73.964229640061902, 40.776318579485903 ], [ -73.963762677383997, 40.776959240380101 ], [ -73.963727465605601, 40.777013988357098 ], [ -73.963231357856202, 40.777685317967801 ], [ -73.963136037419901, 40.777816321913399 ], [ -73.962768594232699, 40.778321311635402 ], [ -73.962305053324499, 40.778955312091803 ], [ -73.961839807473893, 40.7795924637268 ], [ -73.961370165253896, 40.780238020218398 ], [ -73.960911599578694, 40.780865307336498 ], [ -73.960415744616796, 40.7815325392624 ], [ -73.959922380822704, 40.782221215614499 ], [ -73.959470498430207, 40.782841593411497 ], [ -73.959013204558701, 40.783469556520799 ], [ -73.958569538417606, 40.784091716063003 ], [ -73.958104971972503, 40.784721276893798 ], [ -73.957637431316897, 40.785351730626097 ], [ -73.957163871212401, 40.785987910703 ], [ -73.956720067844998, 40.786609066404999 ], [ -73.956262746289099, 40.787231148998004 ], [ -73.955778796102706, 40.787922197341402 ], [ -73.954166206346102, 40.787235836369099 ], [ -73.953714886870898, 40.7870458582981 ], [ -73.953417903727299, 40.786920843896702 ], [ -73.952662803182406, 40.786603292848604 ], [ -73.952552891214495, 40.786556853378798 ], [ -73.952465736838803, 40.786518704132597 ], [ -73.952230911782806, 40.7864198229327 ], [ -73.951298144620793, 40.786028347522503 ], [ -73.950929562522205, 40.785873653314603 ], [ -73.950339475739696, 40.785625422624697 ], [ -73.949333141019594, 40.785201399122002 ], [ -73.9487776974523, 40.784966508464699 ], [ -73.947844894603094, 40.784572028561598 ], [ -73.947090953140005, 40.784253178252101 ], [ -73.946446406582197, 40.783981450502303 ], [ -73.9459232935058, 40.7837610712592 ], [ -73.944724078423107, 40.783255844986499 ], [ -73.944648093047206, 40.783226146144699 ], [ -73.944055827385895, 40.782972630359303 ], [ -73.943956034518607, 40.782923792460899 ], [ -73.9438946782643, 40.782895999635997 ], [ -73.943833999605303, 40.782867361775502 ], [ -73.943761485564707, 40.782837204516603 ], [ -73.9436750156339, 40.782724896008901 ], [ -73.943649668163403, 40.782664434102898 ], [ -73.943882113804506, 40.781540315403298 ], [ -73.943872192648101, 40.781281298560202 ], [ -73.943716121177701, 40.780638087397101 ], [ -73.943601907361, 40.7801673712463 ], [ -73.943440199890901, 40.779771513674199 ], [ -73.9424656857054, 40.780040771839303 ], [ -73.942433849137601, 40.780042404263099 ], [ -73.942403634197902, 40.7800346063012 ], [ -73.942379686222907, 40.780018576836603 ], [ -73.942365687040805, 40.779996780287199 ], [ -73.942121654147599, 40.77948082807 ], [ -73.942114259254495, 40.779461872528003 ], [ -73.942115906819595, 40.779442140759102 ], [ -73.942126395163299, 40.779424048051098 ], [ -73.942144440443499, 40.779409809059104 ], [ -73.942731166230303, 40.779265519289702 ], [ -73.942718994793793, 40.779204379747 ], [ -73.942721278724306, 40.779142568477603 ], [ -73.942737945590196, 40.779082044666701 ], [ -73.942768467077599, 40.779024726686899 ], [ -73.942811875936101, 40.778972430959001 ], [ -73.942866796136002, 40.778926815403999 ], [ -73.942931486908805, 40.778889325849697 ], [ -73.943003897809305, 40.778861150560303 ], [ -73.9426567396103, 40.778133236989298 ], [ -73.942458842643205, 40.7774157446296 ], [ -73.942296494003401, 40.777340233755801 ], [ -73.942281932461199, 40.777355709504803 ], [ -73.942321121072297, 40.777460790562401 ], [ -73.942364769203493, 40.777455282216899 ], [ -73.942456889075004, 40.777756135681997 ], [ -73.942429971624506, 40.777761098917502 ], [ -73.942426344039504, 40.777750591414403 ], [ -73.942391423804906, 40.777755550139801 ], [ -73.942360866923593, 40.777762170544598 ], [ -73.942363766774903, 40.777773230519799 ], [ -73.942336850268305, 40.777777087730797 ], [ -73.942242545941994, 40.777478445417202 ], [ -73.942286925828199, 40.777468514124799 ], [ -73.942241937341805, 40.777342418095998 ], [ -73.942257228048405, 40.777324731548298 ], [ -73.942121256496605, 40.777263837675498 ], [ -73.942186802110996, 40.777172080005798 ], [ -73.942311139147094, 40.7772279911308 ], [ -73.942295115343299, 40.777251207502999 ], [ -73.942435471015301, 40.777308732747798 ], [ -73.942431077414398, 40.777297220211103 ], [ -73.942339325941106, 40.777257172432499 ], [ -73.942386103455505, 40.777179368340001 ], [ -73.942330261235298, 40.7771634874574 ], [ -73.942277659267404, 40.777142150645297 ], [ -73.942229215152494, 40.777115730109301 ], [ -73.942185773957704, 40.7770846867366 ], [ -73.942148093474998, 40.777049562055502 ], [ -73.942116831001599, 40.777010968789199 ], [ -73.942092531875005, 40.776969580166103 ], [ -73.942075619959894, 40.776926118176398 ], [ -73.942004099076598, 40.776193588441203 ], [ -73.942083036439001, 40.775965287328098 ], [ -73.942402441444102, 40.775735198480902 ], [ -73.9425891283895, 40.775227227376902 ], [ -73.942931869873505, 40.774684538766401 ], [ -73.943340379667106, 40.7742194632159 ], [ -73.9436657503921, 40.773849034718197 ], [ -73.943962276028998, 40.773538690562098 ], [ -73.944365366831207, 40.773116809165899 ], [ -73.944880328523197, 40.772577832257298 ], [ -73.945616572879104, 40.771951296689203 ], [ -73.946405622156604, 40.7712773155612 ], [ -73.946909074432497, 40.770742181543199 ], [ -73.947491187807103, 40.770123424199703 ], [ -73.948087767461601, 40.769483062750602 ], [ -73.948665598323004, 40.768865893287597 ], [ -73.949086801330097, 40.768286540058298 ], [ -73.949374755026895, 40.767890460229403 ], [ -73.949580554476398, 40.767637199297702 ], [ -73.950071226914005, 40.7670333568635 ], [ -73.9506648855766, 40.766388980185198 ], [ -73.951226410842693, 40.765779467670299 ], [ -73.951766243317195, 40.765171980402201 ], [ -73.952311066262098, 40.764562557026601 ], [ -73.953367034352993, 40.763376439063101 ], [ -73.954419695768706, 40.762192372833802 ], [ -73.955737651737707, 40.761032660457097 ], [ -73.955873658761504, 40.760912979696897 ], [ -73.956310611828698, 40.760516635042599 ], [ -73.956334625170797, 40.760494853047099 ], [ -73.956979852940407, 40.759905021791099 ], [ -73.957318811633598, 40.759600479530199 ], [ -73.957600130282003, 40.759350585472703 ], [ -73.957639163260495, 40.759315007104902 ], [ -73.958006402105099, 40.758980266757398 ], [ -73.958258044423204, 40.758757528268703 ], [ -73.958362689357699, 40.758668509009503 ], [ -73.958386722778499, 40.758648064450298 ], [ -73.958427637945505, 40.758612140048101 ], [ -73.958456453496296, 40.758589169233304 ] ] ], [ [ [ -73.935567647029202, 40.771637386281299 ], [ -73.9358533825595, 40.7717242723919 ], [ -73.935811306028796, 40.771807639038897 ], [ -73.935699768450803, 40.7717751735386 ], [ -73.935609964044801, 40.771939548134398 ], [ -73.935569400030701, 40.771927048484997 ], [ -73.935657782389399, 40.771764666849101 ], [ -73.935523060159497, 40.771724563969201 ], [ -73.935567647029202, 40.771637386281299 ] ] ], [ [ [ -73.937800872596597, 40.781039611950803 ], [ -73.937647748964906, 40.781009488046401 ], [ -73.937655090377703, 40.780798279664801 ], [ -73.9376003769287, 40.780476112912297 ], [ -73.9377941211213, 40.780366176234899 ], [ -73.938239165988506, 40.780267351452999 ], [ -73.938397656862904, 40.780270705373901 ], [ -73.938613439238793, 40.780347227859103 ], [ -73.939238892965307, 40.779741665908098 ], [ -73.939319651083906, 40.779726273670803 ], [ -73.939531589196804, 40.779535892059698 ], [ -73.939585221009196, 40.779584745814098 ], [ -73.939433812258002, 40.779820472132897 ], [ -73.939494728794003, 40.779881963183598 ], [ -73.939376585038801, 40.779987043742203 ], [ -73.939306716185698, 40.779959496442103 ], [ -73.939219327446494, 40.780021792126703 ], [ -73.938729460332894, 40.780519015724302 ], [ -73.938840949558397, 40.780607521832998 ], [ -73.938830065215598, 40.7807717232958 ], [ -73.938745661997203, 40.781052148165699 ], [ -73.938302410498196, 40.781370356566299 ], [ -73.938083563602106, 40.781426709997199 ], [ -73.937969008086895, 40.781297606259002 ], [ -73.938050920100096, 40.7810640781926 ], [ -73.938068661780804, 40.780952974825901 ], [ -73.9380478369022, 40.780837816381499 ], [ -73.937902767055903, 40.780758268268102 ], [ -73.937795918048295, 40.780789530860801 ], [ -73.937800872596597, 40.781039611950803 ] ] ] ] } }
]
}
